{
"type": "FeatureCollection",
"name": "distritos_lima_callao",
"crs": { "type": "name", "properties": { "name": "urn:ogc:def:crs:OGC:1.3:CRS84" } },
"features": [
{ "type": "Feature", "properties": { "OBJECTID": 705, "IDDIST": "150124", "IDDPTO": "15", "IDPROV": "1501", "NOMBDIST": "PUCUSANA", "NOMBPROV": "LIMA", "NOMBDEP": "LIMA", "DCTO": "LEY", "LEY": "9782", "FECHA": "22/01/1943", "NOM_CAP": "PUCUSANA", "SHAPE_LENG": 0.36480843958999998, "SHAPE_AREA": 0.00241249649, "SHAPE_LE_1": 0.36583732839, "SHAPE_AR_1": 0.00241798033, "AREA_MINAM": 2908.31 }, "geometry": { "type": "Polygon", "coordinates": [ [ [ -76.753302736008251, -12.428900355207638 ], [ -76.751681611006731, -12.462689480239103 ], [ -76.784164236037114, -12.51993160529239 ], [ -76.802480486054236, -12.504322230277847 ], [ -76.780068361033258, -12.417058605196596 ], [ -76.753302736008251, -12.428900355207638 ] ] ] } },
{ "type": "Feature", "properties": { "OBJECTID": 706, "IDDIST": "150138", "IDDPTO": "15", "IDPROV": "1501", "NOMBDIST": "SANTA MARIA DEL MAR", "NOMBPROV": "LIMA", "NOMBDEP": "LIMA", "DCTO": "LEY", "LEY": "13888", "FECHA": "16/01/1962", "NOM_CAP": "SANTA MARIA DEL MAR", "SHAPE_LENG": 0.14516573, "SHAPE_AREA": 0.00064829395, "SHAPE_LE_1": 0.14521865952, "SHAPE_AR_1": 0.00064447829, "AREA_MINAM": 775.33 }, "geometry": { "type": "Polygon", "coordinates": [ [ [ -76.756906361011616, -12.401468730182058 ], [ -76.753302736008251, -12.428900355207638 ], [ -76.780068361033258, -12.417058605196596 ], [ -76.779898486033105, -12.399449230180206 ], [ -76.756906361011616, -12.401468730182058 ] ] ] } },
{ "type": "Feature", "properties": { "OBJECTID": 716, "IDDIST": "150129", "IDDPTO": "15", "IDPROV": "1501", "NOMBDIST": "SAN BARTOLO", "NOMBPROV": "LIMA", "NOMBDEP": "LIMA", "DCTO": "LEY", "LEY": "10582", "FECHA": "05/05/1946", "NOM_CAP": "SAN BARTOLO", "SHAPE_LENG": 0.37209145003, "SHAPE_AREA": 0.00446893051, "SHAPE_LE_1": 0.36851115788, "SHAPE_AR_1": 0.00445813692, "AREA_MINAM": 5363.84 }, "geometry": { "type": "Polygon", "coordinates": [ [ [ -76.667992235928509, -12.36023048014369 ], [ -76.683411485942912, -12.382109730164053 ], [ -76.756906361011616, -12.401468730182058 ], [ -76.779898486033105, -12.399449230180206 ], [ -76.789203111041815, -12.383925605165741 ], [ -76.725390110982147, -12.34132110512607 ], [ -76.678419985938248, -12.333489980118777 ], [ -76.667992235928509, -12.36023048014369 ] ] ] } },
{ "type": "Feature", "properties": { "OBJECTID": 745, "IDDIST": "150127", "IDDPTO": "15", "IDPROV": "1501", "NOMBDIST": "PUNTA NEGRA", "NOMBPROV": "LIMA", "NOMBDEP": "LIMA", "DCTO": "LEY", "LEY": "12096", "FECHA": "07/04/1954", "NOM_CAP": "PUNTA NEGRA", "SHAPE_LENG": 0.59091314075000001, "SHAPE_AREA": 0.01072098887, "SHAPE_LE_1": 0.59585055367999995, "SHAPE_AR_1": 0.0107734885, "AREA_MINAM": 12965.18 }, "geometry": { "type": "Polygon", "coordinates": [ [ [ -76.678419985938248, -12.333489980118777 ], [ -76.725390110982147, -12.34132110512607 ], [ -76.789203111041815, -12.383925605165741 ], [ -76.81619923606705, -12.345376980129847 ], [ -76.727299985983933, -12.295269980083187 ], [ -76.665619985926298, -12.24376998003522 ], [ -76.645579985907588, -12.211669980005338 ], [ -76.621099610884727, -12.226883105019494 ], [ -76.636788860899387, -12.279363980068359 ], [ -76.678419985938248, -12.333489980118777 ] ] ] } },
{ "type": "Feature", "properties": { "OBJECTID": 750, "IDDIST": "150142", "IDDPTO": "15", "IDPROV": "1501", "NOMBDIST": "VILLA EL SALVADOR", "NOMBPROV": "LIMA", "NOMBDEP": "LIMA", "DCTO": "LEY", "LEY": "23605", "FECHA": "01/06/1983", "NOM_CAP": "VILLA EL SALVADOR", "SHAPE_LENG": 0.23083273592, "SHAPE_AREA": 0.00282147717, "SHAPE_LE_1": 0.2308913782, "SHAPE_AR_1": 0.00282139158, "AREA_MINAM": 3397.28 }, "geometry": { "type": "Polygon", "coordinates": [ [ [ -76.910959611155732, -12.233494980025638 ], [ -76.939863236182802, -12.247732480038872 ], [ -76.975904236216536, -12.230748105023045 ], [ -76.972912736213758, -12.19494972998972 ], [ -76.951669986193863, -12.185589854981009 ], [ -76.910959611155732, -12.233494980025638 ] ] ] } },
{ "type": "Feature", "properties": { "OBJECTID": 751, "IDDIST": "150126", "IDDPTO": "15", "IDPROV": "1501", "NOMBDIST": "PUNTA HERMOSA", "NOMBPROV": "LIMA", "NOMBDEP": "LIMA", "DCTO": "LEY", "LEY": "12095", "FECHA": "07/04/1954", "NOM_CAP": "PUNTA HERMOSA", "SHAPE_LENG": 0.59084377432000001, "SHAPE_AREA": 0.01014436305, "SHAPE_LE_1": 0.59696424101000001, "SHAPE_AR_1": 0.01013153604, "AREA_MINAM": 12194.62 }, "geometry": { "type": "Polygon", "coordinates": [ [ [ -76.645579985907588, -12.211669980005338 ], [ -76.665619985926298, -12.24376998003522 ], [ -76.727299985983933, -12.295269980083187 ], [ -76.81619923606705, -12.345376980129847 ], [ -76.843097611092233, -12.311703105098449 ], [ -76.819241736069898, -12.282846355071586 ], [ -76.740069985995873, -12.253639980044404 ], [ -76.662031235922967, -12.177962854973963 ], [ -76.645579985907588, -12.211669980005338 ] ] ] } },
{ "type": "Feature", "properties": { "OBJECTID": 753, "IDDIST": "150119", "IDDPTO": "15", "IDPROV": "1501", "NOMBDIST": "LURIN", "NOMBPROV": "LIMA", "NOMBDEP": "LIMA", "DCTO": "LEY", "LEY": "S/N", "FECHA": "02/01/1857", "NOM_CAP": "LURIN", "SHAPE_LENG": 0.77561326408999998, "SHAPE_AREA": 0.01554849519, "SHAPE_LE_1": 0.77990225126000001, "SHAPE_AR_1": 0.01558579404, "AREA_MINAM": 18763.08 }, "geometry": { "type": "Polygon", "coordinates": [ [ [ -76.662031235922967, -12.177962854973963 ], [ -76.740069985995873, -12.253639980044404 ], [ -76.819241736069898, -12.282846355071586 ], [ -76.843097611092233, -12.311703105098449 ], [ -76.939863236182802, -12.247732480038872 ], [ -76.910959611155732, -12.233494980025638 ], [ -76.890953111136994, -12.207761730001668 ], [ -76.845831861094794, -12.221167730014164 ], [ -76.78919923604181, -12.202914104997172 ], [ -76.733978360990193, -12.164414104961308 ], [ -76.662031235922967, -12.177962854973963 ] ] ] } },
{ "type": "Feature", "properties": { "OBJECTID": 757, "IDDIST": "150108", "IDDPTO": "15", "IDPROV": "1501", "NOMBDIST": "CHORRILLOS", "NOMBPROV": "LIMA", "NOMBDEP": "LIMA", "DCTO": "LEY", "LEY": "S/N", "FECHA": "02/01/1857", "NOM_CAP": "CHORRILLOS", "SHAPE_LENG": 0.30967015126000003, "SHAPE_AREA": 0.00307789136, "SHAPE_LE_1": 0.30939357304999998, "SHAPE_AR_1": 0.0030735361, "AREA_MINAM": 3701.51 }, "geometry": { "type": "Polygon", "coordinates": [ [ [ -77.016035111254155, -12.15562885495309 ], [ -76.98623736122623, -12.167665854964293 ], [ -76.972912736213758, -12.19494972998972 ], [ -76.975904236216536, -12.230748105023045 ], [ -77.037708986274467, -12.204083979998186 ], [ -77.026308611263786, -12.157306604954663 ], [ -77.016035111254155, -12.15562885495309 ] ] ] } },
{ "type": "Feature", "properties": { "OBJECTID": 760, "IDDIST": "150104", "IDDPTO": "15", "IDPROV": "1501", "NOMBDIST": "BARRANCO", "NOMBPROV": "LIMA", "NOMBDEP": "LIMA", "DCTO": "LEY", "LEY": "S/N", "FECHA": "26/10/1874", "NOM_CAP": "BARRANCO", "SHAPE_LENG": 0.08229323943, "SHAPE_AREA": 0.0002279573, "SHAPE_LE_1": 0.08151857517, "SHAPE_AR_1": 0.00022817755, "AREA_MINAM": 274.85 }, "geometry": { "type": "Polygon", "coordinates": [ [ [ -77.017999986255987, -12.131246104930389 ], [ -77.016035111254155, -12.15562885495309 ], [ -77.026308611263786, -12.157306604954663 ], [ -77.029437486266715, -12.140140604938653 ], [ -77.017999986255987, -12.131246104930389 ] ] ] } },
{ "type": "Feature", "properties": { "OBJECTID": 762, "IDDIST": "150143", "IDDPTO": "15", "IDPROV": "1501", "NOMBDIST": "VILLA MARIA DEL TRIUNFO", "NOMBPROV": "LIMA", "NOMBDEP": "LIMA", "DCTO": "LEY", "LEY": "13796", "FECHA": "28/12/1961", "NOM_CAP": "VILLA MARIA DEL TRIUNFO", "SHAPE_LENG": 0.33315475468, "SHAPE_AREA": 0.00547192894, "SHAPE_LE_1": 0.33137816965, "SHAPE_AR_1": 0.00549889672, "AREA_MINAM": 6622.29 }, "geometry": { "type": "Polygon", "coordinates": [ [ [ -76.910781986155584, -12.122333479922114 ], [ -76.881240236127908, -12.167859479964521 ], [ -76.890953111136994, -12.207761730001668 ], [ -76.910959611155732, -12.233494980025638 ], [ -76.951669986193863, -12.185589854981009 ], [ -76.940791111183671, -12.122160854921937 ], [ -76.910781986155584, -12.122333479922114 ] ] ] } },
{ "type": "Feature", "properties": { "OBJECTID": 763, "IDDIST": "150133", "IDDPTO": "15", "IDPROV": "1501", "NOMBDIST": "SAN JUAN DE MIRAFLORES", "NOMBPROV": "LIMA", "NOMBDEP": "LIMA", "DCTO": "LEY", "LEY": "15382", "FECHA": "12/01/1965", "NOM_CAP": "CIUDAD DE DIOS", "SHAPE_LENG": 0.23361624077000001, "SHAPE_AREA": 0.00186533679, "SHAPE_LE_1": 0.23392638859000001, "SHAPE_AR_1": 0.00184771401, "AREA_MINAM": 2225.42 }, "geometry": { "type": "Polygon", "coordinates": [ [ [ -76.947746111190185, -12.117535104917639 ], [ -76.940791111183671, -12.122160854921937 ], [ -76.951669986193863, -12.185589854981009 ], [ -76.972912736213758, -12.19494972998972 ], [ -76.98623736122623, -12.167665854964293 ], [ -76.947746111190185, -12.117535104917639 ] ] ] } },
{ "type": "Feature", "properties": { "OBJECTID": 768, "IDDIST": "150122", "IDDPTO": "15", "IDPROV": "1501", "NOMBDIST": "MIRAFLORES", "NOMBPROV": "LIMA", "NOMBDEP": "LIMA", "DCTO": "LEY", "LEY": "S/N", "FECHA": "02/01/1857", "NOM_CAP": "MIRAFLORES", "SHAPE_LENG": 0.1884543863, "SHAPE_AREA": 0.00076018975, "SHAPE_LE_1": 0.18934032954, "SHAPE_AR_1": 0.00075944442, "AREA_MINAM": 914.88 }, "geometry": { "type": "Polygon", "coordinates": [ [ [ -77.002586361241569, -12.126561854926019 ], [ -77.017999986255987, -12.131246104930389 ], [ -77.029437486266715, -12.140140604938653 ], [ -77.055966736291595, -12.111019479911542 ], [ -77.027321611264725, -12.102841979903912 ], [ -77.002586361241569, -12.126561854926019 ] ] ] } },
{ "type": "Feature", "properties": { "OBJECTID": 771, "IDDIST": "150141", "IDDPTO": "15", "IDPROV": "1501", "NOMBDIST": "SURQUILLO", "NOMBPROV": "LIMA", "NOMBDEP": "LIMA", "DCTO": "D.L.", "LEY": "11058", "FECHA": "15/07/1949", "NOM_CAP": "SURQUILLO", "SHAPE_LENG": 0.11212395314, "SHAPE_AREA": 0.00038400445, "SHAPE_LE_1": 0.11131117019, "SHAPE_AR_1": 0.00038425396, "AREA_MINAM": 462.9 }, "geometry": { "type": "Polygon", "coordinates": [ [ [ -77.010441361248908, -12.107277354908053 ], [ -76.993617236233149, -12.111321604911833 ], [ -77.002586361241569, -12.126561854926019 ], [ -77.027321611264725, -12.102841979903912 ], [ -77.010441361248908, -12.107277354908053 ] ] ] } },
{ "type": "Feature", "properties": { "OBJECTID": 777, "IDDIST": "150131", "IDDPTO": "15", "IDPROV": "1501", "NOMBDIST": "SAN ISIDRO", "NOMBPROV": "LIMA", "NOMBDEP": "LIMA", "DCTO": "D.L.", "LEY": "7113", "FECHA": "24/04/1931", "NOM_CAP": "SAN ISIDRO", "SHAPE_LENG": 0.16858173504000001, "SHAPE_AREA": 0.00080623416, "SHAPE_LE_1": 0.16847019111, "SHAPE_AR_1": 0.00080515093, "AREA_MINAM": 970.02 }, "geometry": { "type": "Polygon", "coordinates": [ [ [ -77.022812361260506, -12.090810604892726 ], [ -77.009829736248349, -12.089158854891187 ], [ -77.010441361248908, -12.107277354908053 ], [ -77.027321611264725, -12.102841979903912 ], [ -77.055966736291595, -12.111019479911542 ], [ -77.060708986296049, -12.107660104908401 ], [ -77.054984361290664, -12.091886729893709 ], [ -77.048585986284692, -12.085040979887353 ], [ -77.022812361260506, -12.090810604892726 ] ] ] } },
{ "type": "Feature", "properties": { "OBJECTID": 778, "IDDIST": "150120", "IDDPTO": "15", "IDPROV": "1501", "NOMBDIST": "MAGDALENA DEL MAR", "NOMBPROV": "LIMA", "NOMBDEP": "LIMA", "DCTO": "LEY", "LEY": "4101", "FECHA": "10/05/1920", "NOM_CAP": "MAGDALENA DEL MAR", "SHAPE_LENG": 0.08192458637, "SHAPE_AREA": 0.0002710428, "SHAPE_LE_1": 0.08184176726, "SHAPE_AR_1": 0.00027105314, "AREA_MINAM": 326.58 }, "geometry": { "type": "Polygon", "coordinates": [ [ [ -77.063142611298318, -12.086542979888716 ], [ -77.054984361290664, -12.091886729893709 ], [ -77.060708986296049, -12.107660104908401 ], [ -77.077675736311946, -12.095576229897141 ], [ -77.072103486306716, -12.083583979885987 ], [ -77.063142611298318, -12.086542979888716 ] ] ] } },
{ "type": "Feature", "properties": { "OBJECTID": 780, "IDDIST": "150130", "IDDPTO": "15", "IDPROV": "1501", "NOMBDIST": "SAN BORJA", "NOMBPROV": "LIMA", "NOMBDEP": "LIMA", "DCTO": "LEY", "LEY": "23604", "FECHA": "01/06/1983", "NOM_CAP": "SAN FRANCISCO DE BORJA", "SHAPE_LENG": 0.12143195475, "SHAPE_AREA": 0.00086195811, "SHAPE_LE_1": 0.12196440785, "SHAPE_AR_1": 0.00085987629, "AREA_MINAM": 1035.91 }, "geometry": { "type": "Polygon", "coordinates": [ [ [ -76.981691361221991, -12.084628854886972 ], [ -76.993617236233149, -12.111321604911833 ], [ -77.010441361248908, -12.107277354908053 ], [ -77.009829736248349, -12.089158854891187 ], [ -77.004140611243031, -12.084076229886447 ], [ -76.987316361227244, -12.079939479882587 ], [ -76.981691361221991, -12.084628854886972 ] ] ] } },
{ "type": "Feature", "properties": { "OBJECTID": 781, "IDDIST": "150116", "IDDPTO": "15", "IDPROV": "1501", "NOMBDIST": "LINCE", "NOMBPROV": "LIMA", "NOMBDEP": "LIMA", "DCTO": "LEY", "LEY": "8281", "FECHA": "29/05/1936", "NOM_CAP": "LINCE", "SHAPE_LENG": 0.07184993641, "SHAPE_AREA": 0.00022820241, "SHAPE_LE_1": 0.0718504395, "SHAPE_AR_1": 0.00022820472, "AREA_MINAM": 274.95 }, "geometry": { "type": "Polygon", "coordinates": [ [ [ -77.022812361260506, -12.090810604892726 ], [ -77.048585986284692, -12.085040979887353 ], [ -77.03629098627313, -12.079849604882504 ], [ -77.02806836126544, -12.078710979881446 ], [ -77.022812361260506, -12.090810604892726 ] ] ] } },
{ "type": "Feature", "properties": { "OBJECTID": 782, "IDDIST": "150140", "IDDPTO": "15", "IDPROV": "1501", "NOMBDIST": "SANTIAGO DE SURCO", "NOMBPROV": "LIMA", "NOMBDEP": "LIMA", "DCTO": "-", "LEY": "-", "FECHA": "EPOC.INDEP.", "NOM_CAP": "SANTIAGO DE SURCO", "SHAPE_LENG": 0.33946426859000001, "SHAPE_AREA": 0.00287259166, "SHAPE_LE_1": 0.34034478174, "SHAPE_AR_1": 0.00286899529, "AREA_MINAM": 3455.92 }, "geometry": { "type": "Polygon", "coordinates": [ [ [ -76.947746111190185, -12.117535104917639 ], [ -76.98623736122623, -12.167665854964293 ], [ -77.016035111254155, -12.15562885495309 ], [ -77.017999986255987, -12.131246104930389 ], [ -77.002586361241569, -12.126561854926019 ], [ -76.993617236233149, -12.111321604911833 ], [ -76.981691361221991, -12.084628854886972 ], [ -76.976255861216885, -12.078133229880926 ], [ -76.947746111190185, -12.117535104917639 ] ] ] } },
{ "type": "Feature", "properties": { "OBJECTID": 785, "IDDIST": "150121", "IDDPTO": "15", "IDPROV": "1501", "NOMBDIST": "MAGDALENA VIEJA", "NOMBPROV": "LIMA", "NOMBDEP": "LIMA", "DCTO": "-", "LEY": "-", "FECHA": "EPOC.INDEP", "NOM_CAP": "PUEBLO LIBRE", "SHAPE_LENG": 0.08288194286, "SHAPE_AREA": 0.0003847433, "SHAPE_LE_1": 0.08308075834, "SHAPE_AR_1": 0.00038551662, "AREA_MINAM": 464.52 }, "geometry": { "type": "Polygon", "coordinates": [ [ [ -77.049658736285664, -12.070252979873581 ], [ -77.063142611298318, -12.086542979888716 ], [ -77.072103486306716, -12.083583979885987 ], [ -77.077730486312007, -12.068546854871975 ], [ -77.061169986296477, -12.067525354871007 ], [ -77.049658736285664, -12.070252979873581 ] ] ] } },
{ "type": "Feature", "properties": { "OBJECTID": 786, "IDDIST": "070105", "IDDPTO": "07", "IDPROV": "0701", "NOMBDIST": "LA PUNTA", "NOMBPROV": "CALLAO", "NOMBDEP": "CALLAO", "DCTO": "LEY", "LEY": "2141", "FECHA": "06/10/1915", "NOM_CAP": "LA PUNTA", "SHAPE_LENG": 0.05584615369, "SHAPE_AREA": 6.411716e-05, "SHAPE_LE_1": 0.05584683465, "SHAPE_AR_1": 6.41168e-05, "AREA_MINAM": 77.27 }, "geometry": null },
{ "type": "Feature", "properties": { "OBJECTID": 787, "IDDIST": "150113", "IDDPTO": "15", "IDPROV": "1501", "NOMBDIST": "JESUS MARIA", "NOMBPROV": "LIMA", "NOMBDEP": "LIMA", "DCTO": "LEY", "LEY": "14763", "FECHA": "13/12/1963", "NOM_CAP": "JESUS MARIA", "SHAPE_LENG": 0.08800748479000001, "SHAPE_AREA": 0.00036100022, "SHAPE_LE_1": 0.08799720685, "SHAPE_AR_1": 0.00036047521, "AREA_MINAM": 434.33 }, "geometry": { "type": "Polygon", "coordinates": [ [ [ -77.03629098627313, -12.079849604882504 ], [ -77.048585986284692, -12.085040979887353 ], [ -77.054984361290664, -12.091886729893709 ], [ -77.063142611298318, -12.086542979888716 ], [ -77.049658736285664, -12.070252979873581 ], [ -77.045669861281908, -12.065251979868902 ], [ -77.03629098627313, -12.079849604882504 ] ] ] } },
{ "type": "Feature", "properties": { "OBJECTID": 789, "IDDIST": "070104", "IDDPTO": "07", "IDPROV": "0701", "NOMBDIST": "LA PERLA", "NOMBPROV": "CALLAO", "NOMBDEP": "CALLAO", "DCTO": "LEY", "LEY": "15185", "FECHA": "22/10/1964", "NOM_CAP": "LA PERLA", "SHAPE_LENG": 0.07530170742, "SHAPE_AREA": 0.00027320056, "SHAPE_LE_1": 0.07528749612000001, "SHAPE_AR_1": 0.0002745623, "AREA_MINAM": 330.85 }, "geometry": { "type": "Polygon", "coordinates": [ [ [ -77.104571111337179, -12.06335060486713 ], [ -77.111533236343703, -12.079492229882156 ], [ -77.132593861363461, -12.070492229873782 ], [ -77.132939486363796, -12.067902354871354 ], [ -77.104571111337179, -12.06335060486713 ] ] ] } },
{ "type": "Feature", "properties": { "OBJECTID": 790, "IDDIST": "150134", "IDDPTO": "15", "IDPROV": "1501", "NOMBDIST": "SAN LUIS", "NOMBPROV": "LIMA", "NOMBDEP": "LIMA", "DCTO": "LEY", "LEY": "17023", "FECHA": "30/05/1968", "NOM_CAP": "SAN LUIS", "SHAPE_LENG": 0.09785997412, "SHAPE_AREA": 0.00028938103, "SHAPE_LE_1": 0.09699476115, "SHAPE_AR_1": 0.00028945022, "AREA_MINAM": 348.74 }, "geometry": { "type": "Polygon", "coordinates": [ [ [ -76.997798861237058, -12.060839854864799 ], [ -76.987316361227244, -12.079939479882587 ], [ -77.004140611243031, -12.084076229886447 ], [ -77.003156236242077, -12.06261722986647 ], [ -77.001777361240798, -12.061695354865599 ], [ -76.997798861237058, -12.060839854864799 ] ] ] } },
{ "type": "Feature", "properties": { "OBJECTID": 791, "IDDIST": "150136", "IDDPTO": "15", "IDPROV": "1501", "NOMBDIST": "SAN MIGUEL", "NOMBPROV": "LIMA", "NOMBDEP": "LIMA", "DCTO": "LEY", "LEY": "4101", "FECHA": "10/05/1920", "NOM_CAP": "SAN MIGUEL", "SHAPE_LENG": 0.13386268008, "SHAPE_AREA": 0.00079624284, "SHAPE_LE_1": 0.13389751993, "SHAPE_AR_1": 0.00079575348, "AREA_MINAM": 958.84 }, "geometry": { "type": "Polygon", "coordinates": [ [ [ -77.077730486312007, -12.068546854871975 ], [ -77.072103486306716, -12.083583979885987 ], [ -77.077675736311946, -12.095576229897141 ], [ -77.111533236343703, -12.079492229882156 ], [ -77.104571111337179, -12.06335060486713 ], [ -77.087257361320951, -12.061511354865411 ], [ -77.077730486312007, -12.068546854871975 ] ] ] } },
{ "type": "Feature", "properties": { "OBJECTID": 793, "IDDIST": "150123", "IDDPTO": "15", "IDPROV": "1501", "NOMBDIST": "PACHACAMAC", "NOMBPROV": "LIMA", "NOMBDEP": "LIMA", "DCTO": "-", "LEY": "-", "FECHA": "EPOC.INDEP", "NOM_CAP": "PACHACAMAC", "SHAPE_LENG": 0.86367064970999996, "SHAPE_AREA": 0.01534722254, "SHAPE_LE_1": 0.8582173174, "SHAPE_AR_1": 0.0154375223, "AREA_MINAM": 18589.78 }, "geometry": { "type": "Polygon", "coordinates": [ [ [ -76.70731998596527, -12.114019979914397 ], [ -76.679299860939096, -12.130974229930173 ], [ -76.662031235922967, -12.177962854973963 ], [ -76.733978360990193, -12.164414104961308 ], [ -76.78919923604181, -12.202914104997172 ], [ -76.845831861094794, -12.221167730014164 ], [ -76.890953111136994, -12.207761730001668 ], [ -76.881240236127908, -12.167859479964521 ], [ -76.910781986155584, -12.122333479922114 ], [ -76.884037111130525, -12.089796854891819 ], [ -76.889133236135308, -12.05935635486345 ], [ -76.832968736082762, -12.145072229943297 ], [ -76.751544861006607, -12.135603604934497 ], [ -76.70731998596527, -12.114019979914397 ] ] ] } },
{ "type": "Feature", "properties": { "OBJECTID": 795, "IDDIST": "150115", "IDDPTO": "15", "IDPROV": "1501", "NOMBDIST": "LA VICTORIA", "NOMBPROV": "LIMA", "NOMBDEP": "LIMA", "DCTO": "DEC.", "LEY": "S/N", "FECHA": "02/02/1920", "NOM_CAP": "LA VICTORIA", "SHAPE_LENG": 0.12887395305, "SHAPE_AREA": 0.00075810106, "SHAPE_LE_1": 0.12896790893000001, "SHAPE_AR_1": 0.00075874385, "AREA_MINAM": 914.18 }, "geometry": { "type": "Polygon", "coordinates": [ [ [ -77.003156236242077, -12.06261722986647 ], [ -77.004140611243031, -12.084076229886447 ], [ -77.009829736248349, -12.089158854891187 ], [ -77.022812361260506, -12.090810604892726 ], [ -77.02806836126544, -12.078710979881446 ], [ -77.003156236242077, -12.06261722986647 ] ] ] } },
{ "type": "Feature", "properties": { "OBJECTID": 796, "IDDIST": "150114", "IDDPTO": "15", "IDPROV": "1501", "NOMBDIST": "LA MOLINA", "NOMBPROV": "LIMA", "NOMBDEP": "LIMA", "DCTO": "LEY", "LEY": "13981", "FECHA": "06/02/1962", "NOM_CAP": "LA MOLINA", "SHAPE_LENG": 0.30799393873999997, "SHAPE_AREA": 0.004034167, "SHAPE_LE_1": 0.30856421265, "SHAPE_AR_1": 0.00404591574, "AREA_MINAM": 4873.98 }, "geometry": { "type": "Polygon", "coordinates": [ [ [ -76.889133236135308, -12.05935635486345 ], [ -76.884037111130525, -12.089796854891819 ], [ -76.910781986155584, -12.122333479922114 ], [ -76.940791111183671, -12.122160854921937 ], [ -76.947746111190185, -12.117535104917639 ], [ -76.976255861216885, -12.078133229880926 ], [ -76.889133236135308, -12.05935635486345 ] ] ] } },
{ "type": "Feature", "properties": { "OBJECTID": 797, "IDDIST": "070102", "IDDPTO": "07", "IDPROV": "0701", "NOMBDIST": "BELLAVISTA", "NOMBPROV": "CALLAO", "NOMBDEP": "CALLAO", "DCTO": "-", "LEY": "-", "FECHA": "EPOCA INDEP.", "NOM_CAP": "BELLAVISTA", "SHAPE_LENG": 0.11197023709, "SHAPE_AREA": 0.00037946248, "SHAPE_LE_1": 0.11196209645000001, "SHAPE_AR_1": 0.00037818817, "AREA_MINAM": 455.74 }, "geometry": { "type": "Polygon", "coordinates": [ [ [ -77.087257361320951, -12.061511354865411 ], [ -77.104571111337179, -12.06335060486713 ], [ -77.132939486363796, -12.067902354871354 ], [ -77.087600736321249, -12.05186572985644 ], [ -77.087257361320951, -12.061511354865411 ] ] ] } },
{ "type": "Feature", "properties": { "OBJECTID": 798, "IDDIST": "150105", "IDDPTO": "15", "IDPROV": "1501", "NOMBDIST": "BREÑA", "NOMBPROV": "LIMA", "NOMBDEP": "LIMA", "DCTO": "D.L.", "LEY": "11059", "FECHA": "15/07/1949", "NOM_CAP": "BREÑA", "SHAPE_LENG": 0.06668524602000001, "SHAPE_AREA": 0.00026641773, "SHAPE_LE_1": 0.06676363498, "SHAPE_AR_1": 0.00026663144, "AREA_MINAM": 321.28 }, "geometry": { "type": "Polygon", "coordinates": [ [ [ -77.045669861281908, -12.065251979868902 ], [ -77.049658736285664, -12.070252979873581 ], [ -77.061169986296477, -12.067525354871007 ], [ -77.045669861281908, -12.065251979868902 ] ] ] } },
{ "type": "Feature", "properties": { "OBJECTID": 807, "IDDIST": "070103", "IDDPTO": "07", "IDPROV": "0701", "NOMBDIST": "CARMEN DE LA LEGUA REYNOSO", "NOMBPROV": "CALLAO", "NOMBDEP": "CALLAO", "DCTO": "LEY", "LEY": "15247", "FECHA": "04/12/1964", "NOM_CAP": "CARMEN DE LA LEGUA REYNOSO", "SHAPE_LENG": 0.05432564093, "SHAPE_AREA": 0.00016040768, "SHAPE_LE_1": 0.0543725896, "SHAPE_AR_1": 0.00015982774, "AREA_MINAM": 192.61 }, "geometry": { "type": "Polygon", "coordinates": [ [ [ -77.081546861315573, -12.047017604851931 ], [ -77.093511736326803, -12.038138729843638 ], [ -77.082940486316872, -12.036417854842059 ], [ -77.081546861315573, -12.047017604851931 ] ] ] } },
{ "type": "Feature", "properties": { "OBJECTID": 808, "IDDIST": "150101", "IDDPTO": "15", "IDPROV": "1501", "NOMBDIST": "LIMA", "NOMBPROV": "LIMA", "NOMBDEP": "LIMA", "DCTO": "-", "LEY": "-", "FECHA": "EPOC.INDEP", "NOM_CAP": "LIMA", "SHAPE_LENG": 0.35824194955, "SHAPE_AREA": 0.00178674744, "SHAPE_LE_1": 0.35649151517, "SHAPE_AR_1": 0.00177826606, "AREA_MINAM": 2142.82 }, "geometry": { "type": "Polygon", "coordinates": [ [ [ -77.001777361240798, -12.061695354865599 ], [ -77.003156236242077, -12.06261722986647 ], [ -77.02806836126544, -12.078710979881446 ], [ -77.03629098627313, -12.079849604882504 ], [ -77.045669861281908, -12.065251979868902 ], [ -77.061169986296477, -12.067525354871007 ], [ -77.077730486312007, -12.068546854871975 ], [ -77.087257361320951, -12.061511354865411 ], [ -77.087600736321249, -12.05186572985644 ], [ -77.081546861315573, -12.047017604851931 ], [ -77.082940486316872, -12.036417854842059 ], [ -77.043470486279887, -12.03886460484434 ], [ -77.012611361250961, -12.037324229842907 ], [ -77.009544361248075, -12.030870479836919 ], [ -77.001777361240798, -12.061695354865599 ] ] ] } },
{ "type": "Feature", "properties": { "OBJECTID": 810, "IDDIST": "150137", "IDDPTO": "15", "IDPROV": "1501", "NOMBDIST": "SANTA ANITA", "NOMBPROV": "LIMA", "NOMBDEP": "LIMA", "DCTO": "LEY", "LEY": "25116", "FECHA": "25/10/1989", "NOM_CAP": "SANTA ANITA - LOS FICUS", "SHAPE_LENG": 0.1446925299, "SHAPE_AREA": 0.00089310946, "SHAPE_LE_1": 0.14298571225000001, "SHAPE_AR_1": 0.00088629134, "AREA_MINAM": 1067.91 }, "geometry": null },
{ "type": "Feature", "properties": { "OBJECTID": 812, "IDDIST": "150111", "IDDPTO": "15", "IDPROV": "1501", "NOMBDIST": "EL AGUSTINO", "NOMBPROV": "LIMA", "NOMBDEP": "LIMA", "DCTO": "LEY", "LEY": "15353", "FECHA": "06/01/1965", "NOM_CAP": "EL AGUSTINO", "SHAPE_LENG": 0.27011701120999998, "SHAPE_AREA": 0.001095781, "SHAPE_LE_1": 0.26755930552000001, "SHAPE_AR_1": 0.0011049603, "AREA_MINAM": 1331.44 }, "geometry": { "type": "Polygon", "coordinates": [ [ [ -76.936949986180082, -12.02204010482868 ], [ -76.955234736197184, -12.029335979835489 ], [ -76.973427736214219, -12.058476729862624 ], [ -76.997798861237058, -12.060839854864799 ], [ -77.001777361240798, -12.061695354865599 ], [ -77.009544361248075, -12.030870479836919 ], [ -76.953109986195216, -12.022259979828904 ], [ -76.936949986180082, -12.02204010482868 ] ] ] } },
{ "type": "Feature", "properties": { "OBJECTID": 814, "IDDIST": "150109", "IDDPTO": "15", "IDPROV": "1501", "NOMBDIST": "CIENEGUILLA", "NOMBPROV": "LIMA", "NOMBDEP": "LIMA", "DCTO": "D.L.", "LEY": "18166", "FECHA": "03/03/1970", "NOM_CAP": "CIENEGUILLA", "SHAPE_LENG": 0.59837572805999995, "SHAPE_AREA": 0.01880590953, "SHAPE_LE_1": 0.60520112426999995, "SHAPE_AR_1": 0.01867704112, "AREA_MINAM": 22497.01 }, "geometry": { "type": "Polygon", "coordinates": [ [ [ -76.722338735979307, -11.999593979807827 ], [ -76.678079985937941, -12.052979854857552 ], [ -76.70731998596527, -12.114019979914397 ], [ -76.751544861006607, -12.135603604934497 ], [ -76.832968736082762, -12.145072229943297 ], [ -76.889133236135308, -12.05935635486345 ], [ -76.824657486074983, -12.047507854852419 ], [ -76.782858736035877, -12.02324710482984 ], [ -76.722338735979307, -11.999593979807827 ] ] ] } },
{ "type": "Feature", "properties": { "OBJECTID": 816, "IDDIST": "150128", "IDDPTO": "15", "IDPROV": "1501", "NOMBDIST": "RIMAC", "NOMBPROV": "LIMA", "NOMBDEP": "LIMA", "DCTO": "DEC.", "LEY": "S/N", "FECHA": "02/02/1920", "NOM_CAP": "RIMAC", "SHAPE_LENG": 0.1548964469, "SHAPE_AREA": 0.00101074475, "SHAPE_LE_1": 0.15546626237, "SHAPE_AR_1": 0.00100581986, "AREA_MINAM": 1212.11 }, "geometry": { "type": "Polygon", "coordinates": [ [ [ -77.012611361250961, -12.037324229842907 ], [ -77.043470486279887, -12.03886460484434 ], [ -77.052969111288789, -12.011032604818416 ], [ -77.030654236267864, -11.99638872980479 ], [ -77.012611361250961, -12.037324229842907 ] ] ] } },
{ "type": "Feature", "properties": { "OBJECTID": 818, "IDDIST": "150103", "IDDPTO": "15", "IDPROV": "1501", "NOMBDIST": "ATE", "NOMBPROV": "LIMA", "NOMBDEP": "LIMA", "DCTO": "-", "LEY": "-", "FECHA": "EPOC.INDEP", "NOM_CAP": "VITARTE", "SHAPE_LENG": 0.58417568104999995, "SHAPE_AREA": 0.00689656031, "SHAPE_LE_1": 0.58944646738999995, "SHAPE_AR_1": 0.00701730046, "AREA_MINAM": 8454.77 }, "geometry": { "type": "Polygon", "coordinates": [ [ [ -76.782858736035877, -12.02324710482984 ], [ -76.824657486074983, -12.047507854852419 ], [ -76.889133236135308, -12.05935635486345 ], [ -76.976255861216885, -12.078133229880926 ], [ -76.981691361221991, -12.084628854886972 ], [ -76.987316361227244, -12.079939479882587 ], [ -76.997798861237058, -12.060839854864799 ], [ -76.973427736214219, -12.058476729862624 ], [ -76.955234736197184, -12.029335979835489 ], [ -76.936949986180082, -12.02204010482868 ], [ -76.837207486086712, -11.992594104801304 ], [ -76.782858736035877, -12.02324710482984 ] ] ] } },
{ "type": "Feature", "properties": { "OBJECTID": 825, "IDDIST": "150107", "IDDPTO": "15", "IDPROV": "1501", "NOMBDIST": "CHACLACAYO", "NOMBPROV": "LIMA", "NOMBDEP": "LIMA", "DCTO": "LEY", "LEY": "9080", "FECHA": "24/04/1940", "NOM_CAP": "CHACLACAYO", "SHAPE_LENG": 0.30677893904999998, "SHAPE_AREA": 0.00353073941, "SHAPE_LE_1": 0.30505940928000003, "SHAPE_AR_1": 0.00354064133, "AREA_MINAM": 4266.05 }, "geometry": { "type": "Polygon", "coordinates": [ [ [ -76.714792985972238, -11.992364854801101 ], [ -76.722338735979307, -11.999593979807827 ], [ -76.782858736035877, -12.02324710482984 ], [ -76.837207486086712, -11.992594104801304 ], [ -76.731246235987641, -11.961554104772388 ], [ -76.714792985972238, -11.992364854801101 ] ] ] } },
{ "type": "Feature", "properties": { "OBJECTID": 826, "IDDIST": "150112", "IDDPTO": "15", "IDPROV": "1501", "NOMBDIST": "INDEPENDENCIA", "NOMBPROV": "LIMA", "NOMBDEP": "LIMA", "DCTO": "LEY", "LEY": "14965", "FECHA": "16/03/1964", "NOM_CAP": "INDEPENDENCIA", "SHAPE_LENG": 0.16414905158000001, "SHAPE_AREA": 0.00133648733, "SHAPE_LE_1": 0.16231822815, "SHAPE_AR_1": 0.00133434105, "AREA_MINAM": 1608.25 }, "geometry": { "type": "Polygon", "coordinates": [ [ [ -77.030654236267864, -11.99638872980479 ], [ -77.052969111288789, -12.011032604818416 ], [ -77.0614023612967, -12.008361354815927 ], [ -77.059820361295195, -11.97691997978664 ], [ -77.028281236265656, -11.96067772977152 ], [ -77.030654236267864, -11.99638872980479 ] ] ] } },
{ "type": "Feature", "properties": { "OBJECTID": 831, "IDDIST": "070101", "IDDPTO": "07", "IDPROV": "0701", "NOMBDIST": "CALLAO", "NOMBPROV": "CALLAO", "NOMBDEP": "CALLAO", "DCTO": "DEC.", "LEY": "S/N.", "FECHA": "20/08/1836", "NOM_CAP": "CALLAO", "SHAPE_LENG": 0.58722510262000005, "SHAPE_AREA": 0.00405559364, "SHAPE_LE_1": 0.58430505596000004, "SHAPE_AR_1": 0.00406447331, "AREA_MINAM": 4898.74 }, "geometry": { "type": "Polygon", "coordinates": [ [ [ -77.128689986359788, -11.937179979749622 ], [ -77.087861361321487, -12.016214854823234 ], [ -77.093511736326803, -12.038138729843638 ], [ -77.081546861315573, -12.047017604851931 ], [ -77.087600736321249, -12.05186572985644 ], [ -77.132939486363796, -12.067902354871354 ], [ -77.132593861363461, -12.070492229873782 ], [ -77.156419861385842, -12.067919979871368 ], [ -77.158376986387665, -12.066613229870148 ], [ -77.137511611368069, -12.010949229818312 ], [ -77.138111361368615, -11.939257854751551 ], [ -77.128689986359788, -11.937179979749622 ] ] ] } },
{ "type": "Feature", "properties": { "OBJECTID": 833, "IDDIST": "150135", "IDDPTO": "15", "IDPROV": "1501", "NOMBDIST": "SAN MARTIN DE PORRES", "NOMBPROV": "LIMA", "NOMBDEP": "LIMA", "DCTO": "D.L.", "LEY": "11369", "FECHA": "22/05/1950", "NOM_CAP": "BARRIO OBRERO INDUSTRIAL", "SHAPE_LENG": 0.41149231384000001, "SHAPE_AREA": 0.00301321337, "SHAPE_LE_1": 0.41305285336999997, "SHAPE_AR_1": 0.00304264979, "AREA_MINAM": 3667.36 }, "geometry": { "type": "Polygon", "coordinates": [ [ [ -77.0614023612967, -12.008361354815927 ], [ -77.052969111288789, -12.011032604818416 ], [ -77.043470486279887, -12.03886460484434 ], [ -77.082940486316872, -12.036417854842059 ], [ -77.093511736326803, -12.038138729843638 ], [ -77.087861361321487, -12.016214854823234 ], [ -77.128689986359788, -11.937179979749622 ], [ -77.095889986329027, -11.950089979761666 ], [ -77.084193486318043, -11.934310479746962 ], [ -77.0614023612967, -12.008361354815927 ] ] ] } },
{ "type": "Feature", "properties": { "OBJECTID": 838, "IDDIST": "150117", "IDDPTO": "15", "IDPROV": "1501", "NOMBDIST": "LOS OLIVOS", "NOMBPROV": "LIMA", "NOMBDEP": "LIMA", "DCTO": "LEY", "LEY": "25017", "FECHA": "06/04/1989", "NOM_CAP": "LAS PALMERAS", "SHAPE_LENG": 0.23285639033, "SHAPE_AREA": 0.00151372777, "SHAPE_LE_1": 0.23427947032, "SHAPE_AR_1": 0.00151051254, "AREA_MINAM": 1820.75 }, "geometry": { "type": "Polygon", "coordinates": [ [ [ -77.059820361295195, -11.97691997978664 ], [ -77.0614023612967, -12.008361354815927 ], [ -77.084193486318043, -11.934310479746962 ], [ -77.073483236308007, -11.918367729732115 ], [ -77.059820361295195, -11.97691997978664 ] ] ] } },
{ "type": "Feature", "properties": { "OBJECTID": 846, "IDDIST": "150110", "IDDPTO": "15", "IDPROV": "1501", "NOMBDIST": "COMAS", "NOMBPROV": "LIMA", "NOMBDEP": "LIMA", "DCTO": "LEY", "LEY": "13757", "FECHA": "12/12/1961", "NOM_CAP": "LA LIBERTAD", "SHAPE_LENG": 0.32752178594999998, "SHAPE_AREA": 0.00404188228, "SHAPE_LE_1": 0.31618142232000002, "SHAPE_AR_1": 0.0040440259, "AREA_MINAM": 4875.15 }, "geometry": { "type": "Polygon", "coordinates": [ [ [ -76.987954611227835, -11.897146104712366 ], [ -77.028281236265656, -11.96067772977152 ], [ -77.059820361295195, -11.97691997978664 ], [ -77.073483236308007, -11.918367729732115 ], [ -77.054059861289815, -11.889839979705542 ], [ -77.025481986263003, -11.909277979723665 ], [ -76.987954611227835, -11.897146104712366 ] ] ] } },
{ "type": "Feature", "properties": { "OBJECTID": 851, "IDDIST": "150118", "IDDPTO": "15", "IDPROV": "1501", "NOMBDIST": "LURIGANCHO", "NOMBPROV": "LIMA", "NOMBDEP": "LIMA", "DCTO": "-", "LEY": "-", "FECHA": "EPOC.INDEP", "NOM_CAP": "CHOSICA", "SHAPE_LENG": 0.8716572533, "SHAPE_AREA": 0.02047920741, "SHAPE_LE_1": 0.864331231, "SHAPE_AR_1": 0.02040174091, "AREA_MINAM": 24585.57 }, "geometry": { "type": "Polygon", "coordinates": [ [ [ -76.704017360962212, -11.891384979707045 ], [ -76.668769985929259, -11.923549979737004 ], [ -76.648334110910156, -11.967373104777835 ], [ -76.714792985972238, -11.992364854801101 ], [ -76.731246235987641, -11.961554104772388 ], [ -76.837207486086712, -11.992594104801304 ], [ -76.936949986180082, -12.02204010482868 ], [ -76.953109986195216, -12.022259979828904 ], [ -76.969397986210438, -11.99492697980344 ], [ -76.93137311117485, -11.942173979754321 ], [ -76.893745111139609, -11.956220604767418 ], [ -76.791679986044144, -11.927609979740788 ], [ -76.727939985984548, -11.875709979692452 ], [ -76.704017360962212, -11.891384979707045 ] ] ] } },
{ "type": "Feature", "properties": { "OBJECTID": 855, "IDDIST": "150132", "IDDPTO": "15", "IDPROV": "1501", "NOMBDIST": "SAN JUAN DE LURIGANCHO", "NOMBPROV": "LIMA", "NOMBDEP": "LIMA", "DCTO": "LEY", "LEY": "16382", "FECHA": "13/01/1967", "NOM_CAP": "SAN JUAN DE LURIGANCHO", "SHAPE_LENG": 0.57563258471000001, "SHAPE_AREA": 0.01164695647, "SHAPE_LE_1": 0.55820118154999998, "SHAPE_AR_1": 0.01164842606, "AREA_MINAM": 14040.45 }, "geometry": { "type": "Polygon", "coordinates": [ [ [ -76.93137311117485, -11.942173979754321 ], [ -76.969397986210438, -11.99492697980344 ], [ -76.953109986195216, -12.022259979828904 ], [ -77.009544361248075, -12.030870479836919 ], [ -77.012611361250961, -12.037324229842907 ], [ -77.030654236267864, -11.99638872980479 ], [ -77.028281236265656, -11.96067772977152 ], [ -76.987954611227835, -11.897146104712366 ], [ -76.942275361185068, -11.860867229678595 ], [ -76.912107486156813, -11.889274729705081 ], [ -76.93137311117485, -11.942173979754321 ] ] ] } },
{ "type": "Feature", "properties": { "OBJECTID": 862, "IDDIST": "070106", "IDDPTO": "07", "IDPROV": "0701", "NOMBDIST": "VENTANILLA", "NOMBPROV": "CALLAO", "NOMBDEP": "CALLAO", "DCTO": "D.L.", "LEY": "17392", "FECHA": "28/01/1969", "NOM_CAP": "VENTANILLA", "SHAPE_LENG": 0.43212492553999998, "SHAPE_AREA": 0.0067826886, "SHAPE_LE_1": 0.42516225682999997, "SHAPE_AR_1": 0.00678822589, "AREA_MINAM": 8185.75 }, "geometry": { "type": "Polygon", "coordinates": [ [ [ -77.126048486357305, -11.820788104641217 ], [ -77.09424548632748, -11.875240729691946 ], [ -77.095889986329027, -11.950089979761666 ], [ -77.128689986359788, -11.937179979749622 ], [ -77.138111361368615, -11.939257854751551 ], [ -77.156830111386213, -11.874302729691054 ], [ -77.187097611414629, -11.828361354648262 ], [ -77.147105361377072, -11.819277354639794 ], [ -77.126048486357305, -11.820788104641217 ] ] ] } },
{ "type": "Feature", "properties": { "OBJECTID": 868, "IDDIST": "150125", "IDDPTO": "15", "IDPROV": "1501", "NOMBDIST": "PUENTE PIEDRA", "NOMBPROV": "LIMA", "NOMBDEP": "LIMA", "DCTO": "LEY", "LEY": "5675", "FECHA": "14/02/1927", "NOM_CAP": "PUENTE PIEDRA", "SHAPE_LENG": 0.39760639975000001, "SHAPE_AREA": 0.00407768561, "SHAPE_LE_1": 0.38208876903, "SHAPE_AR_1": 0.00406748082, "AREA_MINAM": 4904.72 }, "geometry": { "type": "Polygon", "coordinates": [ [ [ -77.054059861289815, -11.889839979705542 ], [ -77.073483236308007, -11.918367729732115 ], [ -77.084193486318043, -11.934310479746962 ], [ -77.095889986329027, -11.950089979761666 ], [ -77.09424548632748, -11.875240729691946 ], [ -77.126048486357305, -11.820788104641217 ], [ -77.092207861325548, -11.803574729625197 ], [ -77.054059861289815, -11.889839979705542 ] ] ] } },
{ "type": "Feature", "properties": { "OBJECTID": 877, "IDDIST": "150139", "IDDPTO": "15", "IDPROV": "1501", "NOMBDIST": "SANTA ROSA", "NOMBPROV": "LIMA", "NOMBDEP": "LIMA", "DCTO": "LEY", "LEY": "13982", "FECHA": "06/02/1962", "NOM_CAP": "SANTA ROSA", "SHAPE_LENG": 0.19718309949000001, "SHAPE_AREA": 0.0014593385, "SHAPE_LE_1": 0.19696127015000001, "SHAPE_AR_1": 0.00144773655, "AREA_MINAM": 1746.31 }, "geometry": { "type": "Polygon", "coordinates": [ [ [ -77.147105361377072, -11.819277354639794 ], [ -77.187097611414629, -11.828361354648262 ], [ -77.185525361413156, -11.788937479611565 ], [ -77.147105361377072, -11.819277354639794 ] ] ] } },
{ "type": "Feature", "properties": { "OBJECTID": 899, "IDDIST": "150106", "IDDPTO": "15", "IDPROV": "1501", "NOMBDIST": "CARABAYLLO", "NOMBPROV": "LIMA", "NOMBDEP": "LIMA", "DCTO": "-", "LEY": "-", "FECHA": "EPOCA INDEP.", "NOM_CAP": "CARABAYLLO", "SHAPE_LENG": 0.97442371634000002, "SHAPE_AREA": 0.02961259163, "SHAPE_LE_1": 0.95644353427999995, "SHAPE_AR_1": 0.02962468822, "AREA_MINAM": 35727.58 }, "geometry": { "type": "Polygon", "coordinates": [ [ [ -76.976081861216727, -11.685384729515196 ], [ -76.980335861220695, -11.724424479551525 ], [ -76.932684486176072, -11.755304479580307 ], [ -76.896916611142586, -11.729377604556172 ], [ -76.804867611056466, -11.755873854580864 ], [ -76.851237736099847, -11.798149729620214 ], [ -76.906607611151671, -11.79612397961831 ], [ -76.942275361185068, -11.860867229678595 ], [ -76.987954611227835, -11.897146104712366 ], [ -77.025481986263003, -11.909277979723665 ], [ -77.054059861289815, -11.889839979705542 ], [ -77.092207861325548, -11.803574729625197 ], [ -77.057013611292561, -11.785820354608681 ], [ -77.031714861268853, -11.73952347956558 ], [ -77.024773486262333, -11.681023479511097 ], [ -76.976081861216727, -11.685384729515196 ] ] ] } },
{ "type": "Feature", "properties": { "OBJECTID": 913, "IDDIST": "150102", "IDDPTO": "15", "IDPROV": "1501", "NOMBDIST": "ANCON", "NOMBPROV": "LIMA", "NOMBDEP": "LIMA", "DCTO": "LEY", "LEY": "S/N", "FECHA": "29/10/1874", "NOM_CAP": "ANCON", "SHAPE_LENG": 0.90980856626999995, "SHAPE_AREA": 0.02684470254, "SHAPE_LE_1": 0.89980389165999997, "SHAPE_AR_1": 0.02692489835, "AREA_MINAM": 32487.24 }, "geometry": { "type": "Polygon", "coordinates": [ [ [ -77.004890611243709, -11.613472604448216 ], [ -77.034987611271916, -11.652399854484441 ], [ -77.024773486262333, -11.681023479511097 ], [ -77.031714861268853, -11.73952347956558 ], [ -77.057013611292561, -11.785820354608681 ], [ -77.092207861325548, -11.803574729625197 ], [ -77.126048486357305, -11.820788104641217 ], [ -77.147105361377072, -11.819277354639794 ], [ -77.185525361413156, -11.788937479611565 ], [ -77.168165986396829, -11.73910935456515 ], [ -77.193523486420645, -11.678322229508533 ], [ -77.123888736355269, -11.655471104487281 ], [ -77.051810611287664, -11.576134354413398 ], [ -77.004890611243709, -11.613472604448216 ] ] ] } }
]
}
