{
"type": "FeatureCollection",
"name": "catchments_all_chains",
"crs": { "type": "name", "properties": { "name": "urn:ogc:def:crs:OGC:1.3:CRS84" } },
"features": [
{ "type": "Feature", "properties": { "cine_id_all": "X001", "brand": "Cineplanet", "name": "Cineplanet", "distrito": "Ventanilla", "n_cells": 449, "pob_wp": 787737.02407550812, "dur_min_avg": 28.960861172976987, "dur_p50": 22.618333333333332, "dur_p90": 91.953333333333333, "area_km2": 449.0000000000033 }, "geometry": { "type": "Polygon", "coordinates": [ [ [ -77.185623546170945, -11.83917583678287 ], [ -77.194797577519395, -11.839104928309922 ], [ -77.194365827015943, -11.784883929890929 ], [ -77.185193596831866, -11.784954504608891 ], [ -77.18497941491016, -11.757843755405785 ], [ -77.17580802330292, -11.757913868930828 ], [ -77.175524461901077, -11.721765895943092 ], [ -77.184694660563125, -11.721696003880131 ], [ -77.184552635316152, -11.703622091374829 ], [ -77.19372218034971, -11.703552017054028 ], [ -77.193437646327723, -11.667404341047181 ], [ -77.165932396734647, -11.667613020958576 ], [ -77.165862298796, -11.658575920694018 ], [ -77.138357414809136, -11.658781808180912 ], [ -77.138288262756262, -11.649744537926303 ], [ -77.119951978142865, -11.649880228905344 ], [ -77.119883474853822, -11.640842844479515 ], [ -77.110715542859197, -11.640910198817918 ], [ -77.110579297524396, -11.622835304404619 ], [ -77.101411899650131, -11.622902260400135 ], [ -77.101344156859597, -11.613864750663881 ], [ -77.092176997647542, -11.613931362475922 ], [ -77.092109605946078, -11.604893793477787 ], [ -77.08294268541367, -11.604960061565825 ], [ -77.082875644310789, -11.595922433549125 ], [ -77.073708962475408, -11.595988358372633 ], [ -77.073642271480665, -11.586950671580656 ], [ -77.064475828359562, -11.587016253599124 ], [ -77.064409486982612, -11.577978508275093 ], [ -77.055243282592983, -11.578043747948028 ], [ -77.05517729034348, -11.569005944335141 ], [ -77.04601132470242, -11.569070842122054 ], [ -77.04614277638801, -11.587146547451058 ], [ -77.055309329913626, -11.587081545558666 ], [ -77.055507802387794, -11.614194902332397 ], [ -77.046340365196357, -11.614260060407087 ], [ -77.046406337841148, -11.62329788603124 ], [ -77.055574070078393, -11.623232675889351 ], [ -77.055773203867687, -11.650345960394798 ], [ -77.06494176757495, -11.65028030233856 ], [ -77.065075391401237, -11.66835569053147 ], [ -77.074244491989276, -11.668289635697127 ], [ -77.074311683502714, -11.677327268169176 ], [ -77.065142286413504, -11.677393375554898 ], [ -77.065477592812243, -11.722581709763094 ], [ -77.056306654078981, -11.722647786410221 ], [ -77.056440568544517, -11.74072318226629 ], [ -77.047268978372188, -11.740789069575877 ], [ -77.047335719955399, -11.74982681049474 ], [ -77.038163776310412, -11.74989245565817 ], [ -77.038363434073176, -11.777005797553484 ], [ -77.029190538706288, -11.777071303411756 ], [ -77.029589532615461, -11.831298132556777 ], [ -77.038764228583773, -11.831232316687322 ], [ -77.038831219489921, -11.840270048479951 ], [ -77.048006161590948, -11.840203884337424 ], [ -77.048073508525647, -11.849241558089078 ], [ -77.057248696742008, -11.849175045213173 ], [ -77.057181048616599, -11.840137423610077 ], [ -77.075530656456735, -11.840003612434492 ], [ -77.075667213240777, -11.8580786395076 ], [ -77.084842536137714, -11.858011183379718 ], [ -77.084979919809157, -11.876086080154103 ], [ -77.075803993352025, -11.876153641991854 ], [ -77.075872467177476, -11.885191134002019 ], [ -77.094224868286275, -11.885055606892077 ], [ -77.094501744351504, -11.921205089404628 ], [ -77.103679071494085, -11.921136665951094 ], [ -77.103818454788396, -11.939211263426335 ], [ -77.09464052067068, -11.939279793567847 ], [ -77.094709993433327, -11.948317136360574 ], [ -77.122244537130257, -11.94811048791731 ], [ -77.122526645994668, -11.984259153973246 ], [ -77.140885158639804, -11.984119458403278 ], [ -77.140529622276091, -11.938934152008096 ], [ -77.149707270669069, -11.938864126484185 ], [ -77.14942266633895, -11.902715987557453 ], [ -77.158599044101848, -11.902645881931972 ], [ -77.158385291318908, -11.87553487683053 ], [ -77.167560704043893, -11.875464637967736 ], [ -77.167489267440189, -11.866427678838495 ], [ -77.176664320039578, -11.866357197755633 ], [ -77.176521018847964, -11.848283371300704 ], [ -77.185695410029439, -11.848212703877435 ], [ -77.185623546170945, -11.83917583678287 ] ] ] } },
{ "type": "Feature", "properties": { "cine_id_all": "X002", "brand": "Cineplanet", "name": "Cineplanet", "distrito": "Comas", "n_cells": 429, "pob_wp": 507372.5584526062, "dur_min_avg": 36.58532634032634, "dur_p50": 38.143333333333331, "dur_p90": 55.771666666666668, "area_km2": 428.999999999995 }, "geometry": { "type": "MultiPolygon", "coordinates": [ [ [ [ -77.048614267764322, -11.921542726946342 ], [ -77.04847874720538, -11.903467471653665 ], [ -77.039301691534575, -11.903533999276167 ], [ -77.03909973149247, -11.876420914354892 ], [ -77.029923528251885, -11.876486988656515 ], [ -77.029856619924345, -11.867449229698053 ], [ -77.039032521217777, -11.867383207089393 ], [ -77.0388982652252, -11.849307774147476 ], [ -77.048073508525647, -11.849241558089078 ], [ -77.048006161590948, -11.840203884337424 ], [ -77.038831219489921, -11.840270048479951 ], [ -77.038764228583773, -11.831232316687322 ], [ -77.029589532615461, -11.831298132556777 ], [ -77.029190538706288, -11.777071303411756 ], [ -77.038363434073176, -11.777005797553484 ], [ -77.038163776310412, -11.74989245565817 ], [ -77.047335719955399, -11.74982681049474 ], [ -77.047268978372188, -11.740789069575877 ], [ -77.056440568544517, -11.74072318226629 ], [ -77.056306654078981, -11.722647786410221 ], [ -77.065477592812243, -11.722581709763094 ], [ -77.065142286413504, -11.677393375554898 ], [ -77.074311683502714, -11.677327268169176 ], [ -77.074244491989276, -11.668289635697127 ], [ -77.065075391401237, -11.66835569053147 ], [ -77.06494176757495, -11.65028030233856 ], [ -77.055773203867687, -11.650345960394798 ], [ -77.055574070078393, -11.623232675889351 ], [ -77.046406337841148, -11.62329788603124 ], [ -77.046340365196357, -11.614260060407087 ], [ -77.055507802387794, -11.614194902332397 ], [ -77.055309329913626, -11.587081545558666 ], [ -77.04614277638801, -11.587146547451058 ], [ -77.046077023132213, -11.578108697786075 ], [ -77.03691070884544, -11.578173357781054 ], [ -77.036976168027891, -11.587211259268107 ], [ -77.018642787784998, -11.587339812643613 ], [ -77.01870771289434, -11.596377811083991 ], [ -77.009540647158147, -11.596441703754618 ], [ -77.009605331785721, -11.605479747328095 ], [ -77.000437917590091, -11.605543400557865 ], [ -77.000566858533986, -11.623619571509014 ], [ -77.009734862660352, -11.623555816471434 ], [ -77.009799708924149, -11.632593842032383 ], [ -77.01896795448846, -11.632529744816722 ], [ -77.019098400097235, -11.650605675603416 ], [ -77.028267182890133, -11.650541184370109 ], [ -77.028398437481286, -11.66861698828713 ], [ -77.019229062337004, -11.668681582289457 ], [ -77.019294474714599, -11.677719526583603 ], [ -76.973445308439068, -11.678038367028929 ], [ -76.973765750587916, -11.723229265368344 ], [ -76.964594270829267, -11.72329240611815 ], [ -76.964658220146688, -11.732330617682168 ], [ -76.946314506461562, -11.73245611760033 ], [ -76.946377911884312, -11.741494422453112 ], [ -76.937205678178998, -11.741556780911017 ], [ -76.937268837292081, -11.750595129041018 ], [ -76.928096252964153, -11.750657242465071 ], [ -76.928033392444277, -11.741618845245959 ], [ -76.918861054926055, -11.74168061545012 ], [ -76.918798544545027, -11.732642163339229 ], [ -76.909626453852724, -11.732703590783991 ], [ -76.909564293118706, -11.723665084024436 ], [ -76.882048608724887, -11.723847458387954 ], [ -76.882109875058148, -11.732886109605232 ], [ -76.845420396838833, -11.73312535288445 ], [ -76.845480520089041, -11.742164187448322 ], [ -76.817961994859374, -11.742340672863079 ], [ -76.818021271637903, -11.751379641005435 ], [ -76.799674746183356, -11.751495918748409 ], [ -76.799733473909797, -11.760534972785923 ], [ -76.808907059883296, -11.760476935310619 ], [ -76.80896613516029, -11.76951593750484 ], [ -76.827313759426659, -11.769398886104492 ], [ -76.827433254027824, -11.787476687685549 ], [ -76.83660759171643, -11.787417626532564 ], [ -76.83666771259881, -11.796456471739479 ], [ -76.845842300828195, -11.796397068438644 ], [ -76.845902771230513, -11.805435860830494 ], [ -76.910125586609539, -11.805011427487353 ], [ -76.91025088311828, -11.823088326119862 ], [ -76.919425968517444, -11.823026412329741 ], [ -76.91955207237919, -11.841103189368535 ], [ -76.928727708047063, -11.841040881574413 ], [ -76.928918155729136, -11.86815585481239 ], [ -76.938094644165872, -11.868093102949455 ], [ -76.938030807924363, -11.859054833760371 ], [ -76.947206942431109, -11.858991833878633 ], [ -76.947142856786641, -11.849953607949571 ], [ -76.956318637379951, -11.849890360519437 ], [ -76.956383024555237, -11.858928536856792 ], [ -76.965559054050345, -11.858864942702835 ], [ -76.965623795623586, -11.867903063107402 ], [ -76.974800074003781, -11.86783912176894 ], [ -76.974930320070541, -11.885915244105142 ], [ -76.984107149564039, -11.885850904821957 ], [ -76.98417265480542, -11.894888906502413 ], [ -76.993349733388328, -11.894824218877391 ], [ -76.993415594761458, -11.903862163886734 ], [ -76.984238213448947, -11.9039269020505 ], [ -76.984303825503076, -11.912964891461794 ], [ -77.002659140414735, -11.912835015553762 ], [ -77.002791738156319, -11.930910773295468 ], [ -77.021148050717358, -11.930779498918367 ], [ -77.021282079449307, -11.948855027492401 ], [ -77.030460761828948, -11.948788838924026 ], [ -77.030595616919058, -11.966864239827945 ], [ -77.048954034512349, -11.966730757152554 ], [ -77.048682110770557, -11.93058034534225 ], [ -77.057860020791395, -11.930513362980879 ], [ -77.057791874376377, -11.921475796763252 ], [ -77.048614267764322, -11.921542726946342 ] ] ], [ [ [ -76.984369490976334, -11.922002874731856 ], [ -76.984303825503076, -11.912964891461794 ], [ -76.975126087795275, -11.91302938166274 ], [ -76.975191450037201, -11.922067415245104 ], [ -76.984369490976334, -11.922002874731856 ] ] ] ] } },
{ "type": "Feature", "properties": { "cine_id_all": "X003", "brand": "Cineplanet", "name": "Cineplanet Pro", "distrito": "Comas", "n_cells": 70, "pob_wp": 875426.2236328125, "dur_min_avg": 9.2948571428571434, "dur_p50": 8.61, "dur_p90": 14.892, "area_km2": 69.999999999995211 }, "geometry": { "type": "Polygon", "coordinates": [ [ [ -77.122456033015482, -11.975221996788054 ], [ -77.122244537130257, -11.94811048791731 ], [ -77.094709993433327, -11.948317136360574 ], [ -77.09464052067068, -11.939279793567847 ], [ -77.103818454788396, -11.939211263426335 ], [ -77.103679071494085, -11.921136665951094 ], [ -77.094501744351504, -11.921205089404628 ], [ -77.094224868286275, -11.885055606892077 ], [ -77.075872467177476, -11.885191134002019 ], [ -77.075803993352025, -11.876153641991854 ], [ -77.084979919809157, -11.876086080154103 ], [ -77.084842536137714, -11.858011183379718 ], [ -77.075667213240777, -11.8580786395076 ], [ -77.075530656456735, -11.840003612434492 ], [ -77.057181048616599, -11.840137423610077 ], [ -77.057248696742008, -11.849175045213173 ], [ -77.0388982652252, -11.849307774147476 ], [ -77.039032521217777, -11.867383207089393 ], [ -77.029856619924345, -11.867449229698053 ], [ -77.029923528251885, -11.876486988656515 ], [ -77.03909973149247, -11.876420914354892 ], [ -77.039301691534575, -11.903533999276167 ], [ -77.04847874720538, -11.903467471653665 ], [ -77.048614267764322, -11.921542726946342 ], [ -77.066969425587715, -11.921408567909035 ], [ -77.067312231313224, -11.966596075101851 ], [ -77.076491246299483, -11.96652828433198 ], [ -77.076560279108818, -11.975565714535664 ], [ -77.094918750241533, -11.975429127529699 ], [ -77.094849108209743, -11.96639180334596 ], [ -77.104027954640159, -11.966323113147036 ], [ -77.104097901269668, -11.975360383971504 ], [ -77.122456033015482, -11.975221996788054 ] ] ] } },
{ "type": "Feature", "properties": { "cine_id_all": "X004", "brand": "Cineplanet", "name": "Cineplanet Canto Grande", "distrito": "San Juan de Lurigancho", "n_cells": 121, "pob_wp": 766155.14189147949, "dur_min_avg": 13.701294765840222, "dur_p50": 13.443333333333333, "dur_p90": 20.896666666666665, "area_km2": 120.99999999999889 }, "geometry": { "type": "MultiPolygon", "coordinates": [ [ [ [ -77.030730690827056, -11.984939615995623 ], [ -77.030460761828948, -11.948788838924026 ], [ -77.021282079449307, -11.948855027492401 ], [ -77.021148050717358, -11.930779498918367 ], [ -77.002791738156319, -11.930910773295468 ], [ -77.002659140414735, -11.912835015553762 ], [ -76.984303825503076, -11.912964891461794 ], [ -76.984238213448947, -11.9039269020505 ], [ -76.993415594761458, -11.903862163886734 ], [ -76.993349733388328, -11.894824218877391 ], [ -76.98417265480542, -11.894888906502413 ], [ -76.984107149564039, -11.885850904821957 ], [ -76.974930320070541, -11.885915244105142 ], [ -76.974800074003781, -11.86783912176894 ], [ -76.965623795623586, -11.867903063107402 ], [ -76.965559054050345, -11.858864942702835 ], [ -76.956383024555237, -11.858928536856792 ], [ -76.956318637379951, -11.849890360519437 ], [ -76.947142856786641, -11.849953607949571 ], [ -76.947206942431109, -11.858991833878633 ], [ -76.938030807924363, -11.859054833760371 ], [ -76.938094644165872, -11.868093102949455 ], [ -76.919741615394429, -11.86821830928656 ], [ -76.91980489969157, -11.877256670404199 ], [ -76.910628005648661, -11.87731887614842 ], [ -76.910880448823562, -11.913472454257075 ], [ -76.920058553559031, -11.913410053815237 ], [ -76.920249336702483, -11.940525027137502 ], [ -76.929428300330144, -11.94046218138033 ], [ -76.929492302156589, -11.949500444637779 ], [ -76.938671517833725, -11.949437250471554 ], [ -76.938735875892803, -11.958475458428641 ], [ -76.947915343602759, -11.958411915392324 ], [ -76.948109645415599, -11.985526354162022 ], [ -76.966470251564473, -11.985398070497736 ], [ -76.966535734277315, -11.994436104921483 ], [ -76.994077161049631, -11.994241275548882 ], [ -76.994010762719483, -11.985203392138954 ], [ -77.030730690827056, -11.984939615995623 ] ], [ [ -76.984369490976334, -11.922002874731856 ], [ -76.975191450037201, -11.922067415245104 ], [ -76.975126087795275, -11.91302938166274 ], [ -76.984303825503076, -11.912964891461794 ], [ -76.984369490976334, -11.922002874731856 ] ] ], [ [ [ -77.039910536666298, -11.984872921122593 ], [ -77.030730690827056, -11.984939615995623 ], [ -77.030798309859648, -11.99397729479227 ], [ -77.03997846085268, -11.993910548183552 ], [ -77.039910536666298, -11.984872921122593 ] ] ] ] } },
{ "type": "Feature", "properties": { "cine_id_all": "X005", "brand": "Cineplanet", "name": "Cineplanet", "distrito": "Independencia", "n_cells": 63, "pob_wp": 1128355.2701416016, "dur_min_avg": 8.8500529100529093, "dur_p50": 8.0983333333333327, "dur_p90": 14.761333333333338, "area_km2": 62.999999999998053 }, "geometry": { "type": "MultiPolygon", "coordinates": [ [ [ [ -77.113770348818775, -12.038551686639723 ], [ -77.122951525193486, -12.038481966168591 ], [ -77.122880568933084, -12.029444846410247 ], [ -77.11369969886627, -12.029514513032305 ], [ -77.113770348818775, -12.038551686639723 ] ] ], [ [ [ -77.113629105903215, -12.020477333179365 ], [ -77.122809669909159, -12.020407720402929 ], [ -77.122738828112531, -12.011370588151106 ], [ -77.141099172595361, -12.011230567473467 ], [ -77.140885158639804, -11.984119458403278 ], [ -77.122526645994668, -11.984259153973246 ], [ -77.122456033015482, -11.975221996788054 ], [ -77.104097901269668, -11.975360383971504 ], [ -77.104027954640159, -11.966323113147036 ], [ -77.094849108209743, -11.96639180334596 ], [ -77.094918750241533, -11.975429127529699 ], [ -77.076560279108818, -11.975565714535664 ], [ -77.076491246299483, -11.96652828433198 ], [ -77.058133160635236, -11.966663566044881 ], [ -77.058064792529038, -11.957626024558758 ], [ -77.048885970801777, -11.957693163474872 ], [ -77.048954034512349, -11.966730757152554 ], [ -77.030595616919058, -11.966864239827945 ], [ -77.030730690827056, -11.984939615995623 ], [ -77.039910536666298, -11.984872921122593 ], [ -77.03997846085268, -11.993910548183552 ], [ -77.058338597658803, -11.993776153321468 ], [ -77.058613290333241, -12.029926182766713 ], [ -77.07697565117482, -12.029790165293726 ], [ -77.077045075804534, -12.038827551967845 ], [ -77.104589115445435, -12.038621105463958 ], [ -77.104518771809992, -12.02958387824042 ], [ -77.11369969886627, -12.029514513032305 ], [ -77.113629105903215, -12.020477333179365 ] ] ] ] } },
{ "type": "Feature", "properties": { "cine_id_all": "X006", "brand": "Cineplanet", "name": "Cineplanet", "distrito": "Santa Clara", "n_cells": 254, "pob_wp": 639788.94604873657, "dur_min_avg": 17.381240157480313, "dur_p50": 15.776666666666667, "dur_p90": 29.87, "area_km2": 254.00000000000159 }, "geometry": { "type": "MultiPolygon", "coordinates": [ [ [ [ -76.957551001386989, -12.021614662662572 ], [ -76.957485665606725, -12.012576596894483 ], [ -76.948304419724266, -12.012640737456836 ], [ -76.94823944244115, -12.00360261586313 ], [ -76.957420382598329, -12.003538524946105 ], [ -76.95735515235333, -11.994500446821846 ], [ -76.966535734277315, -11.994436104921483 ], [ -76.966470251564473, -11.985398070497736 ], [ -76.948109645415599, -11.985526354162022 ], [ -76.947915343602759, -11.958411915392324 ], [ -76.938735875892803, -11.958475458428641 ], [ -76.938671517833725, -11.949437250471554 ], [ -76.929492302156589, -11.949500444637779 ], [ -76.929428300330144, -11.94046218138033 ], [ -76.911070321357556, -11.940587573634982 ], [ -76.911133715132166, -11.949625934508189 ], [ -76.874415925314295, -11.949873320179954 ], [ -76.87435374774158, -11.940834766870719 ], [ -76.846815786592558, -11.941017019187782 ], [ -76.846754570998598, -11.93197831788973 ], [ -76.810037809660244, -11.932216944538727 ], [ -76.809977858251969, -11.923178051248305 ], [ -76.791619791383482, -11.923295478342929 ], [ -76.791560495493457, -11.914256487424437 ], [ -76.782381692967675, -11.914314707203514 ], [ -76.782322748470023, -11.905275664789812 ], [ -76.773144201114448, -11.905333540708835 ], [ -76.77308560751564, -11.896294447043024 ], [ -76.754728975692501, -11.89640921386029 ], [ -76.754961210168872, -11.932565910798333 ], [ -76.764140763022979, -11.932508497619963 ], [ -76.764316347641866, -11.959625822364893 ], [ -76.77349676545316, -11.959567975140615 ], [ -76.773732763900384, -11.995724142952794 ], [ -76.764551126004037, -11.995782170070813 ], [ -76.764609939491166, -12.004821241738322 ], [ -76.746245909945955, -12.004936482867025 ], [ -76.746304159211618, -12.013975637689732 ], [ -76.737121767787201, -12.014032850989262 ], [ -76.737179757983654, -12.023072043987852 ], [ -76.746362455564338, -12.023014786401481 ], [ -76.746420799011617, -12.032053928997911 ], [ -76.755603755893716, -12.031996325387327 ], [ -76.755662453086472, -12.04103541733835 ], [ -76.783211958530742, -12.040860661195961 ], [ -76.78327162370671, -12.049899612034997 ], [ -76.79245500317964, -12.049840710639462 ], [ -76.792515023569806, -12.05887960987422 ], [ -76.810882251396805, -12.058760808969792 ], [ -76.810821616815346, -12.049722001363399 ], [ -76.820004850483429, -12.049662193497866 ], [ -76.820065792148725, -12.058700954940271 ], [ -76.847616118789603, -12.058519578633272 ], [ -76.847492442889362, -12.040442329370007 ], [ -76.856675171883396, -12.040381360077411 ], [ -76.856737291719014, -12.049419940695678 ], [ -76.88428609761182, -12.04923507890164 ], [ -76.884349188640599, -12.058273510667032 ], [ -76.893532329632237, -12.058211237853872 ], [ -76.893405584610562, -12.040134464205885 ], [ -76.902588060743781, -12.04007198560168 ], [ -76.902524458320329, -12.031033637774481 ], [ -76.91170657663109, -12.03097090582089 ], [ -76.911642719252043, -12.021932600309766 ], [ -76.957551001386989, -12.021614662662572 ] ] ], [ [ [ -76.818199395040651, -11.778496509372687 ], [ -76.827373482172945, -11.77843778990658 ], [ -76.827313759426659, -11.769398886104492 ], [ -76.818139971720854, -11.769457559264632 ], [ -76.818199395040651, -11.778496509372687 ] ] ] ] } },
{ "type": "Feature", "properties": { "cine_id_all": "X007", "brand": "Cineplanet", "name": "Cineplanet", "distrito": "San Juan de Lurigancho", "n_cells": 18, "pob_wp": 315429.8515625, "dur_min_avg": 7.6076851851851846, "dur_p50": 7.275, "dur_p90": 13.3315, "area_km2": 17.999999999999037 }, "geometry": { "type": "Polygon", "coordinates": [ [ [ -77.012572024044985, -12.01218543088447 ], [ -76.985029085634693, -12.012382368690885 ], [ -76.984962885501318, -12.003344447076602 ], [ -76.975782104375455, -12.003409440544697 ], [ -76.975716263199345, -11.994371462403755 ], [ -76.95735515235333, -11.994500446821846 ], [ -76.957420382598329, -12.003538524946105 ], [ -76.94823944244115, -12.00360261586313 ], [ -76.948304419724266, -12.012640737456836 ], [ -76.957485665606725, -12.012576596894483 ], [ -76.957551001386989, -12.021614662662572 ], [ -76.966732500461532, -12.021550171127155 ], [ -76.966798195233139, -12.03058818082579 ], [ -77.021887904541231, -12.030194600053887 ], [ -77.021820372683621, -12.02115689455745 ], [ -77.012639195480304, -12.021223193867936 ], [ -77.012572024044985, -12.01218543088447 ] ] ] } },
{ "type": "Feature", "properties": { "cine_id_all": "X008", "brand": "Cineplanet", "name": "Cineplanet", "distrito": "Ate", "n_cells": 31, "pob_wp": 457278.72842407227, "dur_min_avg": 7.8246236559139772, "dur_p50": 6.9133333333333331, "dur_p90": 11.99, "area_km2": 31.000000000001428 }, "geometry": { "type": "MultiPolygon", "coordinates": [ [ [ [ -76.930264380294247, -12.057959123550713 ], [ -76.957812872396147, -12.057766863843664 ], [ -76.957681831296966, -12.039690775640196 ], [ -76.966863943040735, -12.039626184332104 ], [ -76.966732500461532, -12.021550171127155 ], [ -76.911642719252043, -12.021932600309766 ], [ -76.91170657663109, -12.03097090582089 ], [ -76.902524458320329, -12.031033637774481 ], [ -76.902588060743781, -12.04007198560168 ], [ -76.893405584610562, -12.040134464205885 ], [ -76.893532329632237, -12.058211237853872 ], [ -76.911898458118799, -12.058085785296536 ], [ -76.911962521759207, -12.067124066087839 ], [ -76.930329058410393, -12.066997306645048 ], [ -76.930264380294247, -12.057959123550713 ] ] ], [ [ [ -76.893595778763668, -12.067249615409557 ], [ -76.893532329632237, -12.058211237853872 ], [ -76.884349188640599, -12.058273510667032 ], [ -76.884412330505185, -12.067311936255173 ], [ -76.893595778763668, -12.067249615409557 ] ] ], [ [ [ -76.884349188640599, -12.058273510667032 ], [ -76.88428609761182, -12.04923507890164 ], [ -76.875103212812093, -12.049297001597747 ], [ -76.875165996813166, -12.058335481159357 ], [ -76.884349188640599, -12.058273510667032 ] ] ] ] } },
{ "type": "Feature", "properties": { "cine_id_all": "X009", "brand": "Cineplanet", "name": "Cineplanet", "distrito": "Lima", "n_cells": 2, "pob_wp": 25913.4609375, "dur_min_avg": 5.99, "dur_p50": 5.99, "dur_p90": 7.9366666666666665, "area_km2": 1.9999999999996507 }, "geometry": { "type": "MultiPolygon", "coordinates": [ [ [ [ -77.031273176040116, -12.057240872593683 ], [ -77.031205173707917, -12.048203237271872 ], [ -77.022023131821484, -12.048269992406844 ], [ -77.022090827261664, -12.057307679254498 ], [ -77.031273176040116, -12.057240872593683 ] ] ], [ [ [ -77.021955490917591, -12.039232299338495 ], [ -77.021887904541231, -12.030194600053887 ], [ -77.012706421178578, -12.030260950647298 ], [ -77.01277370114849, -12.039298701218121 ], [ -77.021955490917591, -12.039232299338495 ] ] ] ] } },
{ "type": "Feature", "properties": { "cine_id_all": "X010", "brand": "Cineplanet", "name": "Cineplanet", "distrito": "Lima", "n_cells": 3, "pob_wp": 53430.4833984375, "dur_min_avg": 3.3, "dur_p50": 3.6083333333333334, "dur_p90": 4.477666666666666, "area_km2": 3.0000000000005822 }, "geometry": { "type": "Polygon", "coordinates": [ [ [ -77.04970638034942, -12.06614387804502 ], [ -77.049637708972938, -12.057106352709138 ], [ -77.022090827261664, -12.057307679254498 ], [ -77.022158577246913, -12.066345359877031 ], [ -77.04970638034942, -12.06614387804502 ] ] ] } },
{ "type": "Feature", "properties": { "cine_id_all": "X011", "brand": "Cineplanet", "name": "Cineplanet", "distrito": "Breña", "n_cells": 3, "pob_wp": 56713.21484375, "dur_min_avg": 2.885, "dur_p50": 3.0766666666666667, "dur_p90": 3.126, "area_km2": 3.0000000000019207 }, "geometry": { "type": "Polygon", "coordinates": [ [ [ -77.058957905153989, -12.075113579474618 ], [ -77.058819892632883, -12.057038639502387 ], [ -77.049637708972938, -12.057106352709138 ], [ -77.04970638034942, -12.06614387804502 ], [ -77.040523834281188, -12.066211341073563 ], [ -77.040592253584478, -12.075248912168517 ], [ -77.058957905153989, -12.075113579474618 ] ] ] } },
{ "type": "Feature", "properties": { "cine_id_all": "X012", "brand": "Cineplanet", "name": "Cineplanet", "distrito": "San Miguel", "n_cells": 58, "pob_wp": 572760.75543212891, "dur_min_avg": 9.535172413793104, "dur_p50": 9.1383333333333319, "dur_p90": 16.566333333333336, "area_km2": 57.999999999998586 }, "geometry": { "type": "Polygon", "coordinates": [ [ [ -77.159675655765028, -12.038200067991642 ], [ -77.150494709855337, -12.038270994961991 ], [ -77.150351017575318, -12.020197075075604 ], [ -77.141170625992189, -12.020267591342206 ], [ -77.141099172595361, -12.011230567473467 ], [ -77.122738828112531, -12.011370588151106 ], [ -77.122809669909159, -12.020407720402929 ], [ -77.113629105903215, -12.020477333179365 ], [ -77.11369969886627, -12.029514513032305 ], [ -77.104518771809992, -12.02958387824042 ], [ -77.104589115445435, -12.038621105463958 ], [ -77.095407825320564, -12.038690222632534 ], [ -77.095477919134296, -12.04772749699611 ], [ -77.086296265922613, -12.047796365653905 ], [ -77.08636610942041, -12.056833686926927 ], [ -77.068002020758897, -12.056970624130706 ], [ -77.06807130635174, -12.066008044776916 ], [ -77.058888871122008, -12.066076112609954 ], [ -77.059026994737806, -12.084151040091941 ], [ -77.068210044916697, -12.084082867326066 ], [ -77.068279497906801, -12.093120269220115 ], [ -77.077462800114134, -12.093051740894191 ], [ -77.07753261700519, -12.102089083820672 ], [ -77.086716171222889, -12.10202019947379 ], [ -77.08664604625703, -12.092982909488352 ], [ -77.105012369360168, -12.092844337471735 ], [ -77.104941685078416, -12.083807147794326 ], [ -77.12330716536492, -12.083667471069472 ], [ -77.123235922783991, -12.074630382622953 ], [ -77.159964963795844, -12.074347613403539 ], [ -77.159675655765028, -12.038200067991642 ] ], [ [ -77.122880568933084, -12.029444846410247 ], [ -77.122951525193486, -12.038481966168591 ], [ -77.113770348818775, -12.038551686639723 ], [ -77.11369969886627, -12.029514513032305 ], [ -77.122880568933084, -12.029444846410247 ] ] ] } },
{ "type": "Feature", "properties": { "cine_id_all": "X013", "brand": "Cineplanet", "name": "Cineplanet", "distrito": "La Molina", "n_cells": 347, "pob_wp": 342533.74948501587, "dur_min_avg": 32.462204610951012, "dur_p50": 34.77, "dur_p90": 48.089, "area_km2": 347.00000000000148 }, "geometry": { "type": "Polygon", "coordinates": [ [ [ -76.875733330282586, -12.139681518849203 ], [ -76.884919296494559, -12.139619118052359 ], [ -76.884855747648217, -12.13058074204028 ], [ -76.894041353703457, -12.130518084880816 ], [ -76.893977546759302, -12.12147975071051 ], [ -76.921533130091291, -12.121290099753944 ], [ -76.921468448082678, -12.112251904925122 ], [ -76.93065323037105, -12.112188129070013 ], [ -76.930523405277185, -12.094111818726976 ], [ -76.939707518765402, -12.094047837616598 ], [ -76.939577286408067, -12.075971600843966 ], [ -76.948760731872227, -12.075907415406444 ], [ -76.948695386738422, -12.066869337145201 ], [ -76.957878472162903, -12.066804898644058 ], [ -76.957812872396147, -12.057766863843664 ], [ -76.930264380294247, -12.057959123550713 ], [ -76.930329058410393, -12.066997306645048 ], [ -76.911962521759207, -12.067124066087839 ], [ -76.911898458118799, -12.058085785296536 ], [ -76.893532329632237, -12.058211237853872 ], [ -76.893595778763668, -12.067249615409557 ], [ -76.884412330505185, -12.067311936255173 ], [ -76.884349188640599, -12.058273510667032 ], [ -76.875165996813166, -12.058335481159357 ], [ -76.875103212812093, -12.049297001597747 ], [ -76.856737291719014, -12.049419940695678 ], [ -76.856675171883396, -12.040381360077411 ], [ -76.847492442889362, -12.040442329370007 ], [ -76.847616118789603, -12.058519578633272 ], [ -76.820065792148725, -12.058700954940271 ], [ -76.820004850483429, -12.049662193497866 ], [ -76.810821616815346, -12.049722001363399 ], [ -76.810882251396805, -12.058760808969792 ], [ -76.792515023569806, -12.05887960987422 ], [ -76.79245500317964, -12.049840710639462 ], [ -76.78327162370671, -12.049899612034997 ], [ -76.783211958530742, -12.040860661195961 ], [ -76.755662453086472, -12.04103541733835 ], [ -76.755603755893716, -12.031996325387327 ], [ -76.746420799011617, -12.032053928997911 ], [ -76.746362455564338, -12.023014786401481 ], [ -76.737179757983654, -12.023072043987852 ], [ -76.737121767787201, -12.014032850989262 ], [ -76.700391736164335, -12.014258691362027 ], [ -76.700448501660929, -12.023298059176055 ], [ -76.691265572316809, -12.023353809148105 ], [ -76.69132207723068, -12.032393213984466 ], [ -76.682138795827697, -12.032448705302757 ], [ -76.682195039664165, -12.041488146929392 ], [ -76.673011406187698, -12.041543379123182 ], [ -76.673179488401345, -12.068661795355133 ], [ -76.682364043470798, -12.06860643516529 ], [ -76.682476939662649, -12.086685263409175 ], [ -76.691662064950478, -12.086629514690781 ], [ -76.691775759409339, -12.104708232608022 ], [ -76.700961455628914, -12.104652094423733 ], [ -76.70101868003853, -12.113691401029582 ], [ -76.691832675150465, -12.113747582362459 ], [ -76.691889636575922, -12.122786925974989 ], [ -76.673516872139999, -12.122898462604871 ], [ -76.673629694877661, -12.140977302608665 ], [ -76.664442626121655, -12.141032699650857 ], [ -76.664555010091235, -12.159111599978813 ], [ -76.682930341600454, -12.159000330992791 ], [ -76.682873507278629, -12.149960969062141 ], [ -76.692060795032162, -12.149904919917779 ], [ -76.692117939268883, -12.158944238919325 ], [ -76.719680456954464, -12.15877413246228 ], [ -76.71973857735631, -12.167813315103857 ], [ -76.747301607231961, -12.167640331145344 ], [ -76.747360705226129, -12.176679375304621 ], [ -76.75654859810696, -12.176621058937922 ], [ -76.756429828867113, -12.158543053569252 ], [ -76.793178441473358, -12.158307094780834 ], [ -76.79323904272367, -12.167345919961104 ], [ -76.802426385445656, -12.167286122103029 ], [ -76.802487345470908, -12.176324895347776 ], [ -76.820862505169529, -12.176204291898486 ], [ -76.820800924530133, -12.167165610825867 ], [ -76.829988120396877, -12.167104897422002 ], [ -76.829864486862334, -12.149027609518864 ], [ -76.839051013450998, -12.148966684278346 ], [ -76.839175266816127, -12.167043878851498 ], [ -76.848362363540005, -12.166982555122059 ], [ -76.84842487504055, -12.176021096186084 ], [ -76.875986795349746, -12.175835152012906 ], [ -76.876050288333346, -12.184873544736803 ], [ -76.885237804537809, -12.18481090477367 ], [ -76.885110248525152, -12.166734208770503 ], [ -76.875923353061111, -12.166796753057815 ], [ -76.875733330282586, -12.139681518849203 ] ] ] } },
{ "type": "Feature", "properties": { "cine_id_all": "X014", "brand": "Cineplanet", "name": "Cineplanet Risso", "distrito": "Lince", "n_cells": 2, "pob_wp": 31143.5380859375, "dur_min_avg": 3.4833333333333334, "dur_p50": 3.4833333333333334, "dur_p90": 4.0313333333333334, "area_km2": 1.9999999999986031 }, "geometry": { "type": "Polygon", "coordinates": [ [ [ -77.031477511825798, -12.084353741170757 ], [ -77.040660727945024, -12.084286477022836 ], [ -77.040523834281188, -12.066211341073563 ], [ -77.031341233164611, -12.066278501687057 ], [ -77.031477511825798, -12.084353741170757 ] ] ] } },
{ "type": "Feature", "properties": { "cine_id_all": "X015", "brand": "Cineplanet", "name": "Cineplanet Plaza Santa Catalina", "distrito": "La Victoria", "n_cells": 6, "pob_wp": 75085.974609375, "dur_min_avg": 3.1, "dur_p50": 3.1158333333333332, "dur_p90": 3.805, "area_km2": 5.9999999999995639 }, "geometry": { "type": "Polygon", "coordinates": [ [ [ -77.031682340980609, -12.111466553572193 ], [ -77.031409345090225, -12.075316124547561 ], [ -77.022226381786012, -12.075383034270008 ], [ -77.02229424088776, -12.084420702428995 ], [ -77.013110915378292, -12.084487360789089 ], [ -77.013246181277594, -12.102562781002675 ], [ -77.022430122814399, -12.10249602002728 ], [ -77.022498145656925, -12.111533669457719 ], [ -77.031682340980609, -12.111466553572193 ] ] ] } },
{ "type": "Feature", "properties": { "cine_id_all": "X016", "brand": "Cineplanet", "name": "Cineplanet", "distrito": "San Borja", "n_cells": 6, "pob_wp": 68792.515625, "dur_min_avg": 3.4791666666666661, "dur_p50": 3.1175, "dur_p90": 5.125, "area_km2": 5.9999999999996216 }, "geometry": { "type": "MultiPolygon", "coordinates": [ [ [ [ -77.013246181277594, -12.102562781002675 ], [ -77.013110915378292, -12.084487360789089 ], [ -76.985560613894748, -12.084685518396565 ], [ -76.985627295955624, -12.093723384142381 ], [ -76.994811091611453, -12.093657583920431 ], [ -76.994878135426532, -12.10269539282665 ], [ -77.013246181277594, -12.102562781002675 ] ] ], [ [ [ -76.976443446709155, -12.093788881199622 ], [ -76.976509874188451, -12.102826791092454 ], [ -76.985694031607153, -12.102761243658486 ], [ -76.985627295955624, -12.093723384142381 ], [ -76.976443446709155, -12.093788881199622 ] ] ] ] } },
{ "type": "Feature", "properties": { "cine_id_all": "X017", "brand": "Cineplanet", "name": "Cineplanet Salaverry", "distrito": "Jesús María", "n_cells": 7, "pob_wp": 92649.5400390625, "dur_min_avg": 4.1071428571428568, "dur_p50": 4.27, "dur_p90": 5.1203333333333338, "area_km2": 7.0000000000003482 }, "geometry": { "type": "Polygon", "coordinates": [ [ [ -77.068349006714001, -12.102157664854557 ], [ -77.068210044916697, -12.084082867326066 ], [ -77.059026994737806, -12.084151040091941 ], [ -77.058957905153989, -12.075113579474618 ], [ -77.040592253584478, -12.075248912168517 ], [ -77.040729257371694, -12.093324035632081 ], [ -77.049912726288227, -12.093256416597654 ], [ -77.049981618900688, -12.102293916948733 ], [ -77.068349006714001, -12.102157664854557 ] ] ] } },
{ "type": "Feature", "properties": { "cine_id_all": "X018", "brand": "Cineplanet", "name": "Cineplanet", "distrito": "La Molina", "n_cells": 12, "pob_wp": 61659.2333984375, "dur_min_avg": 4.8580555555555547, "dur_p50": 4.94, "dur_p90": 6.8216666666666672, "area_km2": 12.000000000000059 }, "geometry": { "type": "Polygon", "coordinates": [ [ [ -76.949088246470126, -12.121097713504577 ], [ -76.948957082811233, -12.103021612924572 ], [ -76.958141399543024, -12.102956975733715 ], [ -76.957944124752444, -12.075842927237666 ], [ -76.939577286408067, -12.075971600843966 ], [ -76.939707518765402, -12.094047837616598 ], [ -76.930523405277185, -12.094111818726976 ], [ -76.93065323037105, -12.112188129070013 ], [ -76.921468448082678, -12.112251904925122 ], [ -76.921533130091291, -12.121290099753944 ], [ -76.949088246470126, -12.121097713504577 ] ] ] } },
{ "type": "Feature", "properties": { "cine_id_all": "X019", "brand": "Cineplanet", "name": "Cineplanet El Polo", "distrito": "Santiago de Surco", "n_cells": 9, "pob_wp": 96898.8681640625, "dur_min_avg": 3.4294444444444441, "dur_p50": 3.3616666666666664, "dur_p90": 4.6996666666666673, "area_km2": 8.9999999999993321 }, "geometry": { "type": "MultiPolygon", "coordinates": [ [ [ [ -76.976642889211178, -12.120902592181071 ], [ -76.976443446709155, -12.093788881199622 ], [ -76.967259544119472, -12.093854075083874 ], [ -76.967127464801365, -12.075778136345784 ], [ -76.957944124752444, -12.075842927237666 ], [ -76.958141399543024, -12.102956975733715 ], [ -76.948957082811233, -12.103021612924572 ], [ -76.949022638331726, -12.112059666327387 ], [ -76.967391835820749, -12.111929988929036 ], [ -76.967458061336529, -12.120967936505739 ], [ -76.976642889211178, -12.120902592181071 ] ] ], [ [ [ -76.976377072573072, -12.084750965080323 ], [ -76.976443446709155, -12.093788881199622 ], [ -76.985627295955624, -12.093723384142381 ], [ -76.985560613894748, -12.084685518396565 ], [ -76.976377072573072, -12.084750965080323 ] ] ] ] } },
{ "type": "Feature", "properties": { "cine_id_all": "X020", "brand": "Cineplanet", "name": "Cineplanet Primavera", "distrito": "San Borja", "n_cells": 4, "pob_wp": 66456.1630859375, "dur_min_avg": 2.840416666666667, "dur_p50": 2.4983333333333335, "dur_p90": 3.889, "area_km2": 3.9999999999994178 }, "geometry": { "type": "Polygon", "coordinates": [ [ [ -76.995079589987157, -12.12980878210327 ], [ -77.004264565909239, -12.129742475333101 ], [ -77.004197051630442, -12.120704736005203 ], [ -77.013381664543502, -12.120638176240387 ], [ -77.013313895735337, -12.111600481745731 ], [ -77.004129591463325, -12.111666990427782 ], [ -77.004062185399178, -12.102629238605264 ], [ -76.994878135426532, -12.10269539282665 ], [ -76.995079589987157, -12.12980878210327 ] ] ] } },
{ "type": "Feature", "properties": { "cine_id_all": "X021", "brand": "Cineplanet", "name": "Cineplanet", "distrito": "Santiago de Surco", "n_cells": 6, "pob_wp": 83139.8232421875, "dur_min_avg": 3.341388888888889, "dur_p50": 3.5083333333333333, "dur_p90": 4.56, "area_km2": 6.0000000000045102 }, "geometry": { "type": "Polygon", "coordinates": [ [ [ -76.995079589987157, -12.12980878210327 ], [ -76.994811091611453, -12.093657583920431 ], [ -76.985627295955624, -12.093723384142381 ], [ -76.985694031607153, -12.102761243658486 ], [ -76.976509874188451, -12.102826791092454 ], [ -76.976642889211178, -12.120902592181071 ], [ -76.985827663716748, -12.120836943983893 ], [ -76.985894560192165, -12.129874784784354 ], [ -76.995079589987157, -12.12980878210327 ] ] ] } },
{ "type": "Feature", "properties": { "cine_id_all": "X022", "brand": "Cineplanet", "name": "Cineplanet", "distrito": "Miraflores", "n_cells": 9, "pob_wp": 51167.015625, "dur_min_avg": 4.4633333333333329, "dur_p50": 3.5366666666666666, "dur_p90": 8.361, "area_km2": 8.9999999999990692 }, "geometry": { "type": "Polygon", "coordinates": [ [ [ -77.041003925917465, -12.129474207529638 ], [ -77.040935176137353, -12.120436673945033 ], [ -77.05011957012853, -12.120368898874554 ], [ -77.050050566844476, -12.11133141104251 ], [ -77.077602489969749, -12.111126420479701 ], [ -77.077462800114134, -12.093051740894191 ], [ -77.068279497906801, -12.093120269220115 ], [ -77.068349006714001, -12.102157664854557 ], [ -77.031614009762123, -12.102428955687506 ], [ -77.031819167962539, -12.12954173057202 ], [ -77.041003925917465, -12.129474207529638 ] ] ] } },
{ "type": "Feature", "properties": { "cine_id_all": "X023", "brand": "Cineplanet", "name": "Cineplanet", "distrito": "San Juan de Miraflores", "n_cells": 2, "pob_wp": 40714.1953125, "dur_min_avg": 2.2158333333333333, "dur_p50": 2.2158333333333333, "dur_p90": 3.0018333333333334, "area_km2": 2.0 }, "geometry": { "type": "Polygon", "coordinates": [ [ [ -76.976976360878538, -12.166091985630453 ], [ -76.986162682433971, -12.166026085468225 ], [ -76.986028514027666, -12.147950447638724 ], [ -76.976842812035144, -12.148016247005144 ], [ -76.976976360878538, -12.166091985630453 ] ] ] } },
{ "type": "Feature", "properties": { "cine_id_all": "X024", "brand": "Cineplanet", "name": "Cineplanet", "distrito": "Chorrillos", "n_cells": 8, "pob_wp": 113732.4375, "dur_min_avg": 4.1420833333333338, "dur_p50": 4.4191666666666665, "dur_p90": 5.6888333333333332, "area_km2": 8.0000000000006697 }, "geometry": { "type": "Polygon", "coordinates": [ [ [ -76.986431663237695, -12.202177285911379 ], [ -76.986364337516065, -12.193139495213609 ], [ -76.995551536587683, -12.193073138102919 ], [ -76.99528152940384, -12.156922115123997 ], [ -76.986095571405116, -12.156988269683792 ], [ -76.986162682433971, -12.166026085468225 ], [ -76.976976360878538, -12.166091985630453 ], [ -76.977244099583302, -12.20224338770447 ], [ -76.986431663237695, -12.202177285911379 ] ] ] } },
{ "type": "Feature", "properties": { "cine_id_all": "X025", "brand": "Cineplanet", "name": "Cineplanet", "distrito": "Villa María del Triunfo", "n_cells": 49, "pob_wp": 297269.57836914062, "dur_min_avg": 13.485544217687073, "dur_p50": 13.211666666666668, "dur_p90": 22.626666666666672, "area_km2": 48.999999999994479 }, "geometry": { "type": "Polygon", "coordinates": [ [ [ -76.958669791982217, -12.175260830858518 ], [ -76.95853737649135, -12.157184904547314 ], [ -76.949351205373262, -12.157249839868939 ], [ -76.949285386678, -12.148211817638316 ], [ -76.921727487452856, -12.148404646899875 ], [ -76.921662649767967, -12.139366470745721 ], [ -76.903291075941539, -12.139493403206989 ], [ -76.903226908609525, -12.130455123542685 ], [ -76.912412412118783, -12.130391858033843 ], [ -76.912347987200846, -12.121353620671599 ], [ -76.893977546759302, -12.12147975071051 ], [ -76.894041353703457, -12.130518084880816 ], [ -76.884855747648217, -12.13058074204028 ], [ -76.884919296494559, -12.139619118052359 ], [ -76.875733330282586, -12.139681518849203 ], [ -76.875923353061111, -12.166796753057815 ], [ -76.885110248525152, -12.166734208770503 ], [ -76.885365564354899, -12.202887575822098 ], [ -76.912929671366385, -12.202697532580125 ], [ -76.912800046453029, -12.18462115139701 ], [ -76.931174616335824, -12.184493121319857 ], [ -76.931240024349748, -12.193531217252234 ], [ -76.949615006845363, -12.193401866270827 ], [ -76.949483000754, -12.175325865582808 ], [ -76.958669791982217, -12.175260830858518 ] ] ] } },
{ "type": "Feature", "properties": { "cine_id_all": "X026", "brand": "Cineplanet", "name": "Cineplanet", "distrito": "Villa El Salvador", "n_cells": 42, "pob_wp": 579348.81237792969, "dur_min_avg": 7.265595238095238, "dur_p50": 6.7191666666666663, "dur_p90": 12.190166666666666, "area_km2": 41.999999999997591 }, "geometry": { "type": "Polygon", "coordinates": [ [ [ -76.959068308941553, -12.229488459418613 ], [ -76.958935258138382, -12.211412608329409 ], [ -76.949747223715931, -12.21147784189777 ], [ -76.949615006845363, -12.193401866270827 ], [ -76.931240024349748, -12.193531217252234 ], [ -76.931174616335824, -12.184493121319857 ], [ -76.912800046453029, -12.18462115139701 ], [ -76.912929671366385, -12.202697532580125 ], [ -76.885365564354899, -12.202887575822098 ], [ -76.885429520710815, -12.211925901977329 ], [ -76.876241071536327, -12.211988685477516 ], [ -76.876368513964408, -12.230065414735028 ], [ -76.885557586358971, -12.230002535527898 ], [ -76.885621695667822, -12.239040842914477 ], [ -76.904000311170293, -12.238914067830899 ], [ -76.904065095915712, -12.247952272529545 ], [ -76.940822955738881, -12.247694843128123 ], [ -76.940756922223599, -12.238656834076775 ], [ -76.949945944383003, -12.238591758271637 ], [ -76.949879651434358, -12.229553792428421 ], [ -76.959068308941553, -12.229488459418613 ] ] ] } },
{ "type": "Feature", "properties": { "cine_id_all": "X027", "brand": "Cineplanet", "name": "Cineplanet", "distrito": "Lurín", "n_cells": 659, "pob_wp": 222994.3478782177, "dur_min_avg": 38.102111785533637, "dur_p50": 36.081666666666671, "dur_p90": 65.939666666666682, "area_km2": 659.00000000000659 }, "geometry": { "type": "Polygon", "coordinates": [ [ [ -76.876816161350774, -12.293333769795918 ], [ -76.886007422833046, -12.293270555516022 ], [ -76.88594300739328, -12.284232285785032 ], [ -76.904324750038029, -12.284105028523674 ], [ -76.904259759219485, -12.275066848953982 ], [ -76.895069226749172, -12.275130583317045 ], [ -76.89500460041981, -12.266092349120854 ], [ -76.913384987921461, -12.2659646693987 ], [ -76.913319787454768, -12.256926525823765 ], [ -76.931699342495804, -12.256797713284879 ], [ -76.931633568910115, -12.247759661256767 ], [ -76.904065095915712, -12.247952272529545 ], [ -76.904000311170293, -12.238914067830899 ], [ -76.885621695667822, -12.239040842914477 ], [ -76.885557586358971, -12.230002535527898 ], [ -76.876368513964408, -12.230065414735028 ], [ -76.876241071536327, -12.211988685477516 ], [ -76.885429520710815, -12.211925901977329 ], [ -76.885237804537809, -12.18481090477367 ], [ -76.876050288333346, -12.184873544736803 ], [ -76.875986795349746, -12.175835152012906 ], [ -76.84842487504055, -12.176021096186084 ], [ -76.848362363540005, -12.166982555122059 ], [ -76.839175266816127, -12.167043878851498 ], [ -76.839051013450998, -12.148966684278346 ], [ -76.829864486862334, -12.149027609518864 ], [ -76.829988120396877, -12.167104897422002 ], [ -76.820800924530133, -12.167165610825867 ], [ -76.820862505169529, -12.176204291898486 ], [ -76.802487345470908, -12.176324895347776 ], [ -76.802426385445656, -12.167286122103029 ], [ -76.79323904272367, -12.167345919961104 ], [ -76.793178441473358, -12.158307094780834 ], [ -76.756429828867113, -12.158543053569252 ], [ -76.75654859810696, -12.176621058937922 ], [ -76.747360705226129, -12.176679375304621 ], [ -76.747301607231961, -12.167640331145344 ], [ -76.71973857735631, -12.167813315103857 ], [ -76.719680456954464, -12.15877413246228 ], [ -76.692117939268883, -12.158944238919325 ], [ -76.692060795032162, -12.149904919917779 ], [ -76.682873507278629, -12.149960969062141 ], [ -76.682930341600454, -12.159000330992791 ], [ -76.664555010091235, -12.159111599978813 ], [ -76.664611269538696, -12.168151040912038 ], [ -76.655423226008921, -12.168206260042012 ], [ -76.655535258751968, -12.186285207896505 ], [ -76.646346549357048, -12.186340205724861 ], [ -76.646458138985167, -12.204419212932404 ], [ -76.637268762951834, -12.204473988529026 ], [ -76.637324313099242, -12.213513524655912 ], [ -76.618944805570592, -12.213622239936466 ], [ -76.619220098651894, -12.258820242247696 ], [ -76.628411435425363, -12.258765831259369 ], [ -76.628578076589292, -12.285884434420968 ], [ -76.637770308854002, -12.285829591079791 ], [ -76.637826257753943, -12.294869071494148 ], [ -76.647018759358843, -12.294813877993892 ], [ -76.647131418288183, -12.312892736569186 ], [ -76.656324503383573, -12.312837150404787 ], [ -76.656381214166103, -12.321876528315117 ], [ -76.665574568813682, -12.321820590828787 ], [ -76.665631639112377, -12.330859920227656 ], [ -76.674825263297336, -12.330803630956193 ], [ -76.674882693609604, -12.339842911599955 ], [ -76.665688754528531, -12.339899243389127 ], [ -76.66591766751624, -12.376056473574764 ], [ -76.675112868669714, -12.375999971686728 ], [ -76.675170525924912, -12.385039221064764 ], [ -76.693561424030264, -12.384925199533532 ], [ -76.693619759452446, -12.393964356874839 ], [ -76.721206710747836, -12.393790862547476 ], [ -76.72126604191034, -12.402829883194336 ], [ -76.74885352298891, -12.402653456470391 ], [ -76.749337478037035, -12.474964334377027 ], [ -76.758535752078629, -12.474904545599685 ], [ -76.758657853366572, -12.492982112498108 ], [ -76.767856717534002, -12.492921920740438 ], [ -76.767979648661196, -12.51099937244234 ], [ -76.777179103670704, -12.51093877676408 ], [ -76.777240961040988, -12.519977447934982 ], [ -76.795640365588895, -12.519855223308666 ], [ -76.795577868656665, -12.510816643136916 ], [ -76.804777178134216, -12.510755105203469 ], [ -76.804526401343878, -12.474600904283053 ], [ -76.7953283684475, -12.474662258844823 ], [ -76.795079647880357, -12.438507772992931 ], [ -76.785882838881506, -12.438568632025902 ], [ -76.785574618931875, -12.39337515439996 ], [ -76.79476984275405, -12.393314523283008 ], [ -76.79470802772579, -12.384275854398462 ], [ -76.803902886612647, -12.384214958052576 ], [ -76.803778770674526, -12.366137692982464 ], [ -76.812972948867539, -12.366076577915464 ], [ -76.812910648696047, -12.357037981963247 ], [ -76.822104462242891, -12.356976602842373 ], [ -76.821979378963249, -12.338899484574553 ], [ -76.831172512867965, -12.338837888365795 ], [ -76.831109730497715, -12.329799366283426 ], [ -76.84030250004561, -12.329737507195611 ], [ -76.840239452761722, -12.320699025544538 ], [ -76.849431857969165, -12.320636904049707 ], [ -76.849368546268792, -12.311598463061772 ], [ -76.858560587152212, -12.31153607963194 ], [ -76.85849701153235, -12.302497679538941 ], [ -76.876880314121578, -12.30237208111572 ], [ -76.876816161350774, -12.293333769795918 ] ] ] } },
{ "type": "Feature", "properties": { "cine_id_all": "X028", "brand": "Cinemark", "name": "Cinemark Jockey Plaza", "distrito": "Santiago de Surco", "n_cells": 7, "pob_wp": 95649.8759765625, "dur_min_avg": 4.466904761904761, "dur_p50": 4.965, "dur_p90": 5.7856666666666667, "area_km2": 7.0000000000002913 }, "geometry": { "type": "Polygon", "coordinates": [ [ [ -76.976443446709155, -12.093788881199622 ], [ -76.976178270138149, -12.057637179407818 ], [ -76.957812872396147, -12.057766863843664 ], [ -76.957878472162903, -12.066804898644058 ], [ -76.948695386738422, -12.066869337145201 ], [ -76.948760731872227, -12.075907415406444 ], [ -76.967127464801365, -12.075778136345784 ], [ -76.967259544119472, -12.093854075083874 ], [ -76.976443446709155, -12.093788881199622 ] ] ] } },
{ "type": "Feature", "properties": { "cine_id_all": "X030", "brand": "Cinemark", "name": "Cinemark Mallplaza Angamos", "distrito": "Surquillo", "n_cells": 4, "pob_wp": 57979.7900390625, "dur_min_avg": 2.8108333333333335, "dur_p50": 2.4208333333333334, "dur_p90": 3.8135, "area_km2": 4.0000000000012808 }, "geometry": { "type": "MultiPolygon", "coordinates": [ [ [ [ -77.004264565909239, -12.129742475333101 ], [ -77.013449487710872, -12.129675864482225 ], [ -77.013381664543502, -12.120638176240387 ], [ -77.004197051630442, -12.120704736005203 ], [ -77.004264565909239, -12.129742475333101 ] ] ], [ [ [ -77.022566223097343, -12.120571312636452 ], [ -77.022430122814399, -12.10249602002728 ], [ -77.004062185399178, -12.102629238605264 ], [ -77.004129591463325, -12.111666990427782 ], [ -77.013313895735337, -12.111600481745731 ], [ -77.013381664543502, -12.120638176240387 ], [ -77.022566223097343, -12.120571312636452 ] ] ] ] } },
{ "type": "Feature", "properties": { "cine_id_all": "X031", "brand": "Cinemark", "name": "Cinemark Plaza Lima Sur", "distrito": "Chorrillos", "n_cells": 8, "pob_wp": 72188.053314208984, "dur_min_avg": 7.92125, "dur_p50": 4.9333333333333336, "dur_p90": 14.489333333333331, "area_km2": 8.0000000000009894 }, "geometry": { "type": "Polygon", "coordinates": [ [ [ -77.041486717976824, -12.192736766890738 ], [ -77.041348501656401, -12.174661781355304 ], [ -77.032162195677387, -12.174729563375859 ], [ -77.032093480354817, -12.165692009369467 ], [ -77.022907429577216, -12.165759434599503 ], [ -77.022770783094302, -12.147684204618114 ], [ -77.013585297158457, -12.147751222189729 ], [ -77.013857568751945, -12.183901862376207 ], [ -77.032230965907573, -12.183767111096204 ], [ -77.032299791054299, -12.192804652526075 ], [ -77.041486717976824, -12.192736766890738 ] ] ] } },
{ "type": "Feature", "properties": { "cine_id_all": "X033", "brand": "Cinemark", "name": "Cinemark Mallplaza Comas", "distrito": "Comas", "n_cells": 2, "pob_wp": 33165.5380859375, "dur_min_avg": 2.4791666666666665, "dur_p50": 2.4791666666666665, "dur_p90": 2.773166666666667, "area_km2": 2.0000000000009894 }, "geometry": { "type": "Polygon", "coordinates": [ [ [ -77.057928222615971, -11.939550923022308 ], [ -77.067106380873895, -11.939483589342572 ], [ -77.066969425587715, -11.921408567909035 ], [ -77.057791874376377, -11.921475796763252 ], [ -77.057928222615971, -11.939550923022308 ] ] ] } },
{ "type": "Feature", "properties": { "cine_id_all": "X034", "brand": "Cinemark", "name": "Cinemark Gamarra", "distrito": "La Victoria", "n_cells": 9, "pob_wp": 155727.677734375, "dur_min_avg": 3.4420370370370375, "dur_p50": 3.5733333333333333, "dur_p90": 4.547, "area_km2": 8.9999999999996199 }, "geometry": { "type": "Polygon", "coordinates": [ [ [ -77.02229424088776, -12.084420702428995 ], [ -77.022226381786012, -12.075383034270008 ], [ -77.031409345090225, -12.075316124547561 ], [ -77.031341233164611, -12.066278501687057 ], [ -77.022158577246913, -12.066345359877031 ], [ -77.022090827261664, -12.057307679254498 ], [ -76.985360889169542, -12.057571883825053 ], [ -76.98542741051034, -12.066609768233482 ], [ -76.994610283159787, -12.066544119821618 ], [ -76.994677165486749, -12.075581947413488 ], [ -77.013043363919152, -12.075449641327408 ], [ -77.013110915378292, -12.084487360789089 ], [ -77.02229424088776, -12.084420702428995 ] ] ] } },
{ "type": "Feature", "properties": { "cine_id_all": "X036", "brand": "Cinépolis", "name": "Cinépolis Santa Anita", "distrito": "Santa Anita", "n_cells": 8, "pob_wp": 207385.470703125, "dur_min_avg": 5.1402083333333337, "dur_p50": 5.3566666666666665, "dur_p90": 6.1821666666666655, "area_km2": 7.9999999999993019 }, "geometry": { "type": "Polygon", "coordinates": [ [ [ -76.985493985415872, -12.075647646425459 ], [ -76.985228007147583, -12.039496096376523 ], [ -76.957681831296966, -12.039690775640196 ], [ -76.957812872396147, -12.057766863843664 ], [ -76.976178270138149, -12.057637179407818 ], [ -76.976310751771621, -12.075713042738975 ], [ -76.985493985415872, -12.075647646425459 ] ] ] } },
{ "type": "Feature", "properties": { "cine_id_all": "X037", "brand": "Cinépolis", "name": "Cinépolis Larcomar", "distrito": "Miraflores", "n_cells": 5, "pob_wp": 28301.456787109375, "dur_min_avg": 5.0353333333333321, "dur_p50": 4.9633333333333338, "dur_p90": 6.636, "area_km2": 5.0000000000049187 }, "geometry": { "type": "Polygon", "coordinates": [ [ [ -77.032093480354817, -12.165692009369467 ], [ -77.031819167962539, -12.12954173057202 ], [ -77.022634355144476, -12.129608949559046 ], [ -77.022702541807192, -12.138646580221078 ], [ -77.013517365246258, -12.138713546466814 ], [ -77.013585297158457, -12.147751222189729 ], [ -77.022770783094302, -12.147684204618114 ], [ -77.022907429577216, -12.165759434599503 ], [ -77.032093480354817, -12.165692009369467 ] ] ] } },
{ "type": "Feature", "properties": { "cine_id_all": "X038", "brand": "Cinestar", "name": "Cinestar SJL", "distrito": "San Juan de Lurigancho", "n_cells": 15, "pob_wp": 294886.7607421875, "dur_min_avg": 5.057888888888888, "dur_p50": 4.5066666666666659, "dur_p90": 8.315, "area_km2": 14.99999999999639 }, "geometry": { "type": "Polygon", "coordinates": [ [ [ -77.021820372683621, -12.02115689455745 ], [ -77.021685472489679, -12.003081464946836 ], [ -77.030865983622974, -12.003014967391536 ], [ -77.030730690827056, -11.984939615995623 ], [ -76.994010762719483, -11.985203392138954 ], [ -76.994077161049631, -11.994241275548882 ], [ -76.975716263199345, -11.994371462403755 ], [ -76.975782104375455, -12.003409440544697 ], [ -76.984962885501318, -12.003344447076602 ], [ -76.985029085634693, -12.012382368690885 ], [ -77.012572024044985, -12.01218543088447 ], [ -77.012639195480304, -12.021223193867936 ], [ -77.021820372683621, -12.02115689455745 ] ] ] } },
{ "type": "Feature", "properties": { "cine_id_all": "X039", "brand": "Cinestar", "name": "Cinestar UNI", "distrito": "Rímac", "n_cells": 8, "pob_wp": 145779.26171875, "dur_min_avg": 5.495, "dur_p50": 4.6816666666666666, "dur_p90": 7.8148333333333335, "area_km2": 7.9999999999979909 }, "geometry": { "type": "Polygon", "coordinates": [ [ [ -77.058682102247417, -12.038963674576324 ], [ -77.058338597658803, -11.993776153321468 ], [ -77.030798309859648, -11.99397729479227 ], [ -77.030865983622974, -12.003014967391536 ], [ -77.040046440016752, -12.002948169043824 ], [ -77.040114474167311, -12.011985783698968 ], [ -77.049295181213509, -12.011918632592003 ], [ -77.049500532071235, -12.039031283336502 ], [ -77.058682102247417, -12.038963674576324 ] ] ] } },
{ "type": "Feature", "properties": { "cine_id_all": "X040", "brand": "Cinestar", "name": "Cinestar Sur", "distrito": "San Juan de Miraflores", "n_cells": 30, "pob_wp": 317645.22570800781, "dur_min_avg": 9.9660555555555561, "dur_p50": 8.1241666666666674, "dur_p90": 18.12916666666667, "area_km2": 29.999999999999854 }, "geometry": { "type": "Polygon", "coordinates": [ [ [ -76.976842812035144, -12.148016247005144 ], [ -76.995214162377493, -12.147884343708443 ], [ -76.995146849241522, -12.138846566033395 ], [ -76.976776117710315, -12.138978368310852 ], [ -76.976709476771887, -12.129940483368024 ], [ -76.967524339973849, -12.130005877845973 ], [ -76.967458061336529, -12.120967936505739 ], [ -76.958273180340328, -12.121032976949648 ], [ -76.958207263508953, -12.111994979456098 ], [ -76.949022638331726, -12.112059666327387 ], [ -76.949088246470126, -12.121097713504577 ], [ -76.912347987200846, -12.121353620671599 ], [ -76.912412412118783, -12.130391858033843 ], [ -76.903226908609525, -12.130455123542685 ], [ -76.903291075941539, -12.139493403206989 ], [ -76.921662649767967, -12.139366470745721 ], [ -76.921727487452856, -12.148404646899875 ], [ -76.949285386678, -12.148211817638316 ], [ -76.949351205373262, -12.157249839868939 ], [ -76.95853737649135, -12.157184904547314 ], [ -76.958669791982217, -12.175260830858518 ], [ -76.977043215414469, -12.17512984555265 ], [ -76.976842812035144, -12.148016247005144 ] ] ] } },
{ "type": "Feature", "properties": { "cine_id_all": "X041", "brand": "MovieTime", "name": "MovieTime Chorrillos", "distrito": "Chorrillos", "n_cells": 37, "pob_wp": 221539.88433837891, "dur_min_avg": 7.3414864864864864, "dur_p50": 6.3666666666666663, "dur_p90": 13.271, "area_km2": 37.000000000000064 }, "geometry": { "type": "MultiPolygon", "coordinates": [ [ [ [ -76.986633962607797, -12.22929062029084 ], [ -77.005010796858869, -12.229157194207115 ], [ -77.004942686771557, -12.220119523915727 ], [ -77.023318680934381, -12.219984973723525 ], [ -77.023250002332517, -12.210947399605764 ], [ -77.041625154990456, -12.210811727233096 ], [ -77.041486717976824, -12.192736766890738 ], [ -77.032299791054299, -12.192804652526075 ], [ -77.032230965907573, -12.183767111096204 ], [ -76.995483953912427, -12.184035391769516 ], [ -76.995551536587683, -12.193073138102919 ], [ -76.986364337516065, -12.193139495213609 ], [ -76.986431663237695, -12.202177285911379 ], [ -76.977244099583302, -12.20224338770447 ], [ -76.977378289583655, -12.220319051082599 ], [ -76.968190049927955, -12.220384947272196 ], [ -76.968256913471564, -12.229422819720211 ], [ -76.959068308941553, -12.229488459418613 ], [ -76.959134913804633, -12.238526375536241 ], [ -76.940756922223599, -12.238656834076775 ], [ -76.940822955738881, -12.247694843128123 ], [ -76.968390800243185, -12.247498545743714 ], [ -76.968323830240408, -12.238460685878854 ], [ -76.986701503162081, -12.238328385831339 ], [ -76.986633962607797, -12.22929062029084 ] ] ], [ [ [ -76.895069226749172, -12.275130583317045 ], [ -76.91345024015888, -12.275002806686024 ], [ -76.913384987921461, -12.2659646693987 ], [ -76.89500460041981, -12.266092349120854 ], [ -76.895069226749172, -12.275130583317045 ] ] ], [ [ [ -76.913384987921461, -12.2659646693987 ], [ -76.931765168340164, -12.265835759023373 ], [ -76.931699342495804, -12.256797713284879 ], [ -76.913319787454768, -12.256926525823765 ], [ -76.913384987921461, -12.2659646693987 ] ] ], [ [ [ -76.940889041752442, -12.256732845891035 ], [ -76.940822955738881, -12.247694843128123 ], [ -76.931633568910115, -12.247759661256767 ], [ -76.931699342495804, -12.256797713284879 ], [ -76.940889041752442, -12.256732845891035 ] ] ] ] } },
{ "type": "Feature", "properties": { "cine_id_all": "X042", "brand": "MovieTime", "name": "MovieTime VES Unicachi", "distrito": "Villa El Salvador", "n_cells": 6, "pob_wp": 71230.227783203125, "dur_min_avg": 6.05, "dur_p50": 5.583333333333333, "dur_p90": 8.1558333333333337, "area_km2": 6.0000000000019202 }, "geometry": { "type": "MultiPolygon", "coordinates": [ [ [ [ -76.949945944383003, -12.238591758271637 ], [ -76.959134913804633, -12.238526375536241 ], [ -76.959068308941553, -12.229488459418613 ], [ -76.949879651434358, -12.229553792428421 ], [ -76.949945944383003, -12.238591758271637 ] ] ], [ [ [ -76.968256913471564, -12.229422819720211 ], [ -76.968190049927955, -12.220384947272196 ], [ -76.977378289583655, -12.220319051082599 ], [ -76.977244099583302, -12.20224338770447 ], [ -76.958868812181009, -12.20237467336664 ], [ -76.959068308941553, -12.229488459418613 ], [ -76.968256913471564, -12.229422819720211 ] ] ] ] } },
{ "type": "Feature", "properties": { "cine_id_all": "X043", "brand": "MovieTime", "name": "MovieTime VES1", "distrito": "Villa El Salvador", "n_cells": 10, "pob_wp": 207537.177734375, "dur_min_avg": 3.5766666666666667, "dur_p50": 3.8733333333333335, "dur_p90": 5.227666666666666, "area_km2": 10.000000000001863 }, "geometry": { "type": "Polygon", "coordinates": [ [ [ -76.958868812181009, -12.20237467336664 ], [ -76.977244099583302, -12.20224338770447 ], [ -76.977043215414469, -12.17512984555265 ], [ -76.949483000754, -12.175325865582808 ], [ -76.949747223715931, -12.21147784189777 ], [ -76.958935258138382, -12.211412608329409 ], [ -76.958868812181009, -12.20237467336664 ] ] ] } },
{ "type": "Feature", "properties": { "cine_id_all": "X044", "brand": "MovieTime", "name": "MovieTime Premium Basadre", "distrito": "San Isidro", "n_cells": 2, "pob_wp": 9313.52099609375, "dur_min_avg": 2.6725, "dur_p50": 2.6725, "dur_p90": 2.7198333333333333, "area_km2": 1.9999999999998546 }, "geometry": { "type": "Polygon", "coordinates": [ [ [ -77.049981618900688, -12.102293916948733 ], [ -77.049912726288227, -12.093256416597654 ], [ -77.031545733380142, -12.093391351552219 ], [ -77.031614009762123, -12.102428955687506 ], [ -77.049981618900688, -12.102293916948733 ] ] ] } },
{ "type": "Feature", "properties": { "cine_id_all": "X045", "brand": "UVK", "name": "UVK El Agustino", "distrito": "El Agustino", "n_cells": 12, "pob_wp": 172732.17578125, "dur_min_avg": 5.1036111111111104, "dur_p50": 4.270833333333333, "dur_p90": 8.5618333333333343, "area_km2": 12.000000000000785 }, "geometry": { "type": "Polygon", "coordinates": [ [ [ -77.012841035398765, -12.04833644557597 ], [ -77.012706421178578, -12.030260950647298 ], [ -76.966798195233139, -12.03058818082579 ], [ -76.966863943040735, -12.039626184332104 ], [ -76.985228007147583, -12.039496096376523 ], [ -76.985360889169542, -12.057571883825053 ], [ -77.022090827261664, -12.057307679254498 ], [ -77.022023131821484, -12.048269992406844 ], [ -77.012841035398765, -12.04833644557597 ] ] ] } },
{ "type": "Feature", "properties": { "cine_id_all": "X046", "brand": "Cinestar", "name": "Cinestar Aviación", "distrito": "San Borja", "n_cells": 5, "pob_wp": 95422.634765625, "dur_min_avg": 3.573, "dur_p50": 3.225, "dur_p90": 5.280666666666666, "area_km2": 4.9999999999996216 }, "geometry": { "type": "Polygon", "coordinates": [ [ [ -77.013043363919152, -12.075449641327408 ], [ -76.994677165486749, -12.075581947413488 ], [ -76.994610283159787, -12.066544119821618 ], [ -76.98542741051034, -12.066609768233482 ], [ -76.985493985415872, -12.075647646425459 ], [ -76.976310751771621, -12.075713042738975 ], [ -76.976377072573072, -12.084750965080323 ], [ -77.013110915378292, -12.084487360789089 ], [ -77.013043363919152, -12.075449641327408 ] ] ] } },
{ "type": "Feature", "properties": { "cine_id_all": "X047", "brand": "Cinestar", "name": "Cinestar Benavides", "distrito": "Santiago de Surco", "n_cells": 5, "pob_wp": 66103.92333984375, "dur_min_avg": 4.4566666666666661, "dur_p50": 4.6916666666666664, "dur_p90": 7.1346666666666669, "area_km2": 5.0000000000006404 }, "geometry": { "type": "MultiPolygon", "coordinates": [ [ [ [ -76.995079589987157, -12.12980878210327 ], [ -76.985894560192165, -12.129874784784354 ], [ -76.985827663716748, -12.120836943983893 ], [ -76.967458061336529, -12.120967936505739 ], [ -76.967524339973849, -12.130005877845973 ], [ -76.976709476771887, -12.129940483368024 ], [ -76.976776117710315, -12.138978368310852 ], [ -76.995146849241522, -12.138846566033395 ], [ -76.995079589987157, -12.12980878210327 ] ] ], [ [ [ -76.958273180340328, -12.121032976949648 ], [ -76.967458061336529, -12.120967936505739 ], [ -76.967391835820749, -12.111929988929036 ], [ -76.958207263508953, -12.111994979456098 ], [ -76.958273180340328, -12.121032976949648 ] ] ] ] } },
{ "type": "Feature", "properties": { "cine_id_all": "X049", "brand": "Cinestar", "name": "Cinestar Breña", "distrito": "Breña", "n_cells": 13, "pob_wp": 207107.1376953125, "dur_min_avg": 5.9841025641025665, "dur_p50": 6.4833333333333334, "dur_p90": 9.0906666666666673, "area_km2": 12.999999999999387 }, "geometry": { "type": "Polygon", "coordinates": [ [ [ -77.06807130635174, -12.066008044776916 ], [ -77.068002020758897, -12.056970624130706 ], [ -77.08636610942041, -12.056833686926927 ], [ -77.086296265922613, -12.047796365653905 ], [ -77.095477919134296, -12.04772749699611 ], [ -77.095407825320564, -12.038690222632534 ], [ -77.077045075804534, -12.038827551967845 ], [ -77.07697565117482, -12.029790165293726 ], [ -77.058613290333241, -12.029926182766713 ], [ -77.058682102247417, -12.038963674576324 ], [ -77.049500532071235, -12.039031283336502 ], [ -77.049569092883175, -12.048068821138148 ], [ -77.04038716081088, -12.048136180179485 ], [ -77.040455470026274, -12.057173763742405 ], [ -77.058819892632883, -12.057038639502387 ], [ -77.058888871122008, -12.066076112609954 ], [ -77.06807130635174, -12.066008044776916 ] ] ] } },
{ "type": "Feature", "properties": { "cine_id_all": "X050", "brand": "UVK", "name": "UVK San Martín", "distrito": "Lima", "n_cells": 16, "pob_wp": 226621.7685546875, "dur_min_avg": 6.633125, "dur_p50": 6.6566666666666663, "dur_p90": 9.6275, "area_km2": 16.000000000003727 }, "geometry": { "type": "Polygon", "coordinates": [ [ [ -77.04038716081088, -12.048136180179485 ], [ -77.049569092883175, -12.048068821138148 ], [ -77.049295181213509, -12.011918632592003 ], [ -77.040114474167311, -12.011985783698968 ], [ -77.040046440016752, -12.002948169043824 ], [ -77.021685472489679, -12.003081464946836 ], [ -77.021955490917591, -12.039232299338495 ], [ -77.01277370114849, -12.039298701218121 ], [ -77.012841035398765, -12.04833644557597 ], [ -77.031205173707917, -12.048203237271872 ], [ -77.031273176040116, -12.057240872593683 ], [ -77.040455470026274, -12.057173763742405 ], [ -77.04038716081088, -12.048136180179485 ] ] ] } },
{ "type": "Feature", "properties": { "cine_id_all": "X051", "brand": "Cinestar", "name": "Cinestar Comas", "distrito": "Comas", "n_cells": 6, "pob_wp": 121110.15234375, "dur_min_avg": 2.9191666666666669, "dur_p50": 3.3616666666666664, "dur_p90": 3.7591666666666668, "area_km2": 6.0000000000017755 }, "geometry": { "type": "Polygon", "coordinates": [ [ [ -77.067312231313224, -11.966596075101851 ], [ -77.067106380873895, -11.939483589342572 ], [ -77.057928222615971, -11.939550923022308 ], [ -77.057860020791395, -11.930513362980879 ], [ -77.048682110770557, -11.93058034534225 ], [ -77.048885970801777, -11.957693163474872 ], [ -77.058064792529038, -11.957626024558758 ], [ -77.058133160635236, -11.966663566044881 ], [ -77.067312231313224, -11.966596075101851 ] ] ] } },
{ "type": "Feature", "properties": { "cine_id_all": "X052", "brand": "Cinestar", "name": "Cinestar Chorrillos SP", "distrito": "Chorrillos", "n_cells": 6, "pob_wp": 73128.33935546875, "dur_min_avg": 2.4763888888888892, "dur_p50": 2.3258333333333336, "dur_p90": 3.6483333333333334, "area_km2": 5.9999999999989519 }, "geometry": { "type": "Polygon", "coordinates": [ [ [ -77.013857568751945, -12.183901862376207 ], [ -77.013653283456307, -12.156788891646555 ], [ -76.99528152940384, -12.156922115123997 ], [ -76.995483953912427, -12.184035391769516 ], [ -77.013857568751945, -12.183901862376207 ] ] ] } },
{ "type": "Feature", "properties": { "cine_id_all": "X053", "brand": "Cinestar", "name": "Cinestar Arenales", "distrito": "Lince", "n_cells": 1, "pob_wp": 12385.08203125, "dur_min_avg": 1.2466666666666666, "dur_p50": 1.2466666666666666, "dur_p90": 1.2466666666666666, "area_km2": 0.99999999999930156 }, "geometry": { "type": "Polygon", "coordinates": [ [ [ -77.031545733380142, -12.093391351552219 ], [ -77.031477511825798, -12.084353741170757 ], [ -77.040660727945024, -12.084286477022836 ], [ -77.040729257371694, -12.093324035632081 ], [ -77.031545733380142, -12.093391351552219 ] ] ] } },
{ "type": "Feature", "properties": { "cine_id_all": "X054", "brand": "Cinestar", "name": "Cinestar Chosica", "distrito": "Lurigancho-Chosica", "n_cells": 144, "pob_wp": 54791.775517463684, "dur_min_avg": 18.576493055555556, "dur_p50": 15.770833333333334, "dur_p90": 33.395, "area_km2": 144.00000000000026 }, "geometry": { "type": "Polygon", "coordinates": [ [ [ -76.773732763900384, -11.995724142952794 ], [ -76.77349676545316, -11.959567975140615 ], [ -76.764316347641866, -11.959625822364893 ], [ -76.764140763022979, -11.932508497619963 ], [ -76.754961210168872, -11.932565910798333 ], [ -76.754671035182454, -11.88737002447213 ], [ -76.745492950984257, -11.887426916057644 ], [ -76.745435360146985, -11.878387676139237 ], [ -76.736257531418516, -11.878444225475054 ], [ -76.73620028976066, -11.869404935269342 ], [ -76.717845096799266, -11.869517052811281 ], [ -76.717901734024949, -11.878556430801648 ], [ -76.708723765853165, -11.878612086778267 ], [ -76.708780146839501, -11.887651502277082 ], [ -76.690423467809893, -11.887762007214162 ], [ -76.690479289328394, -11.896801503071979 ], [ -76.681300578695499, -11.89685635132224 ], [ -76.681356142733733, -11.905895883994493 ], [ -76.672177083842499, -11.905950476576463 ], [ -76.672232389906867, -11.914990045831191 ], [ -76.663052982742926, -11.915044382274603 ], [ -76.663163122726431, -11.933123587442422 ], [ -76.653983063524265, -11.933177709438006 ], [ -76.654092774452465, -11.951256974748201 ], [ -76.644912062442742, -11.951310881367466 ], [ -76.645076048845681, -11.978429859740817 ], [ -76.67262079358828, -11.978266861224801 ], [ -76.672676460090585, -11.987306382030429 ], [ -76.700221714749375, -11.987140551355745 ], [ -76.700278342715905, -11.996179937447527 ], [ -76.709460308385445, -11.996124015992216 ], [ -76.709574313464287, -12.014202683206932 ], [ -76.746304159211618, -12.013975637689732 ], [ -76.746245909945955, -12.004936482867025 ], [ -76.764609939491166, -12.004821241738322 ], [ -76.764551126004037, -11.995782170070813 ], [ -76.773732763900384, -11.995724142952794 ] ] ] } },
{ "type": "Feature", "properties": { "cine_id_all": "X055", "brand": "UVK", "name": "UVK Platino Panorama", "distrito": "Santiago de Surco", "n_cells": 8, "pob_wp": 104247.3232421875, "dur_min_avg": 4.2725, "dur_p50": 4.2583333333333337, "dur_p90": 5.777, "area_km2": 8.0 }, "geometry": { "type": "Polygon", "coordinates": [ [ [ -77.013517365246258, -12.138713546466814 ], [ -77.022702541807192, -12.138646580221078 ], [ -77.022634355144476, -12.129608949559046 ], [ -76.995079589987157, -12.12980878210327 ], [ -76.995214162377493, -12.147884343708443 ], [ -76.986028514027666, -12.147950447638724 ], [ -76.986095571405116, -12.156988269683792 ], [ -77.013653283456307, -12.156788891646555 ], [ -77.013517365246258, -12.138713546466814 ] ] ] } },
{ "type": "Feature", "properties": { "cine_id_all": "X056", "brand": "Cinerama", "name": "Cinerama Pacífico", "distrito": "Miraflores", "n_cells": 6, "pob_wp": 34359.007080078125, "dur_min_avg": 3.9772222222222222, "dur_p50": 3.8708333333333331, "dur_p90": 5.5325, "area_km2": 5.9999999999997371 }, "geometry": { "type": "MultiPolygon", "coordinates": [ [ [ [ -77.041072730808239, -12.138511734846997 ], [ -77.041003925917465, -12.129474207529638 ], [ -77.031819167962539, -12.12954173057202 ], [ -77.031887663743703, -12.138579309678308 ], [ -77.041072730808239, -12.138511734846997 ] ] ], [ [ [ -77.040935176137353, -12.120436673945033 ], [ -77.041003925917465, -12.129474207529638 ], [ -77.050188628761774, -12.12940638044042 ], [ -77.05011957012853, -12.120368898874554 ], [ -77.040935176137353, -12.120436673945033 ] ] ], [ [ [ -77.031819167962539, -12.12954173057202 ], [ -77.031682340980609, -12.111466553572193 ], [ -77.022498145656925, -12.111533669457719 ], [ -77.022566223097343, -12.120571312636452 ], [ -77.013381664543502, -12.120638176240387 ], [ -77.013449487710872, -12.129675864482225 ], [ -77.031819167962539, -12.12954173057202 ] ] ], [ [ [ -77.050050566844476, -12.11133141104251 ], [ -77.05011957012853, -12.120368898874554 ], [ -77.059303908770488, -12.120300819998954 ], [ -77.059234596889738, -12.111263384415423 ], [ -77.050050566844476, -12.11133141104251 ] ] ] ] } }
]
}
