{
"type": "FeatureCollection",
"name": "catchments",
"crs": { "type": "name", "properties": { "name": "urn:ogc:def:crs:OGC:1.3:CRS84" } },
"features": [
{ "type": "Feature", "properties": { "cine_id": "CP01", "cell_id": "C00000", "name": "Cineplanet", "distrito": "Ventanilla", "n_cells": 449, "pob_inei": 677327.00717125461, "pob_worldpop": 787737.02407550812, "dur_min_avg": 28.960861172976987, "dur_p50_min": 22.618333333333332, "dur_p90_min": 91.953333333333333, "dist_avg_km": 19.796075055679289, "area_km2": 449.0000000000033, "dens_worldpop_km2": 1754.4254433752835, "dens_inei_km2": 1508.5234012722708 }, "geometry": { "type": "Polygon", "coordinates": [ [ [ -77.185623546170945, -11.83917583678287 ], [ -77.194797577519395, -11.839104928309922 ], [ -77.194365827015943, -11.784883929890929 ], [ -77.185193596831866, -11.784954504608891 ], [ -77.18497941491016, -11.757843755405785 ], [ -77.17580802330292, -11.757913868930828 ], [ -77.175524461901077, -11.721765895943092 ], [ -77.184694660563125, -11.721696003880131 ], [ -77.184552635316152, -11.703622091374829 ], [ -77.19372218034971, -11.703552017054028 ], [ -77.193437646327723, -11.667404341047181 ], [ -77.165932396734647, -11.667613020958576 ], [ -77.165862298796, -11.658575920694018 ], [ -77.138357414809136, -11.658781808180912 ], [ -77.138288262756262, -11.649744537926303 ], [ -77.119951978142865, -11.649880228905344 ], [ -77.119883474853822, -11.640842844479515 ], [ -77.110715542859197, -11.640910198817918 ], [ -77.110579297524396, -11.622835304404619 ], [ -77.101411899650131, -11.622902260400135 ], [ -77.101344156859597, -11.613864750663881 ], [ -77.092176997647542, -11.613931362475922 ], [ -77.092109605946078, -11.604893793477787 ], [ -77.08294268541367, -11.604960061565825 ], [ -77.082875644310789, -11.595922433549125 ], [ -77.073708962475408, -11.595988358372633 ], [ -77.073642271480665, -11.586950671580656 ], [ -77.064475828359562, -11.587016253599124 ], [ -77.064409486982612, -11.577978508275093 ], [ -77.055243282592983, -11.578043747948028 ], [ -77.05517729034348, -11.569005944335141 ], [ -77.04601132470242, -11.569070842122054 ], [ -77.04614277638801, -11.587146547451058 ], [ -77.055309329913626, -11.587081545558666 ], [ -77.055507802387794, -11.614194902332397 ], [ -77.046340365196357, -11.614260060407087 ], [ -77.046406337841148, -11.62329788603124 ], [ -77.055574070078393, -11.623232675889351 ], [ -77.055773203867687, -11.650345960394798 ], [ -77.06494176757495, -11.65028030233856 ], [ -77.065075391401237, -11.66835569053147 ], [ -77.074244491989276, -11.668289635697127 ], [ -77.074311683502714, -11.677327268169176 ], [ -77.065142286413504, -11.677393375554898 ], [ -77.065477592812243, -11.722581709763094 ], [ -77.056306654078981, -11.722647786410221 ], [ -77.056440568544517, -11.74072318226629 ], [ -77.047268978372188, -11.740789069575877 ], [ -77.047335719955399, -11.74982681049474 ], [ -77.038163776310412, -11.74989245565817 ], [ -77.038363434073176, -11.777005797553484 ], [ -77.029190538706288, -11.777071303411756 ], [ -77.029589532615461, -11.831298132556777 ], [ -77.038764228583773, -11.831232316687322 ], [ -77.038831219489921, -11.840270048479951 ], [ -77.048006161590948, -11.840203884337424 ], [ -77.048073508525647, -11.849241558089078 ], [ -77.057248696742008, -11.849175045213173 ], [ -77.057181048616599, -11.840137423610077 ], [ -77.075530656456735, -11.840003612434492 ], [ -77.075667213240777, -11.8580786395076 ], [ -77.084842536137714, -11.858011183379718 ], [ -77.084979919809157, -11.876086080154103 ], [ -77.075803993352025, -11.876153641991854 ], [ -77.075872467177476, -11.885191134002019 ], [ -77.094224868286275, -11.885055606892077 ], [ -77.094501744351504, -11.921205089404628 ], [ -77.103679071494085, -11.921136665951094 ], [ -77.103818454788396, -11.939211263426335 ], [ -77.09464052067068, -11.939279793567847 ], [ -77.094709993433327, -11.948317136360574 ], [ -77.122244537130257, -11.94811048791731 ], [ -77.122526645994668, -11.984259153973246 ], [ -77.140885158639804, -11.984119458403278 ], [ -77.140529622276091, -11.938934152008096 ], [ -77.149707270669069, -11.938864126484185 ], [ -77.14942266633895, -11.902715987557453 ], [ -77.158599044101848, -11.902645881931972 ], [ -77.158385291318908, -11.87553487683053 ], [ -77.167560704043893, -11.875464637967736 ], [ -77.167489267440189, -11.866427678838495 ], [ -77.176664320039578, -11.866357197755633 ], [ -77.176521018847964, -11.848283371300704 ], [ -77.185695410029439, -11.848212703877435 ], [ -77.185623546170945, -11.83917583678287 ] ] ] } },
{ "type": "Feature", "properties": { "cine_id": "CP02", "cell_id": "C00545", "name": "Cineplanet", "distrito": "Comas", "n_cells": 432, "pob_inei": 641102.1784276308, "pob_worldpop": 567199.1385307312, "dur_min_avg": 36.366226851851849, "dur_p50_min": 38.143333333333331, "dur_p90_min": 55.771666666666668, "dist_avg_km": 25.660395370370367, "area_km2": 431.99999999999744, "dens_worldpop_km2": 1312.9609688211449, "dens_inei_km2": 1484.0328204343393 }, "geometry": { "type": "MultiPolygon", "coordinates": [ [ [ [ -77.058064792529038, -11.957626024558758 ], [ -77.057791874376377, -11.921475796763252 ], [ -77.048614267764322, -11.921542726946342 ], [ -77.04847874720538, -11.903467471653665 ], [ -77.039301691534575, -11.903533999276167 ], [ -77.03909973149247, -11.876420914354892 ], [ -77.029923528251885, -11.876486988656515 ], [ -77.029856619924345, -11.867449229698053 ], [ -77.039032521217777, -11.867383207089393 ], [ -77.0388982652252, -11.849307774147476 ], [ -77.048073508525647, -11.849241558089078 ], [ -77.048006161590948, -11.840203884337424 ], [ -77.038831219489921, -11.840270048479951 ], [ -77.038764228583773, -11.831232316687322 ], [ -77.029589532615461, -11.831298132556777 ], [ -77.029190538706288, -11.777071303411756 ], [ -77.038363434073176, -11.777005797553484 ], [ -77.038163776310412, -11.74989245565817 ], [ -77.047335719955399, -11.74982681049474 ], [ -77.047268978372188, -11.740789069575877 ], [ -77.056440568544517, -11.74072318226629 ], [ -77.056306654078981, -11.722647786410221 ], [ -77.065477592812243, -11.722581709763094 ], [ -77.065142286413504, -11.677393375554898 ], [ -77.074311683502714, -11.677327268169176 ], [ -77.074244491989276, -11.668289635697127 ], [ -77.065075391401237, -11.66835569053147 ], [ -77.06494176757495, -11.65028030233856 ], [ -77.055773203867687, -11.650345960394798 ], [ -77.055574070078393, -11.623232675889351 ], [ -77.046406337841148, -11.62329788603124 ], [ -77.046340365196357, -11.614260060407087 ], [ -77.055507802387794, -11.614194902332397 ], [ -77.055309329913626, -11.587081545558666 ], [ -77.04614277638801, -11.587146547451058 ], [ -77.046077023132213, -11.578108697786075 ], [ -77.03691070884544, -11.578173357781054 ], [ -77.036976168027891, -11.587211259268107 ], [ -77.018642787784998, -11.587339812643613 ], [ -77.01870771289434, -11.596377811083991 ], [ -77.009540647158147, -11.596441703754618 ], [ -77.009605331785721, -11.605479747328095 ], [ -77.000437917590091, -11.605543400557865 ], [ -77.000566858533986, -11.623619571509014 ], [ -77.009734862660352, -11.623555816471434 ], [ -77.009799708924149, -11.632593842032383 ], [ -77.01896795448846, -11.632529744816722 ], [ -77.019098400097235, -11.650605675603416 ], [ -77.028267182890133, -11.650541184370109 ], [ -77.028398437481286, -11.66861698828713 ], [ -77.019229062337004, -11.668681582289457 ], [ -77.019294474714599, -11.677719526583603 ], [ -76.973445308439068, -11.678038367028929 ], [ -76.973765750587916, -11.723229265368344 ], [ -76.964594270829267, -11.72329240611815 ], [ -76.964658220146688, -11.732330617682168 ], [ -76.946314506461562, -11.73245611760033 ], [ -76.946377911884312, -11.741494422453112 ], [ -76.937205678178998, -11.741556780911017 ], [ -76.937268837292081, -11.750595129041018 ], [ -76.928096252964153, -11.750657242465071 ], [ -76.928033392444277, -11.741618845245959 ], [ -76.918861054926055, -11.74168061545012 ], [ -76.918798544545027, -11.732642163339229 ], [ -76.909626453852724, -11.732703590783991 ], [ -76.909564293118706, -11.723665084024436 ], [ -76.882048608724887, -11.723847458387954 ], [ -76.882109875058148, -11.732886109605232 ], [ -76.845420396838833, -11.73312535288445 ], [ -76.845480520089041, -11.742164187448322 ], [ -76.817961994859374, -11.742340672863079 ], [ -76.818021271637903, -11.751379641005435 ], [ -76.799674746183356, -11.751495918748409 ], [ -76.799733473909797, -11.760534972785923 ], [ -76.808907059883296, -11.760476935310619 ], [ -76.80896613516029, -11.76951593750484 ], [ -76.827313759426659, -11.769398886104492 ], [ -76.827433254027824, -11.787476687685549 ], [ -76.83660759171643, -11.787417626532564 ], [ -76.83666771259881, -11.796456471739479 ], [ -76.845842300828195, -11.796397068438644 ], [ -76.845902771230513, -11.805435860830494 ], [ -76.910125586609539, -11.805011427487353 ], [ -76.91025088311828, -11.823088326119862 ], [ -76.919425968517444, -11.823026412329741 ], [ -76.91955207237919, -11.841103189368535 ], [ -76.928727708047063, -11.841040881574413 ], [ -76.928918155729136, -11.86815585481239 ], [ -76.938094644165872, -11.868093102949455 ], [ -76.938030807924363, -11.859054833760371 ], [ -76.947206942431109, -11.858991833878633 ], [ -76.947142856786641, -11.849953607949571 ], [ -76.956318637379951, -11.849890360519437 ], [ -76.956383024555237, -11.858928536856792 ], [ -76.965559054050345, -11.858864942702835 ], [ -76.965623795623586, -11.867903063107402 ], [ -76.974800074003781, -11.86783912176894 ], [ -76.974930320070541, -11.885915244105142 ], [ -76.984107149564039, -11.885850904821957 ], [ -76.98417265480542, -11.894888906502413 ], [ -76.993349733388328, -11.894824218877391 ], [ -76.993415594761458, -11.903862163886734 ], [ -76.984238213448947, -11.9039269020505 ], [ -76.984303825503076, -11.912964891461794 ], [ -77.002659140414735, -11.912835015553762 ], [ -77.002791738156319, -11.930910773295468 ], [ -77.021148050717358, -11.930779498918367 ], [ -77.021282079449307, -11.948855027492401 ], [ -77.030460761828948, -11.948788838924026 ], [ -77.030595616919058, -11.966864239827945 ], [ -77.048954034512349, -11.966730757152554 ], [ -77.048885970801777, -11.957693163474872 ], [ -77.058064792529038, -11.957626024558758 ] ] ], [ [ [ -76.984369490976334, -11.922002874731856 ], [ -76.984303825503076, -11.912964891461794 ], [ -76.975126087795275, -11.91302938166274 ], [ -76.975191450037201, -11.922067415245104 ], [ -76.984369490976334, -11.922002874731856 ] ] ] ] } },
{ "type": "Feature", "properties": { "cine_id": "CP03", "cell_id": "C00246", "name": "Cineplanet Pro", "distrito": "Comas", "n_cells": 74, "pob_inei": 714032.98276404396, "pob_worldpop": 949897.359375, "dur_min_avg": 9.02481981981982, "dur_p50_min": 8.4241666666666681, "dur_p90_min": 14.765333333333334, "dist_avg_km": 6.1401905405405417, "area_km2": 73.999999999994714, "dens_worldpop_km2": 12836.450802365782, "dens_inei_km2": 9649.0943616769582 }, "geometry": { "type": "Polygon", "coordinates": [ [ [ -77.122456033015482, -11.975221996788054 ], [ -77.122244537130257, -11.94811048791731 ], [ -77.094709993433327, -11.948317136360574 ], [ -77.09464052067068, -11.939279793567847 ], [ -77.103818454788396, -11.939211263426335 ], [ -77.103679071494085, -11.921136665951094 ], [ -77.094501744351504, -11.921205089404628 ], [ -77.094224868286275, -11.885055606892077 ], [ -77.075872467177476, -11.885191134002019 ], [ -77.075803993352025, -11.876153641991854 ], [ -77.084979919809157, -11.876086080154103 ], [ -77.084842536137714, -11.858011183379718 ], [ -77.075667213240777, -11.8580786395076 ], [ -77.075530656456735, -11.840003612434492 ], [ -77.057181048616599, -11.840137423610077 ], [ -77.057248696742008, -11.849175045213173 ], [ -77.0388982652252, -11.849307774147476 ], [ -77.039032521217777, -11.867383207089393 ], [ -77.029856619924345, -11.867449229698053 ], [ -77.029923528251885, -11.876486988656515 ], [ -77.03909973149247, -11.876420914354892 ], [ -77.039301691534575, -11.903533999276167 ], [ -77.04847874720538, -11.903467471653665 ], [ -77.048614267764322, -11.921542726946342 ], [ -77.057791874376377, -11.921475796763252 ], [ -77.058064792529038, -11.957626024558758 ], [ -77.067243558820252, -11.957558586040165 ], [ -77.067312231313224, -11.966596075101851 ], [ -77.076491246299483, -11.96652828433198 ], [ -77.076560279108818, -11.975565714535664 ], [ -77.094918750241533, -11.975429127529699 ], [ -77.094849108209743, -11.96639180334596 ], [ -77.104027954640159, -11.966323113147036 ], [ -77.104097901269668, -11.975360383971504 ], [ -77.122456033015482, -11.975221996788054 ] ] ] } },
{ "type": "Feature", "properties": { "cine_id": "CP04", "cell_id": "C00756", "name": "Cineplanet Canto Grande", "distrito": "San Juan de Lurigancho", "n_cells": 126, "pob_inei": 888598.30228688812, "pob_worldpop": 854095.78642272949, "dur_min_avg": 13.448359788359792, "dur_p50_min": 12.749166666666667, "dur_p90_min": 20.896666666666665, "dist_avg_km": 8.6620333333333317, "area_km2": 125.99999999999896, "dens_worldpop_km2": 6778.5379874820355, "dens_inei_km2": 7052.367478467424 }, "geometry": { "type": "Polygon", "coordinates": [ [ [ -77.030730690827056, -11.984939615995623 ], [ -77.030460761828948, -11.948788838924026 ], [ -77.021282079449307, -11.948855027492401 ], [ -77.021148050717358, -11.930779498918367 ], [ -77.002791738156319, -11.930910773295468 ], [ -77.002659140414735, -11.912835015553762 ], [ -76.984303825503076, -11.912964891461794 ], [ -76.984238213448947, -11.9039269020505 ], [ -76.993415594761458, -11.903862163886734 ], [ -76.993349733388328, -11.894824218877391 ], [ -76.98417265480542, -11.894888906502413 ], [ -76.984107149564039, -11.885850904821957 ], [ -76.974930320070541, -11.885915244105142 ], [ -76.974800074003781, -11.86783912176894 ], [ -76.965623795623586, -11.867903063107402 ], [ -76.965559054050345, -11.858864942702835 ], [ -76.956383024555237, -11.858928536856792 ], [ -76.956318637379951, -11.849890360519437 ], [ -76.947142856786641, -11.849953607949571 ], [ -76.947206942431109, -11.858991833878633 ], [ -76.938030807924363, -11.859054833760371 ], [ -76.938094644165872, -11.868093102949455 ], [ -76.919741615394429, -11.86821830928656 ], [ -76.91980489969157, -11.877256670404199 ], [ -76.910628005648661, -11.87731887614842 ], [ -76.910880448823562, -11.913472454257075 ], [ -76.920058553559031, -11.913410053815237 ], [ -76.920249336702483, -11.940525027137502 ], [ -76.929428300330144, -11.94046218138033 ], [ -76.929492302156589, -11.949500444637779 ], [ -76.938671517833725, -11.949437250471554 ], [ -76.938735875892803, -11.958475458428641 ], [ -76.947915343602759, -11.958411915392324 ], [ -76.948109645415599, -11.985526354162022 ], [ -76.966470251564473, -11.985398070497736 ], [ -76.966535734277315, -11.994436104921483 ], [ -77.021618104135868, -11.994043740841528 ], [ -77.021685472489679, -12.003081464946836 ], [ -77.030865983622974, -12.003014967391536 ], [ -77.030798309859648, -11.99397729479227 ], [ -77.03997846085268, -11.993910548183552 ], [ -77.039910536666298, -11.984872921122593 ], [ -77.030730690827056, -11.984939615995623 ] ], [ [ -76.984369490976334, -11.922002874731856 ], [ -76.975191450037201, -11.922067415245104 ], [ -76.975126087795275, -11.91302938166274 ], [ -76.984303825503076, -11.912964891461794 ], [ -76.984369490976334, -11.922002874731856 ] ] ] } },
{ "type": "Feature", "properties": { "cine_id": "CP05", "cell_id": "C00147", "name": "Cineplanet", "distrito": "Independencia", "n_cells": 74, "pob_inei": 982412.87899125926, "pob_worldpop": 1336846.7115478516, "dur_min_avg": 8.5853378378378391, "dur_p50_min": 8.035, "dur_p90_min": 13.586333333333334, "dist_avg_km": 5.3261108108108113, "area_km2": 73.99999999999693, "dens_worldpop_km2": 18065.496101998742, "dens_inei_km2": 13275.849716098648 }, "geometry": { "type": "MultiPolygon", "coordinates": [ [ [ [ -77.122738828112531, -12.011370588151106 ], [ -77.141099172595361, -12.011230567473467 ], [ -77.140885158639804, -11.984119458403278 ], [ -77.122526645994668, -11.984259153973246 ], [ -77.122456033015482, -11.975221996788054 ], [ -77.104097901269668, -11.975360383971504 ], [ -77.104027954640159, -11.966323113147036 ], [ -77.094849108209743, -11.96639180334596 ], [ -77.094918750241533, -11.975429127529699 ], [ -77.076560279108818, -11.975565714535664 ], [ -77.076491246299483, -11.96652828433198 ], [ -77.067312231313224, -11.966596075101851 ], [ -77.067243558820252, -11.957558586040165 ], [ -77.048885970801777, -11.957693163474872 ], [ -77.048954034512349, -11.966730757152554 ], [ -77.030595616919058, -11.966864239827945 ], [ -77.030730690827056, -11.984939615995623 ], [ -77.039910536666298, -11.984872921122593 ], [ -77.03997846085268, -11.993910548183552 ], [ -77.030798309859648, -11.99397729479227 ], [ -77.030865983622974, -12.003014967391536 ], [ -77.040046440016752, -12.002948169043824 ], [ -77.040114474167311, -12.011985783698968 ], [ -77.049295181213509, -12.011918632592003 ], [ -77.049500532071235, -12.039031283336502 ], [ -77.104589115445435, -12.038621105463958 ], [ -77.104518771809992, -12.02958387824042 ], [ -77.11369969886627, -12.029514513032305 ], [ -77.113629105903215, -12.020477333179365 ], [ -77.122809669909159, -12.020407720402929 ], [ -77.122738828112531, -12.011370588151106 ] ] ], [ [ [ -77.122880568933084, -12.029444846410247 ], [ -77.11369969886627, -12.029514513032305 ], [ -77.113770348818775, -12.038551686639723 ], [ -77.122951525193486, -12.038481966168591 ], [ -77.122880568933084, -12.029444846410247 ] ] ] ] } },
{ "type": "Feature", "properties": { "cine_id": "CP06", "cell_id": "C01263", "name": "Cineplanet", "distrito": "Santa Clara", "n_cells": 398, "pob_inei": 627014.18437827937, "pob_worldpop": 694580.72156620026, "dur_min_avg": 24.481453098827476, "dur_p50_min": 21.195833333333333, "dur_p90_min": 44.632833333333338, "dist_avg_km": 16.267145728643214, "area_km2": 398.00000000000006, "dens_worldpop_km2": 1745.1776923773873, "dens_inei_km2": 1575.4125235635158 }, "geometry": { "type": "MultiPolygon", "coordinates": [ [ [ [ -76.911642719252043, -12.021932600309766 ], [ -76.957551001386989, -12.021614662662572 ], [ -76.957485665606725, -12.012576596894483 ], [ -76.948304419724266, -12.012640737456836 ], [ -76.94823944244115, -12.00360261586313 ], [ -76.957420382598329, -12.003538524946105 ], [ -76.95735515235333, -11.994500446821846 ], [ -76.966535734277315, -11.994436104921483 ], [ -76.966470251564473, -11.985398070497736 ], [ -76.948109645415599, -11.985526354162022 ], [ -76.947915343602759, -11.958411915392324 ], [ -76.938735875892803, -11.958475458428641 ], [ -76.938671517833725, -11.949437250471554 ], [ -76.929492302156589, -11.949500444637779 ], [ -76.929428300330144, -11.94046218138033 ], [ -76.911070321357556, -11.940587573634982 ], [ -76.911133715132166, -11.949625934508189 ], [ -76.874415925314295, -11.949873320179954 ], [ -76.87435374774158, -11.940834766870719 ], [ -76.846815786592558, -11.941017019187782 ], [ -76.846754570998598, -11.93197831788973 ], [ -76.810037809660244, -11.932216944538727 ], [ -76.809977858251969, -11.923178051248305 ], [ -76.791619791383482, -11.923295478342929 ], [ -76.791560495493457, -11.914256487424437 ], [ -76.782381692967675, -11.914314707203514 ], [ -76.782322748470023, -11.905275664789812 ], [ -76.773144201114448, -11.905333540708835 ], [ -76.77308560751564, -11.896294447043024 ], [ -76.754728975692501, -11.89640921386029 ], [ -76.754671035182454, -11.88737002447213 ], [ -76.745492950984257, -11.887426916057644 ], [ -76.745435360146985, -11.878387676139237 ], [ -76.736257531418516, -11.878444225475054 ], [ -76.73620028976066, -11.869404935269342 ], [ -76.717845096799266, -11.869517052811281 ], [ -76.717901734024949, -11.878556430801648 ], [ -76.708723765853165, -11.878612086778267 ], [ -76.708780146839501, -11.887651502277082 ], [ -76.690423467809893, -11.887762007214162 ], [ -76.690479289328394, -11.896801503071979 ], [ -76.681300578695499, -11.89685635132224 ], [ -76.681356142733733, -11.905895883994493 ], [ -76.672177083842499, -11.905950476576463 ], [ -76.672232389906867, -11.914990045831191 ], [ -76.663052982742926, -11.915044382274603 ], [ -76.663163122726431, -11.933123587442422 ], [ -76.653983063524265, -11.933177709438006 ], [ -76.654092774452465, -11.951256974748201 ], [ -76.644912062442742, -11.951310881367466 ], [ -76.645076048845681, -11.978429859740817 ], [ -76.67262079358828, -11.978266861224801 ], [ -76.672676460090585, -11.987306382030429 ], [ -76.700221714749375, -11.987140551355745 ], [ -76.700278342715905, -11.996179937447527 ], [ -76.709460308385445, -11.996124015992216 ], [ -76.709574313464287, -12.014202683206932 ], [ -76.737121767787201, -12.014032850989262 ], [ -76.737179757983654, -12.023072043987852 ], [ -76.746362455564338, -12.023014786401481 ], [ -76.746420799011617, -12.032053928997911 ], [ -76.755603755893716, -12.031996325387327 ], [ -76.755662453086472, -12.04103541733835 ], [ -76.783211958530742, -12.040860661195961 ], [ -76.78327162370671, -12.049899612034997 ], [ -76.79245500317964, -12.049840710639462 ], [ -76.792515023569806, -12.05887960987422 ], [ -76.810882251396805, -12.058760808969792 ], [ -76.810821616815346, -12.049722001363399 ], [ -76.820004850483429, -12.049662193497866 ], [ -76.820065792148725, -12.058700954940271 ], [ -76.847616118789603, -12.058519578633272 ], [ -76.847492442889362, -12.040442329370007 ], [ -76.856675171883396, -12.040381360077411 ], [ -76.856737291719014, -12.049419940695678 ], [ -76.88428609761182, -12.04923507890164 ], [ -76.884349188640599, -12.058273510667032 ], [ -76.893532329632237, -12.058211237853872 ], [ -76.893405584610562, -12.040134464205885 ], [ -76.902588060743781, -12.04007198560168 ], [ -76.902524458320329, -12.031033637774481 ], [ -76.91170657663109, -12.03097090582089 ], [ -76.911642719252043, -12.021932600309766 ] ] ], [ [ [ -76.827373482172945, -11.77843778990658 ], [ -76.827313759426659, -11.769398886104492 ], [ -76.818139971720854, -11.769457559264632 ], [ -76.818199395040651, -11.778496509372687 ], [ -76.827373482172945, -11.77843778990658 ] ] ] ] } },
{ "type": "Feature", "properties": { "cine_id": "CP07", "cell_id": "C00753", "name": "Cineplanet", "distrito": "San Juan de Lurigancho", "n_cells": 39, "pob_inei": 339771.80198728712, "pob_worldpop": 664235.46484375, "dur_min_avg": 7.9197435897435904, "dur_p50_min": 7.6633333333333331, "dur_p90_min": 12.388333333333337, "dist_avg_km": 4.0374487179487177, "area_km2": 38.999999999997996, "dens_worldpop_km2": 17031.678585738053, "dens_inei_km2": 8712.0974868539633 }, "geometry": { "type": "Polygon", "coordinates": [ [ [ -77.003524883544273, -12.030326999732551 ], [ -77.021887904541231, -12.030194600053887 ], [ -77.021820372683621, -12.02115689455745 ], [ -77.040182563313166, -12.021023392144548 ], [ -77.040046440016752, -12.002948169043824 ], [ -77.021685472489679, -12.003081464946836 ], [ -77.021618104135868, -11.994043740841528 ], [ -76.95735515235333, -11.994500446821846 ], [ -76.957420382598329, -12.003538524946105 ], [ -76.94823944244115, -12.00360261586313 ], [ -76.948304419724266, -12.012640737456836 ], [ -76.957485665606725, -12.012576596894483 ], [ -76.957551001386989, -12.021614662662572 ], [ -76.966732500461532, -12.021550171127155 ], [ -76.966863943040735, -12.039626184332104 ], [ -76.985228007147583, -12.039496096376523 ], [ -76.985294421384836, -12.04853399320459 ], [ -76.994476679933243, -12.048468445983174 ], [ -76.994543454644841, -12.057506286010037 ], [ -77.003725966316793, -12.057440385971054 ], [ -77.003524883544273, -12.030326999732551 ] ] ] } },
{ "type": "Feature", "properties": { "cine_id": "CP08", "cell_id": "C01135", "name": "Cineplanet", "distrito": "Ate", "n_cells": 38, "pob_inei": 250581.93810784776, "pob_worldpop": 640240.98233032227, "dur_min_avg": 7.9737280701754383, "dur_p50_min": 7.1008333333333331, "dur_p90_min": 11.8955, "dist_avg_km": 3.9952263157894738, "area_km2": 38.000000000000441, "dens_worldpop_km2": 16848.44690342934, "dens_inei_km2": 6594.2615291538123 }, "geometry": { "type": "MultiPolygon", "coordinates": [ [ [ [ -76.985228007147583, -12.039496096376523 ], [ -76.966863943040735, -12.039626184332104 ], [ -76.966732500461532, -12.021550171127155 ], [ -76.911642719252043, -12.021932600309766 ], [ -76.91170657663109, -12.03097090582089 ], [ -76.902524458320329, -12.031033637774481 ], [ -76.902588060743781, -12.04007198560168 ], [ -76.893405584610562, -12.040134464205885 ], [ -76.893532329632237, -12.058211237853872 ], [ -76.911898458118799, -12.058085785296536 ], [ -76.911962521759207, -12.067124066087839 ], [ -76.930329058410393, -12.066997306645048 ], [ -76.930264380294247, -12.057959123550713 ], [ -76.976178270138149, -12.057637179407818 ], [ -76.976244484296174, -12.066675114180004 ], [ -76.98542741051034, -12.066609768233482 ], [ -76.985228007147583, -12.039496096376523 ] ] ], [ [ [ -76.893595778763668, -12.067249615409557 ], [ -76.893532329632237, -12.058211237853872 ], [ -76.884349188640599, -12.058273510667032 ], [ -76.884412330505185, -12.067311936255173 ], [ -76.893595778763668, -12.067249615409557 ] ] ], [ [ [ -76.88428609761182, -12.04923507890164 ], [ -76.875103212812093, -12.049297001597747 ], [ -76.875165996813166, -12.058335481159357 ], [ -76.884349188640599, -12.058273510667032 ], [ -76.88428609761182, -12.04923507890164 ] ] ] ] } },
{ "type": "Feature", "properties": { "cine_id": "CP09", "cell_id": "C00562", "name": "Cineplanet", "distrito": "Lima", "n_cells": 20, "pob_inei": 215152.44556503987, "pob_worldpop": 298572.0927734375, "dur_min_avg": 6.896, "dur_p50_min": 7.0058333333333334, "dur_p90_min": 8.3528333333333329, "dist_avg_km": 3.344595, "area_km2": 19.999999999999883, "dens_worldpop_km2": 14928.604638671963, "dens_inei_km2": 10757.622278252056 }, "geometry": { "type": "Polygon", "coordinates": [ [ [ -77.04038716081088, -12.048136180179485 ], [ -77.067932790947168, -12.047933197242665 ], [ -77.067863616907559, -12.03889576411725 ], [ -77.049500532071235, -12.039031283336502 ], [ -77.049295181213509, -12.011918632592003 ], [ -77.040114474167311, -12.011985783698968 ], [ -77.040182563313166, -12.021023392144548 ], [ -77.021820372683621, -12.02115689455745 ], [ -77.021887904541231, -12.030194600053887 ], [ -77.003524883544273, -12.030326999732551 ], [ -77.003725966316793, -12.057440385971054 ], [ -77.040455470026274, -12.057173763742405 ], [ -77.04038716081088, -12.048136180179485 ] ] ] } },
{ "type": "Feature", "properties": { "cine_id": "CP10", "cell_id": "C00682", "name": "Cineplanet", "distrito": "Lima", "n_cells": 4, "pob_inei": 39350.415095835022, "pob_worldpop": 71520.4052734375, "dur_min_avg": 4.1195833333333338, "dur_p50_min": 4.1516666666666664, "dur_p90_min": 6.0133333333333336, "dist_avg_km": 2.074725, "area_km2": 4.0000000000001164, "dens_worldpop_km2": 17880.101318358855, "dens_inei_km2": 9837.6037739584699 }, "geometry": { "type": "Polygon", "coordinates": [ [ [ -77.049637708972938, -12.057106352709138 ], [ -77.012908423938143, -12.057374183716421 ], [ -77.012975866775363, -12.066411915635046 ], [ -77.04970638034942, -12.06614387804502 ], [ -77.049637708972938, -12.057106352709138 ] ] ] } },
{ "type": "Feature", "properties": { "cine_id": "CP11", "cell_id": "C00560", "name": "Cineplanet", "distrito": "Breña", "n_cells": 7, "pob_inei": 151393.57114538859, "pob_worldpop": 119835.76171875, "dur_min_avg": 4.2690476190476199, "dur_p50_min": 4.081666666666667, "dur_p90_min": 5.947, "dist_avg_km": 2.0387428571428572, "area_km2": 7.0000000000024434, "dens_worldpop_km2": 17119.394531244023, "dens_inei_km2": 21627.653020762249 }, "geometry": { "type": "Polygon", "coordinates": [ [ [ -77.040523834281188, -12.066211341073563 ], [ -77.040592253584478, -12.075248912168517 ], [ -77.058957905153989, -12.075113579474618 ], [ -77.058888871122008, -12.066076112609954 ], [ -77.06807130635174, -12.066008044776916 ], [ -77.067932790947168, -12.047933197242665 ], [ -77.04038716081088, -12.048136180179485 ], [ -77.040455470026274, -12.057173763742405 ], [ -77.049637708972938, -12.057106352709138 ], [ -77.04970638034942, -12.06614387804502 ], [ -77.040523834281188, -12.066211341073563 ] ] ] } },
{ "type": "Feature", "properties": { "cine_id": "CP12", "cell_id": "C00072", "name": "Cineplanet", "distrito": "San Miguel", "n_cells": 63, "pob_inei": 656459.99916781543, "pob_worldpop": 650391.86480712891, "dur_min_avg": 9.410423280423279, "dur_p50_min": 9.0233333333333334, "dur_p90_min": 16.407, "dist_avg_km": 5.8406825396825397, "area_km2": 62.999999999997669, "dens_worldpop_km2": 10323.680393764333, "dens_inei_km2": 10419.999986791106 }, "geometry": { "type": "Polygon", "coordinates": [ [ [ -77.159675655765028, -12.038200067991642 ], [ -77.150494709855337, -12.038270994961991 ], [ -77.150351017575318, -12.020197075075604 ], [ -77.141170625992189, -12.020267591342206 ], [ -77.141099172595361, -12.011230567473467 ], [ -77.122738828112531, -12.011370588151106 ], [ -77.122809669909159, -12.020407720402929 ], [ -77.113629105903215, -12.020477333179365 ], [ -77.11369969886627, -12.029514513032305 ], [ -77.104518771809992, -12.02958387824042 ], [ -77.104589115445435, -12.038621105463958 ], [ -77.067863616907559, -12.03889576411725 ], [ -77.06807130635174, -12.066008044776916 ], [ -77.058888871122008, -12.066076112609954 ], [ -77.059026994737806, -12.084151040091941 ], [ -77.068210044916697, -12.084082867326066 ], [ -77.068279497906801, -12.093120269220115 ], [ -77.077462800114134, -12.093051740894191 ], [ -77.07753261700519, -12.102089083820672 ], [ -77.086716171222889, -12.10202019947379 ], [ -77.08664604625703, -12.092982909488352 ], [ -77.105012369360168, -12.092844337471735 ], [ -77.104941685078416, -12.083807147794326 ], [ -77.12330716536492, -12.083667471069472 ], [ -77.123235922783991, -12.074630382622953 ], [ -77.159964963795844, -12.074347613403539 ], [ -77.159675655765028, -12.038200067991642 ] ], [ [ -77.122880568933084, -12.029444846410247 ], [ -77.122951525193486, -12.038481966168591 ], [ -77.113770348818775, -12.038551686639723 ], [ -77.11369969886627, -12.029514513032305 ], [ -77.122880568933084, -12.029444846410247 ] ] ] } },
{ "type": "Feature", "properties": { "cine_id": "CP13", "cell_id": "C01255", "name": "Cineplanet", "distrito": "La Molina", "n_cells": 349, "pob_inei": 235175.25404628451, "pob_worldpop": 369241.03171157837, "dur_min_avg": 32.315463228271248, "dur_p50_min": 34.76, "dur_p90_min": 48.00366666666666, "dist_avg_km": 21.309817191977078, "area_km2": 349.0000000000008, "dens_worldpop_km2": 1057.9972255346061, "dens_inei_km2": 673.85459612115756 }, "geometry": { "type": "Polygon", "coordinates": [ [ [ -76.875733330282586, -12.139681518849203 ], [ -76.884919296494559, -12.139619118052359 ], [ -76.884855747648217, -12.13058074204028 ], [ -76.894041353703457, -12.130518084880816 ], [ -76.893977546759302, -12.12147975071051 ], [ -76.921533130091291, -12.121290099753944 ], [ -76.921468448082678, -12.112251904925122 ], [ -76.93065323037105, -12.112188129070013 ], [ -76.930523405277185, -12.094111818726976 ], [ -76.939707518765402, -12.094047837616598 ], [ -76.939577286408067, -12.075971600843966 ], [ -76.957944124752444, -12.075842927237666 ], [ -76.957878472162903, -12.066804898644058 ], [ -76.967061504764587, -12.066740157652934 ], [ -76.966995597797919, -12.057702172750089 ], [ -76.930264380294247, -12.057959123550713 ], [ -76.930329058410393, -12.066997306645048 ], [ -76.911962521759207, -12.067124066087839 ], [ -76.911898458118799, -12.058085785296536 ], [ -76.893532329632237, -12.058211237853872 ], [ -76.893595778763668, -12.067249615409557 ], [ -76.884412330505185, -12.067311936255173 ], [ -76.884349188640599, -12.058273510667032 ], [ -76.875165996813166, -12.058335481159357 ], [ -76.875103212812093, -12.049297001597747 ], [ -76.856737291719014, -12.049419940695678 ], [ -76.856675171883396, -12.040381360077411 ], [ -76.847492442889362, -12.040442329370007 ], [ -76.847616118789603, -12.058519578633272 ], [ -76.820065792148725, -12.058700954940271 ], [ -76.820004850483429, -12.049662193497866 ], [ -76.810821616815346, -12.049722001363399 ], [ -76.810882251396805, -12.058760808969792 ], [ -76.792515023569806, -12.05887960987422 ], [ -76.79245500317964, -12.049840710639462 ], [ -76.78327162370671, -12.049899612034997 ], [ -76.783211958530742, -12.040860661195961 ], [ -76.755662453086472, -12.04103541733835 ], [ -76.755603755893716, -12.031996325387327 ], [ -76.746420799011617, -12.032053928997911 ], [ -76.746362455564338, -12.023014786401481 ], [ -76.737179757983654, -12.023072043987852 ], [ -76.737121767787201, -12.014032850989262 ], [ -76.700391736164335, -12.014258691362027 ], [ -76.700448501660929, -12.023298059176055 ], [ -76.691265572316809, -12.023353809148105 ], [ -76.69132207723068, -12.032393213984466 ], [ -76.682138795827697, -12.032448705302757 ], [ -76.682195039664165, -12.041488146929392 ], [ -76.673011406187698, -12.041543379123182 ], [ -76.673179488401345, -12.068661795355133 ], [ -76.682364043470798, -12.06860643516529 ], [ -76.682476939662649, -12.086685263409175 ], [ -76.691662064950478, -12.086629514690781 ], [ -76.691775759409339, -12.104708232608022 ], [ -76.700961455628914, -12.104652094423733 ], [ -76.70101868003853, -12.113691401029582 ], [ -76.691832675150465, -12.113747582362459 ], [ -76.691889636575922, -12.122786925974989 ], [ -76.673516872139999, -12.122898462604871 ], [ -76.673629694877661, -12.140977302608665 ], [ -76.664442626121655, -12.141032699650857 ], [ -76.664555010091235, -12.159111599978813 ], [ -76.682930341600454, -12.159000330992791 ], [ -76.682873507278629, -12.149960969062141 ], [ -76.692060795032162, -12.149904919917779 ], [ -76.692117939268883, -12.158944238919325 ], [ -76.719680456954464, -12.15877413246228 ], [ -76.71973857735631, -12.167813315103857 ], [ -76.747301607231961, -12.167640331145344 ], [ -76.747360705226129, -12.176679375304621 ], [ -76.75654859810696, -12.176621058937922 ], [ -76.756429828867113, -12.158543053569252 ], [ -76.793178441473358, -12.158307094780834 ], [ -76.79323904272367, -12.167345919961104 ], [ -76.802426385445656, -12.167286122103029 ], [ -76.802487345470908, -12.176324895347776 ], [ -76.820862505169529, -12.176204291898486 ], [ -76.820800924530133, -12.167165610825867 ], [ -76.829988120396877, -12.167104897422002 ], [ -76.829864486862334, -12.149027609518864 ], [ -76.839051013450998, -12.148966684278346 ], [ -76.839175266816127, -12.167043878851498 ], [ -76.848362363540005, -12.166982555122059 ], [ -76.84842487504055, -12.176021096186084 ], [ -76.875986795349746, -12.175835152012906 ], [ -76.876050288333346, -12.184873544736803 ], [ -76.885237804537809, -12.18481090477367 ], [ -76.885110248525152, -12.166734208770503 ], [ -76.875923353061111, -12.166796753057815 ], [ -76.875733330282586, -12.139681518849203 ] ] ] } },
{ "type": "Feature", "properties": { "cine_id": "CP14", "cell_id": "C00744", "name": "Cineplanet Risso", "distrito": "Lince", "n_cells": 4, "pob_inei": 50513.904546847058, "pob_worldpop": 48394.21875, "dur_min_avg": 2.8870833333333334, "dur_p50_min": 3.0408333333333331, "dur_p90_min": 3.9028333333333336, "dist_avg_km": 1.385625, "area_km2": 4.0000000000024452, "dens_worldpop_km2": 12098.554687492604, "dens_inei_km2": 12628.476136704045 }, "geometry": { "type": "Polygon", "coordinates": [ [ [ -77.040797841873371, -12.102361587991821 ], [ -77.040523834281188, -12.066211341073563 ], [ -77.031341233164611, -12.066278501687057 ], [ -77.031614009762123, -12.102428955687506 ], [ -77.040797841873371, -12.102361587991821 ] ] ] } },
{ "type": "Feature", "properties": { "cine_id": "CP15", "cell_id": "C00812", "name": "Cineplanet Plaza Santa Catalina", "distrito": "La Victoria", "n_cells": 9, "pob_inei": 154650.66249994509, "pob_worldpop": 129580.6171875, "dur_min_avg": 3.8133333333333339, "dur_p50_min": 3.8033333333333332, "dur_p90_min": 5.191, "dist_avg_km": 2.1677, "area_km2": 8.9999999999996216, "dens_worldpop_km2": 14397.846354167272, "dens_inei_km2": 17183.406944439066 }, "geometry": { "type": "Polygon", "coordinates": [ [ [ -77.031682340980609, -12.111466553572193 ], [ -77.031341233164611, -12.066278501687057 ], [ -77.012975866775363, -12.066411915635046 ], [ -77.013246181277594, -12.102562781002675 ], [ -77.022430122814399, -12.10249602002728 ], [ -77.022498145656925, -12.111533669457719 ], [ -77.031682340980609, -12.111466553572193 ] ] ] } },
{ "type": "Feature", "properties": { "cine_id": "CP16", "cell_id": "C00945", "name": "Cineplanet", "distrito": "San Borja", "n_cells": 19, "pob_inei": 276834.33603284764, "pob_worldpop": 303787.951171875, "dur_min_avg": 5.4378070175438591, "dur_p50_min": 5.0733333333333333, "dur_p90_min": 8.4176666666666673, "dist_avg_km": 3.3502105263157897, "area_km2": 18.999999999999361, "dens_worldpop_km2": 15988.83953536238, "dens_inei_km2": 14570.22821225563 }, "geometry": { "type": "MultiPolygon", "coordinates": [ [ [ [ -77.013246181277594, -12.102562781002675 ], [ -77.012908423938143, -12.057374183716421 ], [ -76.994543454644841, -12.057506286010037 ], [ -76.994476679933243, -12.048468445983174 ], [ -76.985294421384836, -12.04853399320459 ], [ -76.98542741051034, -12.066609768233482 ], [ -76.976244484296174, -12.066675114180004 ], [ -76.976377072573072, -12.084750965080323 ], [ -76.985560613894748, -12.084685518396565 ], [ -76.985627295955624, -12.093723384142381 ], [ -76.994811091611453, -12.093657583920431 ], [ -76.994878135426532, -12.10269539282665 ], [ -77.013246181277594, -12.102562781002675 ] ] ], [ [ [ -76.976509874188451, -12.102826791092454 ], [ -76.985694031607153, -12.102761243658486 ], [ -76.985627295955624, -12.093723384142381 ], [ -76.976443446709155, -12.093788881199622 ], [ -76.976509874188451, -12.102826791092454 ] ] ], [ [ [ -76.976244484296174, -12.066675114180004 ], [ -76.976178270138149, -12.057637179407818 ], [ -76.966995597797919, -12.057702172750089 ], [ -76.967061504764587, -12.066740157652934 ], [ -76.976244484296174, -12.066675114180004 ] ] ] ] } },
{ "type": "Feature", "properties": { "cine_id": "CP17", "cell_id": "C00556", "name": "Cineplanet Salaverry", "distrito": "Jesús María", "n_cells": 8, "pob_inei": 117286.7091644496, "pob_worldpop": 97097.46240234375, "dur_min_avg": 4.1345833333333335, "dur_p50_min": 4.2983333333333329, "dur_p90_min": 5.0781666666666663, "dist_avg_km": 1.8704375, "area_km2": 7.9999999999996509, "dens_worldpop_km2": 12137.182800293498, "dens_inei_km2": 14660.83864555684 }, "geometry": { "type": "Polygon", "coordinates": [ [ [ -77.068210044916697, -12.084082867326066 ], [ -77.059026994737806, -12.084151040091941 ], [ -77.058957905153989, -12.075113579474618 ], [ -77.040592253584478, -12.075248912168517 ], [ -77.040797841873371, -12.102361587991821 ], [ -77.068349006714001, -12.102157664854557 ], [ -77.068210044916697, -12.084082867326066 ] ] ] } },
{ "type": "Feature", "properties": { "cine_id": "CP18", "cell_id": "C01308", "name": "Cineplanet", "distrito": "La Molina", "n_cells": 12, "pob_inei": 39554.868331633552, "pob_worldpop": 61659.2333984375, "dur_min_avg": 4.8580555555555547, "dur_p50_min": 4.94, "dur_p90_min": 6.8216666666666672, "dist_avg_km": 2.5404083333333332, "area_km2": 12.000000000000059, "dens_worldpop_km2": 5138.2694498697665, "dens_inei_km2": 3296.2390276361134 }, "geometry": { "type": "Polygon", "coordinates": [ [ [ -76.949088246470126, -12.121097713504577 ], [ -76.948957082811233, -12.103021612924572 ], [ -76.958141399543024, -12.102956975733715 ], [ -76.957944124752444, -12.075842927237666 ], [ -76.939577286408067, -12.075971600843966 ], [ -76.939707518765402, -12.094047837616598 ], [ -76.930523405277185, -12.094111818726976 ], [ -76.93065323037105, -12.112188129070013 ], [ -76.921468448082678, -12.112251904925122 ], [ -76.921533130091291, -12.121290099753944 ], [ -76.949088246470126, -12.121097713504577 ] ] ] } },
{ "type": "Feature", "properties": { "cine_id": "CP19", "cell_id": "C01132", "name": "Cineplanet El Polo", "distrito": "Santiago de Surco", "n_cells": 15, "pob_inei": 104302.69140299564, "pob_worldpop": 159867.71533203125, "dur_min_avg": 4.5587777777777774, "dur_p50_min": 4.0483333333333338, "dur_p90_min": 6.982, "dist_avg_km": 2.6131333333333333, "area_km2": 15.000000000000149, "dens_worldpop_km2": 10657.847688801978, "dens_inei_km2": 6953.5127601996401 }, "geometry": { "type": "Polygon", "coordinates": [ [ [ -76.976709476771887, -12.129940483368024 ], [ -76.976443446709155, -12.093788881199622 ], [ -76.985627295955624, -12.093723384142381 ], [ -76.985560613894748, -12.084685518396565 ], [ -76.976377072573072, -12.084750965080323 ], [ -76.976244484296174, -12.066675114180004 ], [ -76.957878472162903, -12.066804898644058 ], [ -76.958141399543024, -12.102956975733715 ], [ -76.948957082811233, -12.103021612924572 ], [ -76.949022638331726, -12.112059666327387 ], [ -76.958207263508953, -12.111994979456098 ], [ -76.958273180340328, -12.121032976949648 ], [ -76.967458061336529, -12.120967936505739 ], [ -76.967524339973849, -12.130005877845973 ], [ -76.976709476771887, -12.129940483368024 ] ] ] } },
{ "type": "Feature", "properties": { "cine_id": "CP20", "cell_id": "C00879", "name": "Cineplanet Primavera", "distrito": "San Borja", "n_cells": 10, "pob_inei": 151897.11974063577, "pob_worldpop": 157411.4853515625, "dur_min_avg": 3.7908333333333326, "dur_p50_min": 3.6816666666666662, "dur_p90_min": 5.7513333333333332, "dist_avg_km": 2.1605, "area_km2": 10.000000000001162, "dens_worldpop_km2": 15741.148535154422, "dens_inei_km2": 15189.711974061813 }, "geometry": { "type": "Polygon", "coordinates": [ [ [ -77.013381664543502, -12.120638176240387 ], [ -77.022566223097343, -12.120571312636452 ], [ -77.022430122814399, -12.10249602002728 ], [ -76.994878135426532, -12.10269539282665 ], [ -76.995146849241522, -12.138846566033395 ], [ -77.013517365246258, -12.138713546466814 ], [ -77.013381664543502, -12.120638176240387 ] ] ] } },
{ "type": "Feature", "properties": { "cine_id": "CP21", "cell_id": "C01065", "name": "Cineplanet", "distrito": "Santiago de Surco", "n_cells": 9, "pob_inei": 86150.218306736453, "pob_worldpop": 131666.1142578125, "dur_min_avg": 3.8472222222222223, "dur_p50_min": 4.1183333333333332, "dur_p90_min": 5.0366666666666671, "dist_avg_km": 2.0215666666666667, "area_km2": 9.0000000000044516, "dens_worldpop_km2": 14629.568250860819, "dens_inei_km2": 9572.2464785215379 }, "geometry": { "type": "Polygon", "coordinates": [ [ [ -76.995146849241522, -12.138846566033395 ], [ -76.994811091611453, -12.093657583920431 ], [ -76.985627295955624, -12.093723384142381 ], [ -76.985694031607153, -12.102761243658486 ], [ -76.976509874188451, -12.102826791092454 ], [ -76.976776117710315, -12.138978368310852 ], [ -76.995146849241522, -12.138846566033395 ] ] ] } },
{ "type": "Feature", "properties": { "cine_id": "CP22", "cell_id": "C00497", "name": "Cineplanet", "distrito": "Miraflores", "n_cells": 22, "pob_inei": 149812.07488520275, "pob_worldpop": 136176.501953125, "dur_min_avg": 6.0280303030303042, "dur_p50_min": 5.9758333333333331, "dur_p90_min": 9.141, "dist_avg_km": 3.6998454545454544, "area_km2": 21.999999999999826, "dens_worldpop_km2": 6189.8409978693671, "dens_inei_km2": 6809.6397675092694 }, "geometry": { "type": "MultiPolygon", "coordinates": [ [ [ [ -77.041003925917465, -12.129474207529638 ], [ -77.050188628761774, -12.12940638044042 ], [ -77.05011957012853, -12.120368898874554 ], [ -77.059303908770488, -12.120300819998954 ], [ -77.059234596889738, -12.111263384415423 ], [ -77.077602489969749, -12.111126420479701 ], [ -77.077462800114134, -12.093051740894191 ], [ -77.068279497906801, -12.093120269220115 ], [ -77.068349006714001, -12.102157664854557 ], [ -77.031614009762123, -12.102428955687506 ], [ -77.031682340980609, -12.111466553572193 ], [ -77.022498145656925, -12.111533669457719 ], [ -77.022566223097343, -12.120571312636452 ], [ -77.013381664543502, -12.120638176240387 ], [ -77.013585297158457, -12.147751222189729 ], [ -77.022770783094302, -12.147684204618114 ], [ -77.022907429577216, -12.165759434599503 ], [ -77.032093480354817, -12.165692009369467 ], [ -77.031887663743703, -12.138579309678308 ], [ -77.041072730808239, -12.138511734846997 ], [ -77.041003925917465, -12.129474207529638 ] ] ], [ [ [ -77.013585297158457, -12.147751222189729 ], [ -77.004399756836975, -12.147817935222649 ], [ -77.004467433503464, -12.156855655775454 ], [ -77.013653283456307, -12.156788891646555 ], [ -77.013585297158457, -12.147751222189729 ] ] ] ] } },
{ "type": "Feature", "properties": { "cine_id": "CP23", "cell_id": "C00940", "name": "Cineplanet", "distrito": "San Juan de Miraflores", "n_cells": 26, "pob_inei": 319436.15827897593, "pob_worldpop": 379968.03228759766, "dur_min_avg": 7.1336538461538463, "dur_p50_min": 6.6783333333333328, "dur_p90_min": 10.505833333333332, "dist_avg_km": 4.1666692307692301, "area_km2": 26.000000000000028, "dens_worldpop_km2": 14614.155087984509, "dens_inei_km2": 12286.006087652906 }, "geometry": { "type": "Polygon", "coordinates": [ [ [ -76.976976360878538, -12.166091985630453 ], [ -76.986162682433971, -12.166026085468225 ], [ -76.986095571405116, -12.156988269683792 ], [ -77.004467433503464, -12.156855655775454 ], [ -77.004399756836975, -12.147817935222649 ], [ -77.013585297158457, -12.147751222189729 ], [ -77.013517365246258, -12.138713546466814 ], [ -76.976776117710315, -12.138978368310852 ], [ -76.976709476771887, -12.129940483368024 ], [ -76.967524339973849, -12.130005877845973 ], [ -76.967458061336529, -12.120967936505739 ], [ -76.958273180340328, -12.121032976949648 ], [ -76.958207263508953, -12.111994979456098 ], [ -76.949022638331726, -12.112059666327387 ], [ -76.949088246470126, -12.121097713504577 ], [ -76.939903259973505, -12.121162146162355 ], [ -76.940034015992424, -12.139238320732678 ], [ -76.958405172633604, -12.139108953232604 ], [ -76.958669791982217, -12.175260830858518 ], [ -76.967856530284976, -12.175195490845717 ], [ -76.967989778561829, -12.193271292235959 ], [ -76.977177084758154, -12.193205546594074 ], [ -76.976976360878538, -12.166091985630453 ] ] ] } },
{ "type": "Feature", "properties": { "cine_id": "CP24", "cell_id": "C00736", "name": "Cineplanet", "distrito": "Chorrillos", "n_cells": 59, "pob_inei": 385273.88343359123, "pob_worldpop": 480588.71450805664, "dur_min_avg": 9.5533333333333346, "dur_p50_min": 9.02, "dur_p90_min": 15.394666666666669, "dist_avg_km": 6.2173203389830514, "area_km2": 59.000000000002174, "dens_worldpop_km2": 8145.5714323396433, "dens_inei_km2": 6530.0658209080848 }, "geometry": { "type": "MultiPolygon", "coordinates": [ [ [ [ -77.041625154990456, -12.210811727233096 ], [ -77.041348501656401, -12.174661781355304 ], [ -77.032162195677387, -12.174729563375859 ], [ -77.032093480354817, -12.165692009369467 ], [ -77.022907429577216, -12.165759434599503 ], [ -77.022770783094302, -12.147684204618114 ], [ -77.013585297158457, -12.147751222189729 ], [ -77.013653283456307, -12.156788891646555 ], [ -76.986095571405116, -12.156988269683792 ], [ -76.986162682433971, -12.166026085468225 ], [ -76.976976360878538, -12.166091985630453 ], [ -76.977378289583655, -12.220319051082599 ], [ -76.968190049927955, -12.220384947272196 ], [ -76.968256913471564, -12.229422819720211 ], [ -76.959068308941553, -12.229488459418613 ], [ -76.959134913804633, -12.238526375536241 ], [ -76.940756922223599, -12.238656834076775 ], [ -76.940822955738881, -12.247694843128123 ], [ -76.968390800243185, -12.247498545743714 ], [ -76.968323830240408, -12.238460685878854 ], [ -76.986701503162081, -12.238328385831339 ], [ -76.986633962607797, -12.22929062029084 ], [ -77.005010796858869, -12.229157194207115 ], [ -77.004942686771557, -12.220119523915727 ], [ -77.023318680934381, -12.219984973723525 ], [ -77.023250002332517, -12.210947399605764 ], [ -77.041625154990456, -12.210811727233096 ] ] ], [ [ [ -76.895069226749172, -12.275130583317045 ], [ -76.91345024015888, -12.275002806686024 ], [ -76.913384987921461, -12.2659646693987 ], [ -76.89500460041981, -12.266092349120854 ], [ -76.895069226749172, -12.275130583317045 ] ] ], [ [ [ -76.913384987921461, -12.2659646693987 ], [ -76.931765168340164, -12.265835759023373 ], [ -76.931699342495804, -12.256797713284879 ], [ -76.913319787454768, -12.256926525823765 ], [ -76.913384987921461, -12.2659646693987 ] ] ], [ [ [ -76.940889041752442, -12.256732845891035 ], [ -76.940822955738881, -12.247694843128123 ], [ -76.931633568910115, -12.247759661256767 ], [ -76.931699342495804, -12.256797713284879 ], [ -76.940889041752442, -12.256732845891035 ] ] ] ] } },
{ "type": "Feature", "properties": { "cine_id": "CP25", "cell_id": "C01242", "name": "Cineplanet", "distrito": "Villa María del Triunfo", "n_cells": 64, "pob_inei": 436418.66931105097, "pob_worldpop": 427481.17901611328, "dur_min_avg": 13.72171875, "dur_p50_min": 13.58, "dur_p90_min": 23.26, "dist_avg_km": 6.5874578124999994, "area_km2": 63.999999999994444, "dens_worldpop_km2": 6679.3934221273503, "dens_inei_km2": 6819.0417079857634 }, "geometry": { "type": "Polygon", "coordinates": [ [ [ -76.958802419174944, -12.193336732130966 ], [ -76.958736079111546, -12.184298784626787 ], [ -76.967923127832449, -12.184233394674509 ], [ -76.967856530284976, -12.175195490845717 ], [ -76.958669791982217, -12.175260830858518 ], [ -76.958405172633604, -12.139108953232604 ], [ -76.940034015992424, -12.139238320732678 ], [ -76.939903259973505, -12.121162146162355 ], [ -76.893977546759302, -12.12147975071051 ], [ -76.894041353703457, -12.130518084880816 ], [ -76.884855747648217, -12.13058074204028 ], [ -76.884919296494559, -12.139619118052359 ], [ -76.875733330282586, -12.139681518849203 ], [ -76.875923353061111, -12.166796753057815 ], [ -76.885110248525152, -12.166734208770503 ], [ -76.885365564354899, -12.202887575822098 ], [ -76.912929671366385, -12.202697532580125 ], [ -76.912800046453029, -12.18462115139701 ], [ -76.931174616335824, -12.184493121319857 ], [ -76.931240024349748, -12.193531217252234 ], [ -76.958802419174944, -12.193336732130966 ] ] ] } },
{ "type": "Feature", "properties": { "cine_id": "CP26", "cell_id": "C01180", "name": "Cineplanet", "distrito": "Villa El Salvador", "n_cells": 53, "pob_inei": 461491.32194179704, "pob_worldpop": 755218.77453613281, "dur_min_avg": 7.4452830188679231, "dur_p50_min": 7.165, "dur_p90_min": 11.599, "dist_avg_km": 4.856926415094339, "area_km2": 52.999999999997392, "dens_worldpop_km2": 14249.410840305094, "dens_inei_km2": 8707.3834328645244 }, "geometry": { "type": "Polygon", "coordinates": [ [ [ -76.959068308941553, -12.229488459418613 ], [ -76.968256913471564, -12.229422819720211 ], [ -76.968190049927955, -12.220384947272196 ], [ -76.977378289583655, -12.220319051082599 ], [ -76.977177084758154, -12.193205546594074 ], [ -76.967989778561829, -12.193271292235959 ], [ -76.967923127832449, -12.184233394674509 ], [ -76.958736079111546, -12.184298784626787 ], [ -76.958802419174944, -12.193336732130966 ], [ -76.931240024349748, -12.193531217252234 ], [ -76.931174616335824, -12.184493121319857 ], [ -76.912800046453029, -12.18462115139701 ], [ -76.912929671366385, -12.202697532580125 ], [ -76.885365564354899, -12.202887575822098 ], [ -76.885429520710815, -12.211925901977329 ], [ -76.876241071536327, -12.211988685477516 ], [ -76.876368513964408, -12.230065414735028 ], [ -76.885557586358971, -12.230002535527898 ], [ -76.885621695667822, -12.239040842914477 ], [ -76.904000311170293, -12.238914067830899 ], [ -76.904065095915712, -12.247952272529545 ], [ -76.940822955738881, -12.247694843128123 ], [ -76.940756922223599, -12.238656834076775 ], [ -76.959134913804633, -12.238526375536241 ], [ -76.959068308941553, -12.229488459418613 ] ] ] } },
{ "type": "Feature", "properties": { "cine_id": "CP27", "cell_id": "C01462", "name": "Cineplanet", "distrito": "Lurín", "n_cells": 659, "pob_inei": 172132.42298843688, "pob_worldpop": 222994.3478782177, "dur_min_avg": 38.102111785533637, "dur_p50_min": 36.081666666666671, "dur_p90_min": 65.939666666666682, "dist_avg_km": 21.282309408194234, "area_km2": 659.00000000000659, "dens_worldpop_km2": 338.38292546011451, "dens_inei_km2": 261.2024628049092 }, "geometry": { "type": "Polygon", "coordinates": [ [ [ -76.876816161350774, -12.293333769795918 ], [ -76.886007422833046, -12.293270555516022 ], [ -76.88594300739328, -12.284232285785032 ], [ -76.904324750038029, -12.284105028523674 ], [ -76.904259759219485, -12.275066848953982 ], [ -76.895069226749172, -12.275130583317045 ], [ -76.89500460041981, -12.266092349120854 ], [ -76.913384987921461, -12.2659646693987 ], [ -76.913319787454768, -12.256926525823765 ], [ -76.931699342495804, -12.256797713284879 ], [ -76.931633568910115, -12.247759661256767 ], [ -76.904065095915712, -12.247952272529545 ], [ -76.904000311170293, -12.238914067830899 ], [ -76.885621695667822, -12.239040842914477 ], [ -76.885557586358971, -12.230002535527898 ], [ -76.876368513964408, -12.230065414735028 ], [ -76.876241071536327, -12.211988685477516 ], [ -76.885429520710815, -12.211925901977329 ], [ -76.885237804537809, -12.18481090477367 ], [ -76.876050288333346, -12.184873544736803 ], [ -76.875986795349746, -12.175835152012906 ], [ -76.84842487504055, -12.176021096186084 ], [ -76.848362363540005, -12.166982555122059 ], [ -76.839175266816127, -12.167043878851498 ], [ -76.839051013450998, -12.148966684278346 ], [ -76.829864486862334, -12.149027609518864 ], [ -76.829988120396877, -12.167104897422002 ], [ -76.820800924530133, -12.167165610825867 ], [ -76.820862505169529, -12.176204291898486 ], [ -76.802487345470908, -12.176324895347776 ], [ -76.802426385445656, -12.167286122103029 ], [ -76.79323904272367, -12.167345919961104 ], [ -76.793178441473358, -12.158307094780834 ], [ -76.756429828867113, -12.158543053569252 ], [ -76.75654859810696, -12.176621058937922 ], [ -76.747360705226129, -12.176679375304621 ], [ -76.747301607231961, -12.167640331145344 ], [ -76.71973857735631, -12.167813315103857 ], [ -76.719680456954464, -12.15877413246228 ], [ -76.692117939268883, -12.158944238919325 ], [ -76.692060795032162, -12.149904919917779 ], [ -76.682873507278629, -12.149960969062141 ], [ -76.682930341600454, -12.159000330992791 ], [ -76.664555010091235, -12.159111599978813 ], [ -76.664611269538696, -12.168151040912038 ], [ -76.655423226008921, -12.168206260042012 ], [ -76.655535258751968, -12.186285207896505 ], [ -76.646346549357048, -12.186340205724861 ], [ -76.646458138985167, -12.204419212932404 ], [ -76.637268762951834, -12.204473988529026 ], [ -76.637324313099242, -12.213513524655912 ], [ -76.618944805570592, -12.213622239936466 ], [ -76.619220098651894, -12.258820242247696 ], [ -76.628411435425363, -12.258765831259369 ], [ -76.628578076589292, -12.285884434420968 ], [ -76.637770308854002, -12.285829591079791 ], [ -76.637826257753943, -12.294869071494148 ], [ -76.647018759358843, -12.294813877993892 ], [ -76.647131418288183, -12.312892736569186 ], [ -76.656324503383573, -12.312837150404787 ], [ -76.656381214166103, -12.321876528315117 ], [ -76.665574568813682, -12.321820590828787 ], [ -76.665631639112377, -12.330859920227656 ], [ -76.674825263297336, -12.330803630956193 ], [ -76.674882693609604, -12.339842911599955 ], [ -76.665688754528531, -12.339899243389127 ], [ -76.66591766751624, -12.376056473574764 ], [ -76.675112868669714, -12.375999971686728 ], [ -76.675170525924912, -12.385039221064764 ], [ -76.693561424030264, -12.384925199533532 ], [ -76.693619759452446, -12.393964356874839 ], [ -76.721206710747836, -12.393790862547476 ], [ -76.72126604191034, -12.402829883194336 ], [ -76.74885352298891, -12.402653456470391 ], [ -76.749337478037035, -12.474964334377027 ], [ -76.758535752078629, -12.474904545599685 ], [ -76.758657853366572, -12.492982112498108 ], [ -76.767856717534002, -12.492921920740438 ], [ -76.767979648661196, -12.51099937244234 ], [ -76.777179103670704, -12.51093877676408 ], [ -76.777240961040988, -12.519977447934982 ], [ -76.795640365588895, -12.519855223308666 ], [ -76.795577868656665, -12.510816643136916 ], [ -76.804777178134216, -12.510755105203469 ], [ -76.804526401343878, -12.474600904283053 ], [ -76.7953283684475, -12.474662258844823 ], [ -76.795079647880357, -12.438507772992931 ], [ -76.785882838881506, -12.438568632025902 ], [ -76.785574618931875, -12.39337515439996 ], [ -76.79476984275405, -12.393314523283008 ], [ -76.79470802772579, -12.384275854398462 ], [ -76.803902886612647, -12.384214958052576 ], [ -76.803778770674526, -12.366137692982464 ], [ -76.812972948867539, -12.366076577915464 ], [ -76.812910648696047, -12.357037981963247 ], [ -76.822104462242891, -12.356976602842373 ], [ -76.821979378963249, -12.338899484574553 ], [ -76.831172512867965, -12.338837888365795 ], [ -76.831109730497715, -12.329799366283426 ], [ -76.84030250004561, -12.329737507195611 ], [ -76.840239452761722, -12.320699025544538 ], [ -76.849431857969165, -12.320636904049707 ], [ -76.849368546268792, -12.311598463061772 ], [ -76.858560587152212, -12.31153607963194 ], [ -76.85849701153235, -12.302497679538941 ], [ -76.876880314121578, -12.30237208111572 ], [ -76.876816161350774, -12.293333769795918 ] ] ] } }
]
}
