{
"type": "FeatureCollection",
"name": "zonas_perdidas_por_brand",
"crs": { "type": "name", "properties": { "name": "urn:ogc:def:crs:OGC:1.3:CRS84" } },
"features": [
{ "type": "Feature", "properties": { "brand": "Cinemark", "pob_wp": 414710.93515014648 }, "geometry": { "type": "MultiPolygon", "coordinates": [ [ [ [ -77.041348501656401, -12.174661781355304 ], [ -77.032162195677387, -12.174729563375859 ], [ -77.032093480354817, -12.165692009369467 ], [ -77.022907429577216, -12.165759434599503 ], [ -77.022770783094302, -12.147684204618114 ], [ -77.013585297158457, -12.147751222189729 ], [ -77.013857568751945, -12.183901862376207 ], [ -77.032230965907573, -12.183767111096204 ], [ -77.032299791054299, -12.192804652526075 ], [ -77.041486717976824, -12.192736766890738 ], [ -77.041348501656401, -12.174661781355304 ] ] ], [ [ [ -77.022430122814399, -12.10249602002728 ], [ -77.004062185399178, -12.102629238605264 ], [ -77.004129591463325, -12.111666990427782 ], [ -77.013313895735337, -12.111600481745731 ], [ -77.013381664543502, -12.120638176240387 ], [ -77.022566223097343, -12.120571312636452 ], [ -77.022430122814399, -12.10249602002728 ] ] ], [ [ [ -77.031409345090225, -12.075316124547561 ], [ -77.031341233164611, -12.066278501687057 ], [ -77.022158577246913, -12.066345359877031 ], [ -77.022090827261664, -12.057307679254498 ], [ -76.985360889169542, -12.057571883825053 ], [ -76.98542741051034, -12.066609768233482 ], [ -76.994610283159787, -12.066544119821618 ], [ -76.994677165486749, -12.075581947413488 ], [ -77.013043363919152, -12.075449641327408 ], [ -77.013110915378292, -12.084487360789089 ], [ -77.02229424088776, -12.084420702428995 ], [ -77.022226381786012, -12.075383034270008 ], [ -77.031409345090225, -12.075316124547561 ] ] ], [ [ [ -77.057791874376377, -11.921475796763252 ], [ -77.057928222615971, -11.939550923022308 ], [ -77.067106380873895, -11.939483589342572 ], [ -77.066969425587715, -11.921408567909035 ], [ -77.057791874376377, -11.921475796763252 ] ] ], [ [ [ -77.013449487710872, -12.129675864482225 ], [ -77.013381664543502, -12.120638176240387 ], [ -77.004197051630442, -12.120704736005203 ], [ -77.004264565909239, -12.129742475333101 ], [ -77.013449487710872, -12.129675864482225 ] ] ], [ [ [ -76.976443446709155, -12.093788881199622 ], [ -76.976178270138149, -12.057637179407818 ], [ -76.957812872396147, -12.057766863843664 ], [ -76.957878472162903, -12.066804898644058 ], [ -76.948695386738422, -12.066869337145201 ], [ -76.948760731872227, -12.075907415406444 ], [ -76.967127464801365, -12.075778136345784 ], [ -76.967259544119472, -12.093854075083874 ], [ -76.976443446709155, -12.093788881199622 ] ] ] ] } },
{ "type": "Feature", "properties": { "brand": "Cinerama", "pob_wp": 34359.007080078125 }, "geometry": { "type": "MultiPolygon", "coordinates": [ [ [ [ -77.041072730808239, -12.138511734846997 ], [ -77.041003925917465, -12.129474207529638 ], [ -77.031819167962539, -12.12954173057202 ], [ -77.031887663743703, -12.138579309678308 ], [ -77.041072730808239, -12.138511734846997 ] ] ], [ [ [ -77.040935176137353, -12.120436673945033 ], [ -77.041003925917465, -12.129474207529638 ], [ -77.050188628761774, -12.12940638044042 ], [ -77.05011957012853, -12.120368898874554 ], [ -77.040935176137353, -12.120436673945033 ] ] ], [ [ [ -77.031819167962539, -12.12954173057202 ], [ -77.031682340980609, -12.111466553572193 ], [ -77.022498145656925, -12.111533669457719 ], [ -77.022566223097343, -12.120571312636452 ], [ -77.013381664543502, -12.120638176240387 ], [ -77.013449487710872, -12.129675864482225 ], [ -77.031819167962539, -12.12954173057202 ] ] ], [ [ [ -77.050050566844476, -12.11133141104251 ], [ -77.05011957012853, -12.120368898874554 ], [ -77.059303908770488, -12.120300819998954 ], [ -77.059234596889738, -12.111263384415423 ], [ -77.050050566844476, -12.11133141104251 ] ] ] ] } },
{ "type": "Feature", "properties": { "brand": "Cinestar", "pob_wp": 1388360.293217659 }, "geometry": { "type": "MultiPolygon", "coordinates": [ [ [ [ -77.013653283456307, -12.156788891646555 ], [ -76.99528152940384, -12.156922115123997 ], [ -76.995483953912427, -12.184035391769516 ], [ -77.013857568751945, -12.183901862376207 ], [ -77.013653283456307, -12.156788891646555 ] ] ], [ [ [ -77.031545733380142, -12.093391351552219 ], [ -77.040729257371694, -12.093324035632081 ], [ -77.040660727945024, -12.084286477022836 ], [ -77.031477511825798, -12.084353741170757 ], [ -77.031545733380142, -12.093391351552219 ] ] ], [ [ [ -76.994677165486749, -12.075581947413488 ], [ -76.994610283159787, -12.066544119821618 ], [ -76.98542741051034, -12.066609768233482 ], [ -76.985493985415872, -12.075647646425459 ], [ -76.976310751771621, -12.075713042738975 ], [ -76.976377072573072, -12.084750965080323 ], [ -77.013110915378292, -12.084487360789089 ], [ -77.013043363919152, -12.075449641327408 ], [ -76.994677165486749, -12.075581947413488 ] ] ], [ [ [ -77.086296265922613, -12.047796365653905 ], [ -77.095477919134296, -12.04772749699611 ], [ -77.095407825320564, -12.038690222632534 ], [ -77.077045075804534, -12.038827551967845 ], [ -77.07697565117482, -12.029790165293726 ], [ -77.058613290333241, -12.029926182766713 ], [ -77.058338597658803, -11.993776153321468 ], [ -77.030798309859648, -11.99397729479227 ], [ -77.030730690827056, -11.984939615995623 ], [ -76.994010762719483, -11.985203392138954 ], [ -76.994077161049631, -11.994241275548882 ], [ -76.975716263199345, -11.994371462403755 ], [ -76.975782104375455, -12.003409440544697 ], [ -76.984962885501318, -12.003344447076602 ], [ -76.985029085634693, -12.012382368690885 ], [ -77.012572024044985, -12.01218543088447 ], [ -77.012639195480304, -12.021223193867936 ], [ -77.021820372683621, -12.02115689455745 ], [ -77.021685472489679, -12.003081464946836 ], [ -77.040046440016752, -12.002948169043824 ], [ -77.040114474167311, -12.011985783698968 ], [ -77.049295181213509, -12.011918632592003 ], [ -77.049569092883175, -12.048068821138148 ], [ -77.04038716081088, -12.048136180179485 ], [ -77.040455470026274, -12.057173763742405 ], [ -77.058819892632883, -12.057038639502387 ], [ -77.058888871122008, -12.066076112609954 ], [ -77.06807130635174, -12.066008044776916 ], [ -77.068002020758897, -12.056970624130706 ], [ -77.08636610942041, -12.056833686926927 ], [ -77.086296265922613, -12.047796365653905 ] ] ], [ [ [ -77.067312231313224, -11.966596075101851 ], [ -77.067106380873895, -11.939483589342572 ], [ -77.057928222615971, -11.939550923022308 ], [ -77.057860020791395, -11.930513362980879 ], [ -77.048682110770557, -11.93058034534225 ], [ -77.048885970801777, -11.957693163474872 ], [ -77.058064792529038, -11.957626024558758 ], [ -77.058133160635236, -11.966663566044881 ], [ -77.067312231313224, -11.966596075101851 ] ] ], [ [ [ -76.976842812035144, -12.148016247005144 ], [ -76.995214162377493, -12.147884343708443 ], [ -76.995079589987157, -12.12980878210327 ], [ -76.985894560192165, -12.129874784784354 ], [ -76.985827663716748, -12.120836943983893 ], [ -76.967458061336529, -12.120967936505739 ], [ -76.967391835820749, -12.111929988929036 ], [ -76.949022638331726, -12.112059666327387 ], [ -76.949088246470126, -12.121097713504577 ], [ -76.912347987200846, -12.121353620671599 ], [ -76.912412412118783, -12.130391858033843 ], [ -76.903226908609525, -12.130455123542685 ], [ -76.903291075941539, -12.139493403206989 ], [ -76.921662649767967, -12.139366470745721 ], [ -76.921727487452856, -12.148404646899875 ], [ -76.949285386678, -12.148211817638316 ], [ -76.949351205373262, -12.157249839868939 ], [ -76.95853737649135, -12.157184904547314 ], [ -76.958669791982217, -12.175260830858518 ], [ -76.977043215414469, -12.17512984555265 ], [ -76.976842812035144, -12.148016247005144 ] ] ], [ [ [ -76.77349676545316, -11.959567975140615 ], [ -76.764316347641866, -11.959625822364893 ], [ -76.764140763022979, -11.932508497619963 ], [ -76.754961210168872, -11.932565910798333 ], [ -76.754671035182454, -11.88737002447213 ], [ -76.745492950984257, -11.887426916057644 ], [ -76.745435360146985, -11.878387676139237 ], [ -76.736257531418516, -11.878444225475054 ], [ -76.73620028976066, -11.869404935269342 ], [ -76.717845096799266, -11.869517052811281 ], [ -76.717901734024949, -11.878556430801648 ], [ -76.708723765853165, -11.878612086778267 ], [ -76.708780146839501, -11.887651502277082 ], [ -76.690423467809893, -11.887762007214162 ], [ -76.690479289328394, -11.896801503071979 ], [ -76.681300578695499, -11.89685635132224 ], [ -76.681356142733733, -11.905895883994493 ], [ -76.672177083842499, -11.905950476576463 ], [ -76.672232389906867, -11.914990045831191 ], [ -76.663052982742926, -11.915044382274603 ], [ -76.663163122726431, -11.933123587442422 ], [ -76.653983063524265, -11.933177709438006 ], [ -76.654092774452465, -11.951256974748201 ], [ -76.644912062442742, -11.951310881367466 ], [ -76.645076048845681, -11.978429859740817 ], [ -76.67262079358828, -11.978266861224801 ], [ -76.672676460090585, -11.987306382030429 ], [ -76.700221714749375, -11.987140551355745 ], [ -76.700278342715905, -11.996179937447527 ], [ -76.709460308385445, -11.996124015992216 ], [ -76.709574313464287, -12.014202683206932 ], [ -76.746304159211618, -12.013975637689732 ], [ -76.746245909945955, -12.004936482867025 ], [ -76.764609939491166, -12.004821241738322 ], [ -76.764551126004037, -11.995782170070813 ], [ -76.773732763900384, -11.995724142952794 ], [ -76.77349676545316, -11.959567975140615 ] ] ] ] } },
{ "type": "Feature", "properties": { "brand": "Cinépolis", "pob_wp": 235686.92749023438 }, "geometry": { "type": "MultiPolygon", "coordinates": [ [ [ [ -77.032093480354817, -12.165692009369467 ], [ -77.031819167962539, -12.12954173057202 ], [ -77.022634355144476, -12.129608949559046 ], [ -77.022702541807192, -12.138646580221078 ], [ -77.013517365246258, -12.138713546466814 ], [ -77.013585297158457, -12.147751222189729 ], [ -77.022770783094302, -12.147684204618114 ], [ -77.022907429577216, -12.165759434599503 ], [ -77.032093480354817, -12.165692009369467 ] ] ], [ [ [ -76.976310751771621, -12.075713042738975 ], [ -76.985493985415872, -12.075647646425459 ], [ -76.985228007147583, -12.039496096376523 ], [ -76.957681831296966, -12.039690775640196 ], [ -76.957812872396147, -12.057766863843664 ], [ -76.976178270138149, -12.057637179407818 ], [ -76.976310751771621, -12.075713042738975 ] ] ] ] } },
{ "type": "Feature", "properties": { "brand": "MovieTime", "pob_wp": 509620.81085205078 }, "geometry": { "type": "MultiPolygon", "coordinates": [ [ [ [ -77.004942686771557, -12.220119523915727 ], [ -77.023318680934381, -12.219984973723525 ], [ -77.023250002332517, -12.210947399605764 ], [ -77.041625154990456, -12.210811727233096 ], [ -77.041486717976824, -12.192736766890738 ], [ -77.032299791054299, -12.192804652526075 ], [ -77.032230965907573, -12.183767111096204 ], [ -76.995483953912427, -12.184035391769516 ], [ -76.995551536587683, -12.193073138102919 ], [ -76.986364337516065, -12.193139495213609 ], [ -76.986431663237695, -12.202177285911379 ], [ -76.977244099583302, -12.20224338770447 ], [ -76.977043215414469, -12.17512984555265 ], [ -76.949483000754, -12.175325865582808 ], [ -76.949747223715931, -12.21147784189777 ], [ -76.958935258138382, -12.211412608329409 ], [ -76.959068308941553, -12.229488459418613 ], [ -76.949879651434358, -12.229553792428421 ], [ -76.949945944383003, -12.238591758271637 ], [ -76.940756922223599, -12.238656834076775 ], [ -76.940822955738881, -12.247694843128123 ], [ -76.968390800243185, -12.247498545743714 ], [ -76.968323830240408, -12.238460685878854 ], [ -76.986701503162081, -12.238328385831339 ], [ -76.986633962607797, -12.22929062029084 ], [ -77.005010796858869, -12.229157194207115 ], [ -77.004942686771557, -12.220119523915727 ] ] ], [ [ [ -77.031614009762123, -12.102428955687506 ], [ -77.049981618900688, -12.102293916948733 ], [ -77.049912726288227, -12.093256416597654 ], [ -77.031545733380142, -12.093391351552219 ], [ -77.031614009762123, -12.102428955687506 ] ] ], [ [ [ -76.895069226749172, -12.275130583317045 ], [ -76.91345024015888, -12.275002806686024 ], [ -76.913384987921461, -12.2659646693987 ], [ -76.89500460041981, -12.266092349120854 ], [ -76.895069226749172, -12.275130583317045 ] ] ], [ [ [ -76.931699342495804, -12.256797713284879 ], [ -76.913319787454768, -12.256926525823765 ], [ -76.913384987921461, -12.2659646693987 ], [ -76.931765168340164, -12.265835759023373 ], [ -76.931699342495804, -12.256797713284879 ] ] ], [ [ [ -76.940822955738881, -12.247694843128123 ], [ -76.931633568910115, -12.247759661256767 ], [ -76.931699342495804, -12.256797713284879 ], [ -76.940889041752442, -12.256732845891035 ], [ -76.940822955738881, -12.247694843128123 ] ] ] ] } },
{ "type": "Feature", "properties": { "brand": "UVK", "pob_wp": 503601.267578125 }, "geometry": { "type": "MultiPolygon", "coordinates": [ [ [ [ -77.022702541807192, -12.138646580221078 ], [ -77.022634355144476, -12.129608949559046 ], [ -76.995079589987157, -12.12980878210327 ], [ -76.995214162377493, -12.147884343708443 ], [ -76.986028514027666, -12.147950447638724 ], [ -76.986095571405116, -12.156988269683792 ], [ -77.013653283456307, -12.156788891646555 ], [ -77.013517365246258, -12.138713546466814 ], [ -77.022702541807192, -12.138646580221078 ] ] ], [ [ [ -77.04038716081088, -12.048136180179485 ], [ -77.049569092883175, -12.048068821138148 ], [ -77.049295181213509, -12.011918632592003 ], [ -77.040114474167311, -12.011985783698968 ], [ -77.040046440016752, -12.002948169043824 ], [ -77.021685472489679, -12.003081464946836 ], [ -77.021955490917591, -12.039232299338495 ], [ -77.01277370114849, -12.039298701218121 ], [ -77.012706421178578, -12.030260950647298 ], [ -76.966798195233139, -12.03058818082579 ], [ -76.966863943040735, -12.039626184332104 ], [ -76.985228007147583, -12.039496096376523 ], [ -76.985360889169542, -12.057571883825053 ], [ -77.022090827261664, -12.057307679254498 ], [ -77.022023131821484, -12.048269992406844 ], [ -77.031205173707917, -12.048203237271872 ], [ -77.031273176040116, -12.057240872593683 ], [ -77.040455470026274, -12.057173763742405 ], [ -77.04038716081088, -12.048136180179485 ] ] ] ] } }
]
}
